,Searched,City,State,Lat,Lng,Restaurant,Category,Transactions
0,Montezuma township,Milton,IL,39.56372,-90.6448,Dink's Diner,"['Desserts', 'Salad', 'Sandwiches']",[]
1,Montezuma township,Pearl,IL,39.5637933267045,-90.6490995393937,Mangley's,['American (Traditional)'],[]
2,Genoa City village,Genoa City,WI,42.496941,-88.330797,Fitzgerald's Genoa Junction,"['Seafood', 'Barbeque']",[]
3,Genoa City village,Genoa City,WI,42.4985619265776,-88.31384014817,Herner's Hideaway,"['Bars', 'American (New)']",[]
4,Genoa City village,Genoa City,WI,42.501185,-88.3193787,Wayne's Pizza,"['Pizza', 'Hot Dogs', 'American (Traditional)']",[]
5,Genoa City village,Genoa City,WI,42.52984,-88.325799,The Southern Stop,"['Bars', 'Wildlife Hunting Ranges', 'Southern']",[]
6,Genoa City village,Richmond,IL,42.47616,-88.30677,Paisano's on Broadway,"['Italian', 'Steakhouses']",[]
7,Genoa City village,Richmond,IL,42.4758889196667,-88.3060455322266,Richmond BratHaus,"['Bars', 'American (Traditional)']",[]
8,Genoa City village,Richmond,IL,42.475162909043,-88.306412342831,Anderson's Candy Shop,"['Candy Stores', 'Chocolatiers & Shops', 'Desserts']",[]
9,Genoa City village,Genoa City,WI,42.4983250380388,-88.3066400007801,Yolo's Restaurant,"['American (Traditional)', 'Breakfast & Brunch']",[]
10,Genoa City village,Richmond,IL,42.47621,-88.30738,Seaside Prime by Paisano's,"['Seafood', 'Bars', 'Italian']",[]
11,Genoa City village,Richmond,IL,42.4865811813266,-88.306651711464,Dog & Suds,['Diners'],[]
12,Genoa City village,Genoa City,WI,42.4957667735014,-88.3116206336213,Genoa City Travel Center,"['Gas Stations', 'Bakeries', 'Donuts']",[]
13,Genoa City village,Genoa City,WI,42.4984875979769,-88.3231166666667,La Cocina Genoa City,['Mexican'],[]
14,Genoa City village,Richmond,IL,42.47741,-88.30695,Doyle's Pub,"['Pubs', 'American (Traditional)']",[]
15,Genoa City village,Richmond,IL,42.49009,-88.306237,International House of Wine and Cheese and American Cafe,['American (Traditional)'],[]
16,Genoa City village,Genoa City,WI,42.4995422,-88.3339691,Barry's Bar,['Bars'],[]
17,Genoa City village,Richmond,IL,42.4757,-88.30651,Olive Black Martini and Wine Lounge,"['Wine Bars', 'Lounges']",[]
18,Genoa City village,Richmond,IL,42.4862698997,-88.3064659685,Red's Steak & BBQ,"['Steakhouses', 'Barbeque', 'Burgers']",[]
19,Genoa City village,Genoa City,WI,42.53868,-88.29497,Annex,"['Bars', 'American (Traditional)']",[]
20,Genoa City village,Richmond,IL,42.4863,-88.3066,The Cubby Hole,"['American (New)', 'Breakfast & Brunch']",[]
21,Genoa City village,Richmond,IL,42.470946,-88.306045,Rosati's Pizza,"['Pizza', 'Sports Bars', 'Italian']","['delivery', 'pickup']"
22,Henry County,McDonough,GA,33.445430789957,-84.1348483300247,BoJaynes,"['Delis', 'Specialty Food']",['delivery']
23,Henry County,McDonough,GA,33.4462928771973,-84.1470260620117,Pasta Max Cafe,['Italian'],['delivery']
24,Henry County,McDonough,GA,33.4472681,-84.1462451,Gritz Family Restaurant,"['Breakfast & Brunch', 'Southern', 'American (Traditional)']",['delivery']
25,Henry County,McDonough,GA,33.44606,-84.14695,Queen Bee Coffee Company,"['Coffee & Tea', 'Cafes']",[]
26,Henry County,Mcdonough,GA,33.446504,-84.1466673,KirbyG's Diner & Pub,"['Diners', 'American (Traditional)', 'Pubs']",['delivery']
27,Henry County,McDonough,GA,33.45192,-84.16771,Pete's Caribbean Bakery & Restaurant,['Caribbean'],['delivery']
28,Henry County,Mcdonough,GA,33.446724,-84.146996,Holy Smokes BBQ,"['Barbeque', 'Southern']",['delivery']
29,Henry County,McDonough,GA,33.45534,-84.1505899,Los Avina Mexican Restaurant,['Mexican'],['delivery']
30,Henry County,McDonough,GA,33.446754,-84.146709,Crust And Craft,"['Beer Bar', 'Pizza', 'Cocktail Bars']",[]
31,Henry County,McDonough,GA,33.4468841552734,-84.1461181640625,PJ's Cafe,['American (Traditional)'],['delivery']
32,Henry County,McDonough,GA,33.4376348389969,-84.1218400374055,Bonzu,"['Sushi Bars', 'Steakhouses']",['delivery']
33,Henry County,McDonough,GA,33.4472473797384,-84.1461753845215,Macon Street Tacos,"['Tacos', 'Ice Cream & Frozen Yogurt']",['delivery']
34,Henry County,McDonough,GA,33.446988,-84.1371504,Anthony's Pizza & Pasta,"['Pizza', 'Italian', 'Salad']","['delivery', 'pickup']"
35,Henry County,Mcdonough,GA,33.448402,-84.142098,Pippin's Barbecue,['Barbeque'],"['delivery', 'pickup']"
36,Henry County,McDonough,GA,33.4467222831417,-84.1469968110323,Scoops,"['Candy Stores', 'Ice Cream & Frozen Yogurt', 'Juice Bars & Smoothies']",[]
37,Henry County,McDonough,GA,33.5080645,-84.14010433,Shane's Rib Shack,"['Barbeque', 'Southern']","['delivery', 'pickup']"
38,Henry County,McDonough,GA,33.4473,-84.147463,Southern Roots Tavern & Eatery,"['Bars', 'Music Venues']",[]
39,Henry County,McDonough,GA,33.44809,-84.14228,Baby Jane's Home Cooking,"['Southern', 'Buffets']",[]
40,Henry County,McDonough,GA,33.4526165540523,-84.1693232301664,China Star Asian Garden,"['Chinese', 'Seafood', 'Soup']",['delivery']
41,Henry County,McDonough,GA,33.5066573216599,-84.143700002659,Foxy Fox Pizza,"['Pizza', 'Sports Bars']",['delivery']
42,Hawarden city,Hawarden,IA,42.9950561523438,-96.4856338500977,Central Cafe,['Restaurants'],[]
43,Hawarden city,Hawarden,IA,43.00706,-96.4883,El Paisa,['Mexican'],[]
44,Hawarden city,Hawarden,IA,42.9960975646973,-96.4856338500977,The Other Bar & Grill,"['Bars', 'American (Traditional)']",[]
45,Hawarden city,Hawarden,IA,42.994083404541,-96.4856338500977,Pizza Ranch,['Pizza'],[]
46,Hawarden city,Hawarden,IA,42.9971705654837,-96.4887156609952,Casey's,"['Pizza', 'Gas Stations', 'Convenience Stores']",[]
47,Hawarden city,Hawarden,IA,42.999443,-96.488456,The Drive In,['Restaurants'],[]
48,Balance of Greene County,Solsberry,IN,39.1012495447046,-86.6904775206237,Dilcher-Turner Canyon Forest,"['Parks', 'Hiking']",[]
49,Pell City city,Pell City,AL,33.592568,-86.282173,Butts To Go,"['Barbeque', 'American (Traditional)']",[]
50,Pell City city,Pell City,AL,33.5863015042182,-86.2858392298222,El Cazador,['Mexican'],[]
51,Pell City city,Pell City,AL,33.6085308758467,-86.2801056727767,City Market Grill & Buffet,"['Steakhouses', 'Buffets']",[]
52,Pell City city,Pell City,AL,33.59063,-86.24687,Oishi Asian Restaurant,"['Japanese', 'Sushi Bars', 'Asian Fusion']",[]
53,Pell City city,Pell City,AL,33.570962406596,-86.2719331932512,Pell City Coffee Company,['Coffee & Tea'],[]
54,Pell City city,Pell City,AL,33.5820579528809,-86.2765350341797,Wing-It,['Chicken Wings'],[]
55,Pell City city,Pell City,AL,33.59051324939698,-86.28131926419297,Pell City Steak House Restaurant,"['Steakhouses', 'Seafood', 'Sandwiches']",[]
56,Pell City city,Pell City,AL,33.607482,-86.276578,Cracker Barrel Old Country Store,"['Breakfast & Brunch', 'American (Traditional)', 'Southern']",[]
57,Pell City city,Pell City,AL,33.6099908524043,-86.261459458973,Big Deddy's Wings & BBQ,['Barbeque'],[]
58,Pell City city,Pell City,AL,33.6074885,-86.274178,Buffalo Wild Wings,"['Sports Bars', 'American (Traditional)', 'Chicken Wings']",[]
59,Pell City city,Pell City,AL,33.587686835773,-86.2812647223473,Chicago Mike's Hot Dogs,"['Hot Dogs', 'Burgers', 'Sandwiches']",[]
60,Pell City city,Pell City,AL,33.6113767,-86.2819379,Chick-fil-A,['Fast Food'],[]
61,Pell City city,Pell City,AL,33.6109076872627,-86.2787868646632,Aztecas Mexican Grill,"['Mexican', 'Latin American', 'Tex-Mex']",[]
62,Pell City city,Pell City,AL,33.5559248998427,-86.2693794118207,Dock's,"['Bars', 'American (Traditional)']",[]
63,Pell City city,Pell City,AL,33.6081005798338,-86.2694348394871,"Pell City PREMIERE LUX Cine, Bowl & Pizza Pub","['Bars', 'Climbing', 'Cinema']",[]
64,Pell City city,Pell City,AL,33.6115672184421,-86.280428,Golden Rule BBQ,['Barbeque'],[]
65,Pell City city,Pell City,AL,33.6030105,-86.283019,Waffle House,"['Diners', 'Breakfast & Brunch', 'American (Traditional)']",[]
66,Pell City city,Pell City,AL,33.565376,-86.271542,Guadalajara Jalisco,['Mexican'],[]
67,Pell City city,Pell City,AL,33.5638928749079,-86.2700933047905,Bojangles,"['Fast Food', 'Southern', 'Diners']",[]
68,Pell City city,Pell City,AL,33.557168,-86.269768,Great Wall Restaurant,"['Chinese', 'Thai']",[]
69,Ferris city (pt.),Jersey City,NJ,40.716222,-74.044659,Taqueria Downtown,"['Mexican', 'Bars']","['delivery', 'pickup']"
70,Ferris city (pt.),Jersey City,NJ,40.7217019859288,-74.0441597389672,Torico Ice Cream,['Ice Cream & Frozen Yogurt'],['delivery']
71,Ferris city (pt.),Jersey City,NJ,40.7249692,-74.0515195,Cellar 335,"['American (New)', 'Cocktail Bars', 'Tiki Bars']","['delivery', 'pickup']"
72,Ferris city (pt.),Jersey City,NJ,40.7177490485075,-74.0441924355125,Razza Pizza Artigianale,"['Pizza', 'Italian', 'Bars']",['delivery']
73,Ferris city (pt.),Jersey City,NJ,40.7221345,-74.0465332,Just BeClaws,['Seafood'],"['delivery', 'pickup']"
74,Ferris city (pt.),Jersey City,NJ,40.72338,-74.05134,Second Street Bakery,"['Bakeries', 'Delis', 'Sandwiches']",['delivery']
75,Ferris city (pt.),Jersey City,NJ,40.7198,-74.04576,Prince & I,"['Thai', 'Asian Fusion']","['delivery', 'pickup']"
76,Ferris city (pt.),Jersey City,NJ,40.720536,-74.042976,Orale Mexican Kitchen,"['Mexican', 'Cocktail Bars']",['delivery']
77,Ferris city (pt.),Jersey City,NJ,40.72182,-74.04619,Left Bank Burger Bar,"['Burgers', 'Fast Food', 'Beer Bar']","['delivery', 'pickup']"
78,Ferris city (pt.),Jersey City,NJ,40.7146930849064,-74.0670708676607,Hooked JC,"['Seafood', 'Salad', 'American (Traditional)']",['delivery']
79,Ferris city (pt.),Jersey City,NJ,40.72038,-74.04648,Würstbar,"['Beer Bar', 'Hot Dogs', 'Burgers']","['delivery', 'pickup']"
80,Ferris city (pt.),Jersey City,NJ,40.72062,-74.04376,Skinner's Loft,"['American (New)', 'Breakfast & Brunch']","['delivery', 'pickup', 'restaurant_reservation']"
81,Ferris city (pt.),Jersey City,NJ,40.72234,-74.04699,Ani Ramen House JC,"['Cocktail Bars', 'Japanese', 'Whiskey Bars']","['delivery', 'pickup']"
82,Ferris city (pt.),Jersey City,NJ,40.733896,-74.059151,Korai Kitchen,"['Bangladeshi', 'Buffets']",['delivery']
83,Ferris city (pt.),Jersey City,NJ,40.724389,-74.051179,Prato Bakery,"['Coffee & Tea', 'Bakeries', 'Pizza', 'Sandwiches']","['delivery', 'pickup']"
84,Ferris city (pt.),Jersey City,NJ,40.7140745,-74.0390374,sam a.m,"['Cafes', 'Breakfast & Brunch']",['delivery']
85,Ferris city (pt.),Jersey City,NJ,40.717937,-74.050175,Crepe Guru,"['Creperies', 'American (New)']","['delivery', 'pickup']"
86,Ferris city (pt.),Jersey City,NJ,40.720879,-74.0428873,Mathews Food & Drink,"['American (New)', 'Bars', 'Breakfast & Brunch']","['delivery', 'pickup']"
87,Ferris city (pt.),Jersey City,NJ,40.7278616050563,-74.0439687824463,Milk Sugar Love,"['Desserts', 'Ice Cream & Frozen Yogurt', 'Bakeries']",['delivery']
88,Ferris city (pt.),Hoboken,NJ,40.74301,-74.03626,Fiore Deli of Hoboken,"['Delis', 'Italian']",['delivery']
89,Manton city,Manton,MI,44.40981,-85.399295,Latitude 44,"['Bubble Tea', 'Coffee & Tea', 'Greek']",[]
90,Manton city,Manton,MI,44.4147186,-85.3984833,The North Side Restaurant,"['Breakfast & Brunch', 'American (Traditional)']",[]
91,Manton city,Manton,MI,44.4111,-85.398813,Cast Iron Kitchen,"['Barbeque', 'Burgers', 'Hot Dogs']",[]
92,Manton city,Manton,MI,44.410965,-85.4008255,Three Oh Eight,['Sports Bars'],[]
93,Manton city,Manton,MI,44.4106209,-85.399147,Shamrock Tavern,"['Bars', 'American (New)']",[]
94,Manton city,Honor,MI,44.69407,-86.07259,Honor Trading Post,"['Pizza', 'Rafting/Kayaking', 'Tubing']",[]
95,Lansdale borough,Lansdale,PA,40.24406,-75.28722,Stove and Tap,"['American (Traditional)', 'Venues & Event Spaces', 'Breakfast & Brunch']","['delivery', 'pickup']"
96,Lansdale borough,Lansdale,PA,40.243362,-75.286092,Yanni's Gyro,['Greek'],['delivery']
97,Lansdale borough,Lansdale,PA,40.24341,-75.28746,Izu Sushi,"['Japanese', 'Sushi Bars']","['delivery', 'pickup']"
98,Lansdale borough,Lansdale,PA,40.2276864338342,-75.2825152873993,Umai Japanese Restaurant,"['Japanese', 'Sushi Bars']",['delivery']
99,Lansdale borough,Lansdale,PA,40.24368,-75.287941,Backyard Beans Coffee Company,['Coffee Roasteries'],['delivery']
100,Lansdale borough,Lansdale,PA,40.24772,-75.29335,The Oasis,"['Mediterranean', 'Middle Eastern']",['delivery']
101,Lansdale borough,Lansdale,PA,40.24781,-75.29351,El Tapatio,['Mexican'],['delivery']
102,Lansdale borough,Lansdale,PA,40.2435217,-75.2872751,Round Guys Brewing Company,"['Breweries', 'American (Traditional)']",['pickup']
103,Lansdale borough,Lansdale,PA,40.243984,-75.287079,Wister's Barbecue Formerly Smoke Daddy's,['Barbeque'],['delivery']
104,Lansdale borough,Lansdale,PA,40.23382,-75.2918399,Il Boscaiolo Italiano Ristorante,"['Italian', 'Seafood']",['delivery']
105,Lansdale borough,Lansdale,PA,40.247482,-75.293866,Asian Legend Vietnamese Cuisine,['Vietnamese'],['delivery']
106,Lansdale borough,Lansdale,PA,40.23959,-75.27986,MAMA Thai,"['Thai', 'Asian Fusion']",['pickup']
107,Lansdale borough,North Wales,PA,40.21071,-75.27678,Alice Bakery & Confectionary,"['Bakeries', 'Cafes', 'Sandwiches']",['delivery']
108,Lansdale borough,Lansdale,PA,40.2451822268406,-75.280402731166,Valentino's Bistro,"['Italian', 'Breakfast & Brunch']","['delivery', 'pickup']"
109,Lansdale borough,North Wales,PA,40.22727,-75.25914,Teapioca Lounge,"['Bubble Tea', 'Coffee & Tea', 'Juice Bars & Smoothies']",['delivery']
110,Lansdale borough,Lansdale,PA,40.243151,-75.2788,Giuliano's Deli,"['Delis', 'Pizza']",['delivery']
111,Lansdale borough,Colmar,PA,40.26696,-75.25474,Yum Yum Bake Shops,"['Donuts', 'Bakeries', 'Coffee & Tea']",[]
112,Lansdale borough,Lansdale,PA,40.24386,-75.28688,Arnold's Way,"['Health Markets', 'Vegan', 'Cafes']","['delivery', 'pickup']"
113,Lansdale borough,North Wales,PA,40.211292,-75.278343,Everything Bagel Cafe,"['Bagels', 'Sandwiches', 'Coffee & Tea']",['delivery']
114,Lansdale borough,North Wales,PA,40.228993,-75.258597,Pho and More,"['Vietnamese', 'Thai']",['delivery']
115,Lenox township,New Haven,MI,42.735125,-82.785283,Carter's Cantina,['Mexican'],"['pickup', 'delivery']"
116,Lenox township,New Haven,MI,42.7329903,-82.7856674,China Delight,"['Cantonese', 'Szechuan']",['delivery']
117,Lenox township,New Haven,MI,42.732343,-82.786177,Passport Pizza,"['Pizza', 'Sandwiches']","['pickup', 'delivery']"
118,Lenox township,New Haven,MI,42.735065,-82.78523,Hungry Howie's Pizza,['Pizza'],['delivery']
119,Lenox township,New Haven,MI,42.7328727539321,-82.7850862131838,Subway,['Sandwiches'],[]
120,Morrisville village,Morrisville,NY,42.898523,-75.646964,Copper Turret,"['American (Traditional)', 'Desserts']",[]
121,Morrisville village,Morrisville,NY,42.8988894334571,-75.6479888895437,Susie Q's,"['American (Traditional)', 'Ice Cream & Frozen Yogurt']",[]
122,Morrisville village,Morrisville,NY,42.89899,-75.64166,The Fort,"['Salad', 'Burgers', 'Sandwiches']",[]
123,Morrisville village,Morrisville,NY,42.899339,-75.6451455,Hunan Restaurant,['Chinese'],[]
124,Morrisville village,Morrisville,NY,42.89864,-75.64431,New York Pizzeria,['Pizza'],[]
125,Morrisville village,Morrisville,NY,42.898596,-75.643552,Morrisville Pizzeria,['Pizza'],[]
126,Morrisville village,Morrisville,NY,42.899063,-75.644721,Xing Xing Kitchen,['Chinese'],[]
127,Morrisville village,Morrisville,NY,42.8952159966423,-75.6409248368073,Mustang Alley,['Cafeteria'],[]
128,Morrisville village,Liverpool,NY,43.1045265197754,-76.2024230957031,Wolf's Patio Pizza,"['Pizza', 'Food Trucks']",[]
129,Morrisville village,Syracuse,NY,43.04584,-76.15234,Chicken vs Waffle - Opening Soon,"['Food Trucks', 'Waffles']",[]
130,Sawmills town,Granite Falls,NC,35.8195519,-81.471088,Sawmills Cafe,"['Cafes', 'Coffee & Tea', 'American (Traditional)']",[]
131,Sawmills town,Hudson,NC,35.8335342407227,-81.4570465087891,Mom's Country Kitchen,['American (Traditional)'],[]
132,Sawmills town,Hudson,NC,35.8472061157227,-81.4970169067383,Donna's Cafe,"['Southern', 'Breakfast & Brunch']",[]
133,Sawmills town,Hudson,NC,35.846,-81.47251,Fumiyoshi Japanesse Restaurants,"['Japanese', 'Sushi Bars']",[]
134,Sawmills town,Hudson,NC,35.8460726569518,-81.4731556472208,Roma Italian,"['Pizza', 'Italian']",[]
135,Sawmills town,Hudson,NC,35.841548391702304,-81.49029311962602,KFC,"['Fast Food', 'Chicken Wings', 'Chicken Shop']",['pickup']
136,Sawmills town,Hudson,NC,35.8461799,-81.495,Fuji Japanese Seafood and Steak,"['Japanese', 'Steakhouses', 'Seafood']",[]
137,Sawmills town,Granite Falls,NC,35.8089876333826,-81.4491064632171,China King,['Chinese'],[]
138,Sawmills town,Hudson,NC,35.8457987575015,-81.4744851616911,Wendy's,"['Burgers', 'Fast Food']",[]
139,Clanton city,Clanton,AL,32.8437282733745,-86.5980656395577,PITA Mediterranean Street Food,"['Mediterranean', 'Greek', 'Lebanese']",[]
140,Clanton city,Clanton,AL,32.8395,-86.63015,Bertolone's,"['Italian', 'Pizza']",[]
141,Clanton city,Clanton,AL,32.8404824,-86.6318318,Neighborhood Grill & Catering,"['American (Traditional)', 'Chicken Wings', 'Salad']",[]
142,Clanton city,Clanton,AL,32.881702900647,-86.6256325052819,B & K Bar B Que,['Barbeque'],[]
143,Clanton city,Clanton,AL,32.8357264060187,-86.6291170567274,Maddogs Grill,"['Hot Dogs', 'American (Traditional)']",[]
144,Clanton city,Clanton,AL,32.8437805,-86.5976486,Shoney's Restaurant,"['Sandwiches', 'Buffets', 'American (Traditional)']",[]
145,Clanton city,Clanton,AL,32.8446799,-86.59792,Heaton Pecan Farm,"['Ice Cream & Frozen Yogurt', 'Gift Shops']",[]
146,Clanton city,Clanton,AL,32.8454475,-86.5845413,Kountry Kitchen,['American (Traditional)'],[]
147,Clanton city,Clanton,AL,32.850283,-86.633486,Hong Kong Taste,['Chinese'],[]
148,Clanton city,Clanton,AL,32.85168,-86.63482,Three Amigos Restaurant- Clanton,['Mexican'],[]
149,Clanton city,Clanton,AL,32.8412743,-86.6320801,Smokey T's,['Barbeque'],[]
150,Clanton city,Clanton,AL,32.8357557037095,-86.6275707632303,Bone' s Backstreet BBQ,['Barbeque'],[]
151,Clanton city,Clanton,AL,32.8332205725603,-86.6285283118486,El Agave,['Mexican'],[]
152,Clanton city,Clanton,AL,32.854559,-86.623276,Pies By Mike,"['Bakeries', 'Breakfast & Brunch', 'Desserts']",[]
153,Clanton city,Clanton,AL,32.8393238005382,-86.6304962632636,Main Street Cafe,"['American (Traditional)', 'Bakeries', 'Breakfast & Brunch']",[]
154,Clanton city,Clanton,AL,32.830346,-86.626855,Chubb Fathers,"['Burgers', 'Tacos', 'Chicken Wings']",[]
155,Clanton city,Clanton,AL,32.8514,-86.63509,Green Small Town Diner,"['American (Traditional)', 'Breakfast & Brunch']",[]
156,Clanton city,Clanton,AL,32.850213,-86.633596,Little Caesar's Pizza,['Pizza'],[]
157,Clanton city,Clanton,AL,32.858689,-86.641112,Jack's,"['Burgers', 'Fast Food']",[]
158,Clanton city,Clanton,AL,32.8502007,-86.6336899,Little Caesars Pizza,['Pizza'],[]
159,Fairview township,Etters,PA,40.1579099927335,-76.8202853638286,USA & I,"['Pizza', 'Italian']",['delivery']
160,Fairview township,Goldsboro,PA,40.1717559707806,-76.8279218961767,Patriot Pizza & Subs,"['Pizza', 'Sandwiches']",['delivery']
161,Fairview township,Lewisberry,PA,40.1657929164077,-76.8329481035471,Crostwater Distillery,"['Distilleries', 'Southern']",['delivery']
162,Fairview township,Etters,PA,40.169035967001,-76.8294525146484,Hillside Cafe,"['Steakhouses', 'Seafood', 'Burgers']",['delivery']
163,Fairview township,New Cumberland,PA,40.1821027362802,-76.8382776800638,Culhane's Steak House,['Steakhouses'],['delivery']
164,Fairview township,Lewisberry,PA,40.1652490608277,-76.8290537800697,Summit Restaurant,"['Breakfast & Brunch', 'American (Traditional)']",['delivery']
165,Fairview township,Lewisberry,PA,40.16015,-76.82624,KoKoMo's Sports Bar and Grill,"['Sports Bars', 'American (Traditional)', 'Chicken Wings']",['delivery']
166,Fairview township,Lewisberry,PA,40.1653785705566,-76.8310623168945,Francescos Pizza,"['Pizza', 'Italian', 'Sandwiches']",['delivery']
167,Fairview township,Etters,PA,40.1769633409658,-76.8344414234161,Bruster's Real Ice Cream,['Ice Cream & Frozen Yogurt'],[]
168,Fairview township,Lewisberry,PA,40.134617,-76.86544,Silver Lake Inn Bistro & Tavern,"['American (Traditional)', 'Pizza', 'Wraps']",[]
169,Fairview township,Etters,PA,40.1481883761115,-76.8128389120102,Hong Kong Buffet,['Chinese'],['pickup']
170,Fairview township,Etters,PA,40.17704,-76.8335,Mamma's Pizza & Subs,"['Pizza', 'Sandwiches', 'Italian']",['delivery']
171,Fairview township,Etters,PA,40.15881,-76.816385,The Blue Sky Tavern,"['Beer Bar', 'American (Traditional)']",[]
172,Fairview township,Lewisberry,PA,40.133941,-76.860735,Allen's Eatery,"['Pizza', 'Sandwiches', 'Soup']",[]
173,Fairview township,Etters,PA,40.15257151656,-76.819294947494,Burger King,"['Burgers', 'Fast Food']",['delivery']
174,Fairview township,Etters,PA,40.1537832105139,-76.8196664750576,McDonald's,"['Fast Food', 'Burgers', 'Coffee & Tea']",['delivery']
175,Fairview township,Etters,PA,40.158157,-76.816014,Marino's Express,['Italian'],['delivery']
176,Fairview township,Etters,PA,40.157945788892,-76.8205040478014,New China,['Chinese'],['delivery']
177,Fairview township,Lewisberry,PA,40.179105,-76.883317,Sheilian Pizza & Taco Grille,"['Pizza', 'Tacos']",[]
178,Fairview township,Etters,PA,40.1475677,-76.812973,Brother's Pizza,['Pizza'],[]
179,Oakdale city,Oakdale,MN,44.9640945150541,-92.9837788976917,Catrinas Cerveza & Mexican Grill,['Mexican'],"['pickup', 'delivery']"
180,Oakdale city,Oakdale,MN,44.9609578477512,-92.9616531424028,D-spot,"['Chicken Wings', 'Burgers', 'American (New)']",['delivery']
181,Oakdale city,Maplewood,MN,44.9420603567276,-92.9849217794881,Indian Masala,"['Indian', 'Buffets']","['pickup', 'delivery']"
182,Oakdale city,Oakdale,MN,44.964436,-92.960653,Hy-Vee,"['Pharmacy', 'Grocery', 'Bakeries']",[]
183,Oakdale city,Woodbury,MN,44.9403317281047,-92.934959494157,Tamarack Tap Room,"['American (New)', 'Burgers', 'Beer Bar']","['pickup', 'delivery']"
184,Oakdale city,Maplewood,MN,44.96240667,-92.98532167,Wild Orchid,"['Chinese', 'Vietnamese', 'Asian Fusion']","['pickup', 'delivery']"
185,Oakdale city,Woodbury,MN,44.93706,-92.95647,The Tavern Grill,['American (Traditional)'],['delivery']
186,Oakdale city,Oakdale,MN,44.9516374997494,-92.9351128265262,Taco Libre,['Mexican'],['delivery']
187,Oakdale city,Woodbury,MN,44.937149,-92.952415,The Woodbury Cafe,['Breakfast & Brunch'],['delivery']
188,Oakdale city,Oakdale,MN,44.96115,-92.9551,Sgt. Peppers Grille & Bar,"['American (Traditional)', 'Bars', 'Venues & Event Spaces']","['pickup', 'delivery']"
189,Oakdale city,Woodbury,MN,44.9432188950913,-92.9353006016165,India Palace,['Indian'],"['pickup', 'delivery']"
190,Oakdale city,Woodbury,MN,44.942711,-92.93322,Piada Italian Street Food,"['Italian', 'Salad', 'Wraps']",['delivery']
191,Oakdale city,Woodbury,MN,44.9444174143161,-92.935708235018,Portillo's Hot Dogs,"['Hot Dogs', 'Salad', 'Burgers']",['delivery']
192,Oakdale city,Oakdale,MN,44.9634549,-92.9610233,Hy-Vee Market Grille,"['Cafes', 'Bars', 'American (Traditional)']","['pickup', 'delivery']"
193,Oakdale city,Woodbury,MN,44.937252,-92.932012,Duc's Vietnamese,['Vietnamese'],['delivery']
194,Oakdale city,Oakdale,MN,44.9602497095307,-92.9622435936327,Bambu Kitchen & Sushi Bar,"['Vietnamese', 'Thai', 'Chinese']","['pickup', 'delivery']"
195,Oakdale city,Woodbury,MN,44.9436934619785,-92.9308840301366,Naf Naf Grill,"['Middle Eastern', 'Salad', 'Falafel']","['pickup', 'delivery']"
196,Oakdale city,Woodbury,MN,44.93715,-92.952415,Machete Cocina Mexicana,['Mexican'],"['pickup', 'delivery']"
197,Oakdale city,Woodbury,MN,44.9423591868201,-92.9321764192571,Café Zupas,"['Soup', 'Sandwiches', 'Salad']","['pickup', 'delivery']"
198,Oakdale city,Woodbury,MN,44.9373205707853,-92.9533960494225,Akita Sushi & Hibachi,"['Japanese', 'Sushi Bars']","['pickup', 'delivery']"
199,Phoenix village,Phoenixville,PA,40.1338428509362,-75.5153042157287,IL Granaio - Phoenixville,"['Italian', 'Cocktail Bars']","['delivery', 'restaurant_reservation']"
200,Phoenix village,Phoenixville,PA,40.133288,-75.519343,Your Mom's Place,"['American (Traditional)', 'Breakfast & Brunch']",['delivery']
201,Phoenix village,Phoenixville,PA,40.1339,-75.51831,Vecchia Pizzeria,"['Pizza', 'Italian']",['pickup']
202,Phoenix village,Phoenixville,PA,40.1341798617851,-75.5139311859858,Soltane Cafe,"['Bakeries', 'Cafes']",['delivery']
203,Phoenix village,Phoenixville,PA,40.134184225426,-75.513585643858,Iron Hill Brewery & Restaurant,"['American (New)', 'Breweries']",[]
204,Phoenix village,Phoenixville,PA,40.134372809647,-75.5161316692829,Root Down Brewing,"['Bars', 'Breweries', 'Cafes']",['delivery']
205,Phoenix village,Phoenixville,PA,40.1342723300808,-75.5141254226775,Chikara Sushi & Asian Fusion,"['Sushi Bars', 'Asian Fusion']",['delivery']
206,Phoenix village,Phoenixville,PA,40.134057,-75.516926,Guatemalan Kitchen,"['Steakhouses', 'Mexican', 'Soup']",['delivery']
207,Phoenix village,Phoenixville,PA,40.1326346938995,-75.5332256004555,Thai Place Restaurant,['Thai'],['delivery']
208,Phoenix village,Phoenixville,PA,40.1377639770508,-75.5188293457031,Bridgeside Deli & Grille,['Delis'],"['delivery', 'pickup']"
209,Phoenix village,Phoenixville,PA,40.120369,-75.5019531,Nook and Kranny Kafe,"['Breakfast & Brunch', 'Cafes', 'Coffee & Tea']",['delivery']
210,Phoenix village,Phoenixville,PA,40.134001442736,-75.516323938623,Steel City Coffeehouse & Brewery,"['Coffee & Tea', 'Music Venues', 'Breweries']",['delivery']
211,Phoenix village,Phoenixville,PA,40.13387,-75.51414,The Great American Pub,"['American (Traditional)', 'Pubs']",['delivery']
212,Phoenix village,Phoenixville,PA,40.13344,-75.51793,Black Lab Bistro,"['American (New)', 'Breakfast & Brunch']","['delivery', 'pickup']"
213,Phoenix village,Phoenixville,PA,40.1331941396885,-75.5159932781822,Brown's Cow,['Ice Cream & Frozen Yogurt'],[]
214,Phoenix village,Phoenixville,PA,40.1339378,-75.515358,El Burrito,['Mexican'],[]
215,Phoenix village,Phoenixville,PA,40.1340425,-75.514528,Sage Mediterranean,['Mediterranean'],"['delivery', 'pickup']"
216,Phoenix village,Phoenixville,PA,40.136701890494,-75.5416511438668,Aman's Indian Bistro,"['Indian', 'Buffets']",['pickup']
217,Phoenix village,Phoenixville,PA,40.1344081096783,-75.5138043214471,Sedona Taphouse,"['Seafood', 'Cocktail Bars', 'American (New)']","['delivery', 'pickup']"
218,Phoenix village,Phoenixville,PA,40.134112462878,-75.517509075167,Bistro On Bridge,"['American (New)', 'Sports Bars']","['delivery', 'pickup']"
219,Balance of Sugarcreek township,Bellbrook,OH,39.636978,-84.073382,Blueberry Cafe,"['Breakfast & Brunch', 'Desserts']",['delivery']
220,Balance of Sugarcreek township,Dayton,OH,39.6522427,-84.1097412,Gyro Delight,"['Mediterranean', 'Greek', 'Kebab']",['delivery']
221,Balance of Sugarcreek township,Bellbrook,OH,39.63733,-84.10909,Penn’s Thai Grille,['Thai'],['delivery']
222,Balance of Sugarcreek township,Dayton,OH,39.6596338010018,-84.1068228159705,Tokyo Sushi & Grill,"['Japanese', 'Sushi Bars', 'Steakhouses']","['delivery', 'pickup']"
223,Balance of Sugarcreek township,Kettering,OH,39.659109,-84.126333,Sea Jax Tavern,"['Bars', 'American (Traditional)']",['delivery']
224,Balance of Sugarcreek township,Centerville,OH,39.6650923,-84.1073929,Cooper's Hawk Winery & Restaurant - Centerville,"['American (New)', 'Wine Bars', 'Seafood']",['delivery']
225,Balance of Sugarcreek township,Centerville,OH,39.6643162677241,-84.1079284224533,CoreLife Eatery,"['Specialty Food', 'American (New)']",[]
226,Balance of Sugarcreek township,Centerville,OH,39.660978,-84.108209,Cheddar's Scratch Kitchen,"['Comfort Food', 'American (Traditional)']",[]
227,Balance of Sugarcreek township,Bellbrook,OH,39.63733,-84.109,Zemore's Wine Cellar & Bistro,"['Wine Bars', 'American (New)', 'Pizza']",['delivery']
228,Balance of Sugarcreek township,Centerville,OH,39.661469924759,-84.1080658882856,Bagger Dave's,"['Burgers', 'Fast Food']","['delivery', 'pickup']"
229,Balance of Sugarcreek township,Dayton,OH,39.6627061,-84.1287641,D20: a Bar With Characters,"['Tabletop Games', 'Beer Bar']",[]
230,Balance of Sugarcreek township,Bellbrook,OH,39.6378551,-84.10732,El Toro Mexican Restaurant,"['Mexican', 'Bars']",['delivery']
231,Balance of Sugarcreek township,Bellbrook,OH,39.63656,-84.07281,Dairy Shed,['Ice Cream & Frozen Yogurt'],[]
232,Balance of Sugarcreek township,Dayton,OH,39.663769,-84.108017,First Watch,"['Breakfast & Brunch', 'Cafes', 'American (Traditional)']",[]
233,Balance of Sugarcreek township,Centerville,OH,39.65983,-84.10994,Freddy's Frozen Custard & Steakburgers,"['Burgers', 'Ice Cream & Frozen Yogurt', 'Sandwiches']",['delivery']
234,Balance of Sugarcreek township,Bellbrook,OH,39.6174523412817,-84.0965944043551,Sugarcreek Metropark,['Parks'],[]
235,Balance of Sugarcreek township,Bellbrook,OH,39.6379994,-84.1081187,Romer's Bar and Grill,"['American (Traditional)', 'Bars']","['delivery', 'pickup']"
236,Balance of Sugarcreek township,Bellbrook,OH,39.6379772,-84.1063441,Skyline Chili,"['Fast Food', 'Hot Dogs']",['delivery']
237,Balance of Sugarcreek township,Dayton,OH,39.662658,-84.1289724,Peking Garden,['Chinese'],['delivery']
238,Balance of Sugarcreek township,Kettering,OH,39.6596866,-84.1262615,Thai Street Noodles,['Thai'],['delivery']
239,Balance of Jones County,Laurel,MS,31.6562101594414,-89.1676786591732,Hog Heaven BBQ,['Barbeque'],[]
240,Balance of Jones County,Ellisville,MS,31.6528312816698,-89.1709363886882,Estelle's Southern Cuisine & Catering,"['Southern', 'Buffets']",[]
241,Balance of Jones County,Laurel,MS,31.6921999515687,-89.1469458578968,Julia's bakery and deli and mexican food,"['Tacos', 'Bakeries']",[]
242,Balance of Jones County,Laurel,MS,31.68684,-89.13553,Phillips Drive-In,"['Burgers', 'Ice Cream & Frozen Yogurt']",[]
243,Balance of Jones County,Laurel,MS,31.6958058593493,-89.1427890466906,Fins Fresh Seafood & Poboys,['Seafood'],[]
244,Balance of Jones County,Laurel,MS,31.6921693160254,-89.1458005196262,Pasquale's,"['Italian', 'Sandwiches']",[]
245,Balance of Jones County,Laurel,MS,31.6917872058823,-89.1350256023437,Pause Espresso Bar,['Coffee & Tea'],[]
246,Balance of Jones County,Laurel,MS,31.6849933,-89.1504558,Buffalo Wild Wings,"['Chicken Wings', 'Sports Bars', 'American (Traditional)']",[]
247,Balance of Jones County,Laurel,MS,31.6973890220946,-89.1465622300033,Jitter's Coffeehouse & Drive-Through,"['Coffee & Tea', 'Breakfast & Brunch', 'Internet Cafes']",[]
248,Balance of Jones County,Laurel,MS,31.692201,-89.134923,Blue Crab Grill,"['Seafood', 'Steakhouses', 'Breakfast & Brunch']",['pickup']
249,Balance of Jones County,Laurel,MS,31.6911388821434,-89.1471055533098,Del Sol Mexican Restaurante,['Mexican'],[]
250,Balance of Jones County,Laurel,MS,31.6934551,-89.1372863,Corn Dog 7,"['Hot Dogs', 'Fast Food', 'American (Traditional)']",[]
251,Balance of Jones County,Laurel,MS,31.694997,-89.191228,Holloway's Dairy Bar,['Ice Cream & Frozen Yogurt'],[]
252,Balance of Jones County,Laurel,MS,31.6621404990967,-89.1617705245542,Hardee's,"['Fast Food', 'Burgers']",[]
253,Balance of Jones County,Laurel,MS,31.689078,-89.146662,Taco Bell,"['Fast Food', 'Mexican']",[]
254,Balance of Jones County,Laurel,MS,31.6858858,-89.1469181,Waffle House,"['Diners', 'Breakfast & Brunch', 'American (Traditional)']",[]
255,Balance of Jones County,Laurel,MS,31.691871,-89.137131485229,The Alamo Bar & Grill,"['Bars', 'American (Traditional)']",[]
256,Balance of Jones County,Laurel,MS,31.686822,-89.147239,Shoney's Restaurant,['Breakfast & Brunch'],[]
257,Balance of Jones County,Laurel,MS,31.6991196,-89.1465607,Ward's of Laurel,['Restaurants'],[]
258,Balance of Jones County,Laurel,MS,31.663203,-89.160896,Subway,['Sandwiches'],[]
259,St. John city,St. John's,NL,47.56259328574,-52.708856338359,Rocket Bakery and Fresh Food,"['Coffee & Tea', 'Bakeries', 'Cafes']",[]
260,St. John city,St. John's,NL,47.5612828632648,-52.7106044610089,Adelaide Oyster House,"['Tapas Bars', 'Cocktail Bars']",[]
261,St. John city,St. John's,NL,47.56413,-52.70774,The Duke of Duckworth,['Pubs'],[]
262,St. John city,St. John's,NL,47.5628058729785,-52.7104084710931,Chinched,"['Canadian (New)', 'Delis']",[]
263,St. John city,St. John's,NL,47.5619726458526,-52.7095107582657,The Merchant Tavern,"['Canadian (New)', 'Gastropubs']",[]
264,St. John city,St. John's,NL,47.5668099,-52.70529,Bagel Cafe,['Breakfast & Brunch'],[]
265,St. John city,St John's,NL,47.56221,-52.7097399,Yellow Belly Brewery,"['Breweries', 'Canadian (New)']",['restaurant_reservation']
266,St. John city,St. John's,NL,47.5700185945533,-52.6817393302917,Signal Hill National Historic Site,['Landmarks & Historical Buildings'],[]
267,St. John city,St John's,NL,47.5624096435211,-52.710320085122,Piatto,"['Italian', 'Pizza', 'Wine Tasting Room']",[]
268,St. John city,St John's,NL,47.56664,-52.70397,Raymonds,['Canadian (New)'],[]
269,St. John city,Saint John's,NL,47.5668,-52.70472,Bernard Stanley Gastropub,['Gastropubs'],[]
270,St. John city,St. John's,NL,47.56001,-52.71083,St. John's Fish Exchange,"['Seafood', 'Bars']",[]
271,St. John city,St. John's,NL,47.5653999,-52.70601,Oliver's,"['Seafood', 'Breakfast & Brunch']",[]
272,St. John city,St. John's,NL,47.562901000396,-52.709359442956,The Sprout Restaurant,['Vegetarian'],[]
273,St. John city,St. John's,NL,47.571164358099,-52.702037860912,Coffee Matters,"['Coffee & Tea', 'Cafes', 'Sandwiches']",[]
274,St. John city,St John's,NL,47.5661,-52.7115,The Rooms,"['Landmarks & Historical Buildings', 'Museums']",[]
275,St. John city,St. John's,NL,47.5616674443027,-52.7102094373479,Mussels On The Corner,"['Seafood', 'Beer Bar']",[]
276,St. John city,Saint John's,NL,47.56786,-52.70403,Get Stuffed,['Canadian (New)'],[]
277,St. John city,St. John's,NL,47.56131,-52.71087,Christian's Pub,['Pubs'],[]
278,St. John city,St. John's,NL,47.5670115296717,-52.7048411051879,Bad Bones Ramen,"['Ramen', 'Noodles']",[]
279,Lynn County,Tahoka,TX,33.16855,-101.79573,George's Restaurant,['American (Traditional)'],[]
280,Lynn County,Tahoka,TX,33.1734228,-101.7940322,Cardi's cafe,"['Cafes', 'Mexican']",[]
281,Lynn County,Tahoka,TX,33.16677,-101.80781,Jolly Time Pizza,['Pizza'],[]
282,Lynn County,Tahoka,TX,33.16781,-101.79573,Dixie Dog Drive In,['Restaurants'],[]
283,Lynn County,Tahoka,TX,33.1651417,-101.7984586,Tahoka Donuts,['Bakeries'],[]
284,Williamsville village,Williamsville,NY,42.9605048,-78.7575152,Break'n Eggs Creperie,"['Breakfast & Brunch', 'Creperies', 'Desserts']",['delivery']
285,Williamsville village,Williamsville,NY,42.97532,-78.74038,Thai Orchid Cafe,"['Thai', 'Vietnamese', 'Seafood']",['delivery']
286,Williamsville village,Williamsville,NY,42.964454,-78.732362,Fresh Catch Poke,"['Seafood', 'Poke', 'Acai Bowls']","['delivery', 'pickup']"
287,Williamsville village,Williamsville,NY,42.9766287706657,-78.733003529639,Wok & Roll,"['Gluten-Free', 'Dim Sum', 'Cantonese']",['delivery']
288,Williamsville village,Williamsville,NY,42.9783451,-78.7318234,Black & Blue Steak & Crab,"['Steakhouses', 'Seafood', 'Bars']",[]
289,Williamsville village,Williamsville,NY,42.9968469925139,-78.6958052963018,Griffon Gastropub,"['American (New)', 'Gastropubs', 'Asian Fusion']",['delivery']
290,Williamsville village,Williamsville,NY,42.9763720376391,-78.7402579784393,Spices of India,"['Indian', 'Buffets']","['delivery', 'pickup']"
291,Williamsville village,Buffalo,NY,42.9493646836013,-78.7449875808097,Charlie the Butcher's Kitchen,"['Sandwiches', 'American (Traditional)', 'Soup']",['pickup']
292,Williamsville village,Williamsville,NY,42.96323,-78.74454,Share Kitchen & Bar Room,"['American (New)', 'Wine Bars', 'Cocktail Bars']",['delivery']
293,Williamsville village,Buffalo,NY,42.97546,-78.74021,Lime House,"['Japanese', 'Burmese', 'Sushi Bars']",['delivery']
294,Williamsville village,Williamsville,NY,42.96371,-78.74458,Sweet Jenny's,"['Ice Cream & Frozen Yogurt', 'Desserts', 'Chocolatiers & Shops']",[]
295,Williamsville village,Williamsville,NY,42.9633058,-78.7445192,Moor Pat,"['Bars', 'American (Traditional)']",['delivery']
296,Williamsville village,Williamsville,NY,42.952815,-78.694719,Russell's Steaks Chops & More,['Steakhouses'],['delivery']
297,Williamsville village,Williamsville,NY,42.96443,-78.73236,VYE: Poke Bowl Kit Construction w/Fresh Catch Poke,['Yelp Events'],[]
298,Williamsville village,Buffalo,NY,42.966106,-78.693597,This Little Pig,"['Pizza', 'American (New)', 'Breakfast & Brunch']",['delivery']
299,Williamsville village,Williamsville,NY,42.975576,-78.739412,The Pita Place,"['Mediterranean', 'Greek', 'American (Traditional)']","['delivery', 'pickup']"
300,Williamsville village,Williamsville,NY,42.964454,-78.732362,Lloyd Taco Factory,"['Tacos', 'Cocktail Bars']",['delivery']
301,Williamsville village,Williamsville,NY,42.97495,-78.74035,Woo Chon Korea House,['Korean'],"['delivery', 'pickup']"
302,Williamsville village,Williamsville,NY,42.9597822,-78.6963723,Cielito Lindo Taqueria,['Mexican'],['delivery']
303,Williamsville village,Williamsville,NY,42.96147,-78.75131,D'Avolio Kitchen,"['Herbs & Spices', 'Italian', 'Pizza']",['pickup']
304,Middleport village,Middleport,NY,43.2122699,-78.47621,Alternative Grounds Caffe,['Cafes'],[]
305,Middleport village,Middleport,NY,43.21213,-78.47613,Pony's,['Irish Pub'],[]
306,Middleport village,Middleport,NY,43.20563,-78.48149,Darrell's Place,['American (Traditional)'],[]
307,Middleport village,Middleport,NY,43.212467,-78.476776,Portside Cafe & Bakery,"['Bakeries', 'American (Traditional)']",[]
308,Middleport village,Middleport,NY,43.204843,-78.478234,B&B BBQ,"['Barbeque', 'Food Trucks']",[]
309,Middleport village,Middleport,NY,43.21227,-78.47602,Village Pizzeria,['Pizza'],[]
310,Middleport village,Middleport,NY,43.20483,-78.47826,Pizza Place II,['Pizza'],[]
311,Middleport village,Middleport,NY,43.2051285466255,-78.4764091841096,Crosby's,"['Convenience Stores', 'Pizza', 'Gas Stations']",[]
312,Walnut Grove town,Walnut Grove,MN,44.22413,-95.4726,Ingalls Dugout Site,['Landmarks & Historical Buildings'],[]
313,Walnut Grove town,Walnut Grove,MN,44.225160997757,-95.4694318771362,Nellies Cafe,"['Cafes', 'Breakfast & Brunch']",[]
314,Walnut Grove town,Walnut Grove,MN,44.2242025583982,-95.4725372046232,Laura Ingalls Wilder Museum,['Museums'],[]
315,Walnut Grove town,Walnut Grove,MN,44.2230297625065,-95.4689209163189,Walnut Grove Bar & Grill,"['Beer, Wine & Spirits', 'Bars', 'Pool Halls']",[]
316,Easton town,Columbus,OH,40.0488705069114,-82.914536277385,Northstar Café,"['American (New)', 'Vegetarian', 'Cafes']","['delivery', 'pickup']"
317,Easton town,Columbus,OH,40.0500613230406,-82.9152087424494,Mitchell's Ocean Club,"['Steakhouses', 'Seafood', 'American (New)']",['delivery']
318,Easton town,Columbus,OH,40.0496929364113,-82.9164077302245,Flip Side,['Burgers'],"['delivery', 'pickup']"
319,Easton town,Columbus,OH,40.05428,-82.91498,Cooper's Hawk Winery & Restaurant - Columbus,"['American (New)', 'Wine Tasting Room', 'Venues & Event Spaces']",['delivery']
320,Easton town,Columbus,OH,40.05536,-82.90709,Hot Chicken Takeover,"['American (Traditional)', 'Southern', 'Comfort Food']",['delivery']
321,Easton town,Columbus,OH,40.0517396837314,-82.915258743158,Jeni's Splendid Ice Creams,['Ice Cream & Frozen Yogurt'],"['delivery', 'pickup']"
322,Easton town,Columbus,OH,40.0542984,-82.916008,Cafe Istanbul,"['Turkish', 'Mediterranean', 'Cafes']","['delivery', 'pickup']"
323,Easton town,Columbus,OH,40.055146,-82.918586,Cumin & Curry,['Indian'],"['delivery', 'pickup']"
324,Easton town,Columbus,OH,40.0525513029668,-82.914310244792,Condado Tacos,"['Tacos', 'Bars', 'Tex-Mex']",['delivery']
325,Easton town,Columbus,OH,40.04984,-82.91339,Texas de Brazil,"['Brazilian', 'Steakhouses', 'Venues & Event Spaces']",[]
326,Easton town,Columbus,OH,40.0567270808633,-82.9084519296885,Chuy's,"['Tex-Mex', 'Mexican', 'Bars']",[]
327,Easton town,Columbus,OH,40.055680621975,-82.9069934413758,Pies & Pints,"['Pizza', 'Beer Bar', 'Sandwiches']","['delivery', 'pickup']"
328,Easton town,Columbus,OH,40.05446,-82.912853,Forbidden Root,"['Brewpubs', 'American (New)']","['delivery', 'pickup', 'restaurant_reservation']"
329,Easton town,Columbus,OH,40.055352275608,-82.9073064322806,FUSIAN,"['Sushi Bars', 'Japanese']",[]
330,Easton town,Columbus,OH,40.0491,-82.91417,Fado Irish Pub,['Irish Pub'],"['delivery', 'pickup']"
331,Easton town,Columbus,OH,40.0494857,-82.9153598,Brio Italian Grille,"['Italian', 'Pizza', 'Wine Bars']","['delivery', 'pickup']"
332,Easton town,Columbus,OH,40.0491,-82.91463,The Melting Pot,['Fondue'],['delivery']
333,Easton town,Columbus,OH,40.0533881417444,-82.9155400966348,Smith & Wollensky,"['Steakhouses', 'Seafood', 'Bars']",['delivery']
334,Easton town,Columbus,OH,40.054219,-82.916863,Café Zupas,"['Sandwiches', 'Soup', 'Salad']","['delivery', 'pickup']"
335,Easton town,Columbus,OH,40.0546004290818,-82.915151463172,Cafe Bistro,"['Cafes', 'American (New)', 'Pizza']",['delivery']
336,Kamiah city (pt.),Kamiah,ID,46.22717,-116.0284,Hearthstone Restaurant Bakery,"['Bakeries', 'Sandwiches', 'Breakfast & Brunch']",[]
337,Kamiah city (pt.),Kamiah,ID,46.227932,-116.028405,The Hub Bar and Grill,"['Dive Bars', 'American (Traditional)']",[]
338,Kamiah city (pt.),Kamiah,ID,46.2294,-116.03024,Palenque Mexican Restaurant,['Mexican'],[]
339,Kamiah city (pt.),Kamiah,ID,46.229351,-116.030219,Pizza Factory,"['Pizza', 'Italian', 'Chicken Wings']",[]
340,Kamiah city (pt.),Kamiah,ID,46.2281684875488,-116.026672363281,Kamiah Hotel Bar & Grill,"['Bars', 'American (Traditional)']",[]
341,Kamiah city (pt.),Kamiah,ID,46.2288630662475,-116.028616088348,The Log Yard,"['Sandwiches', 'Ice Cream & Frozen Yogurt', 'Soup']",[]
342,Kamiah city (pt.),Kamiah,ID,46.2291429722808,-116.022826125892,Higher Grounds,['Coffee & Tea'],[]
343,Kamiah city (pt.),Kamiah,ID,46.229755,-116.027463,Cloninger's Harvest Foods,"['Grocery', 'Sporting Goods', 'Delis']",[]
344,Kamiah city (pt.),Kamiah,ID,46.22906,-116.02862,Tacos el Michicano,"['Food Stands', 'Mexican']",[]
345,Kamiah city (pt.),Kooskia,ID,46.2100293071987,-116.005551771228,Heart Of The Monster - Nez Perce National Historic Park,['Landmarks & Historical Buildings'],[]
346,Kamiah city (pt.),Kooskia,ID,46.1504161495675,-115.722376316324,River Dance Lodge,"['Hotels', 'Tours', 'American (Traditional)']",[]
347,Kamiah city (pt.),Kamiah,ID,46.1762949134447,-116.000924886393,Country Side Cafe,['Cafes'],[]
348,Renville city,Renville,MN,44.7868854,-95.2120238,Main Street Bar and Grill,"['Bars', 'American (Traditional)']",[]
349,Renville city,Renville,MN,44.7889368949249,-95.2121481124149,Bart's Place,['American (Traditional)'],[]
350,Eatonville town,Orlando,FL,28.618737,-81.391708,Mad Crab Seafood and Wings,"['Seafood', 'Chicken Wings']","['delivery', 'pickup']"
351,Eatonville town,Orlando,FL,28.605536,-81.399243,Mee Thai Restaurant,"['Thai', 'Salad']",['delivery']
352,Eatonville town,Eatonville,FL,28.61883,-81.38099,Dajen Eats,"['Vegan', 'Ice Cream & Frozen Yogurt', 'Caribbean']","['delivery', 'pickup']"
353,Eatonville town,Orlando,FL,28.5966554,-81.3937368,Mediterranean Deli,"['Greek', 'Delis', 'Mediterranean']",['delivery']
354,Eatonville town,Orlando,FL,28.6089,-81.39084,Christner's Prime Steak and Lobster,"['Steakhouses', 'Seafood']",['delivery']
355,Eatonville town,Winter Park,FL,28.59263,-81.3713099,4 Rivers Smokehouse,"['Barbeque', 'Smokehouse']","['delivery', 'pickup']"
356,Eatonville town,Winter Park,FL,28.602556,-81.367441,Tamarind Indian Cuisine,['Indian'],"['delivery', 'pickup']"
357,Eatonville town,Winter Park,FL,28.5957926164362,-81.3647872216257,The Glass Knife,"['Bakeries', 'Donuts', 'Breakfast & Brunch']",['delivery']
358,Eatonville town,Winter Park,FL,28.59677403,-81.364763,Bulla Gastrobar,"['Gastropubs', 'Spanish', 'Tapas Bars']","['delivery', 'pickup']"
359,Eatonville town,Orlando,FL,28.597897,-81.3999748,Zeytin Turkish Cuisine,"['Halal', 'Turkish', 'Mediterranean']",['delivery']
360,Eatonville town,Winter Park,FL,28.59351,-81.36281,KrungThep Tea Time,"['Tea Rooms', 'Sandwiches', 'Thai']","['delivery', 'pickup']"
361,Eatonville town,Winter Park,FL,28.59343,-81.37767,Hunger Street Tacos,['Tacos'],['delivery']
362,Eatonville town,Orlando,FL,28.6050577604221,-81.3963317871094,LaSpada's,"['Sandwiches', 'Cheesesteaks', 'Burgers']","['delivery', 'pickup']"
363,Eatonville town,Maitland,FL,28.618294,-81.366109,Mediterranean Street Food by Shishco,"['Mediterranean', 'Middle Eastern', 'Turkish']","['delivery', 'pickup']"
364,Eatonville town,Maitland,FL,28.616466,-81.364422,Enzian Theater,"['Cinema', 'Bars', 'American (New)']",[]
365,Eatonville town,Orlando,FL,28.60567,-81.40469,Mi Gordita Loca,['Mexican'],['pickup']
366,Eatonville town,Winter Park,FL,28.596573,-81.366043,Hillstone Restaurant,['American (New)'],['delivery']
367,Eatonville town,Maitland,FL,28.6247269244595,-81.3645995478678,Jeremiah's Italian Ice,"['Ice Cream & Frozen Yogurt', 'Desserts', 'Shaved Ice']",['delivery']
368,Eatonville town,Maitland,FL,28.62469,-81.36293,Olea Mediterranean Grill,"['Mediterranean', 'Greek']","['delivery', 'pickup']"
369,Eatonville town,Maitland,FL,28.627242,-81.398821,Curry bowl,"['Indian', 'Pakistani', 'Asian Fusion']",['delivery']
370,Richmond town,Staten Island,NY,40.57215,-74.1131599,Pizzeria Giove,['Italian'],[]
371,Richmond town,Staten Island,NY,40.5682222626251,-74.1109398138044,Hook & Reel,"['Cajun/Creole', 'Seafood']","['pickup', 'delivery']"
372,Richmond town,New York,NY,40.5734755325581,-74.1147970675453,Piece A Cake,"['Bakeries', 'Coffee & Tea', 'Breakfast & Brunch']","['pickup', 'delivery']"
373,Richmond town,Staten Island,NY,40.5789935,-74.1083978,Incas Grill Peruvian kitchen,['Peruvian'],"['pickup', 'delivery']"
374,Richmond town,Staten Island,NY,40.54748,-74.157845,Patrizia's of Staten Island,"['Italian', 'Pizza']","['pickup', 'delivery']"
375,Richmond town,Staten Island,NY,40.57219,-74.11273,Taste of India II,['Indian'],"['pickup', 'delivery']"
376,Richmond town,Staten Island,NY,40.5715479,-74.1120343,SIPS + MAKER,"['Coffee & Tea', 'Accessories', 'Home Decor']",[]
377,Richmond town,Staten Island,NY,40.5753893,-74.1192837,Fresh Twist juicebar & cafe,"['Juice Bars & Smoothies', 'Empanadas', 'Salad']","['pickup', 'delivery']"
378,Richmond town,Staten Island,NY,40.572994,-74.114185,99 Favor Taste,"['Hot Pot', 'Barbeque', 'Buffets']","['pickup', 'delivery']"
379,Richmond town,Staten Island,NY,40.571574,-74.1113,Jade Asian Bistro,"['Asian Fusion', 'Chinese']","['pickup', 'delivery']"
380,Richmond town,Staten Island,NY,40.57355,-74.11642,Pho Rainbow II,['Vietnamese'],"['pickup', 'delivery']"
381,Richmond town,Staten Island,NY,40.5746530841284,-74.1058338806033,Simple Asia,"['Chinese', 'Sushi Bars', 'Ramen']",[]
382,Richmond town,Staten Island,NY,40.57359,-74.116153,Cantina Mexicana,['Mexican'],"['pickup', 'delivery']"
383,Richmond town,Staten Island,NY,40.570595,-74.110448,Precious Island Dim Sum,"['Cantonese', 'Dim Sum']","['pickup', 'delivery']"
384,Richmond town,Staten Island,NY,40.581292,-74.111488,Cucina Fresca,"['Pizza', 'Italian']",[]
385,Richmond town,Staten Island,NY,40.5731899,-74.13675,Mark's Bake Shoppe,"['Bakeries', 'Custom Cakes', 'Cupcakes']",[]
386,Richmond town,Staten Island,NY,40.587346,-74.104111,The KOVA,"['Breakfast & Brunch', 'Coffee & Tea']","['pickup', 'delivery']"
387,Richmond town,Staten Island,NY,40.579593,-74.1095,Corner House BBQ,"['Barbeque', 'Cocktail Bars']","['pickup', 'delivery']"
388,Richmond town,Staten Island,NY,40.56589,-74.10109,Harvest Cafe,['Cafes'],[]
389,Richmond town,Staten Island,NY,40.57547,-74.10499,Violette's Cellar,"['Breakfast & Brunch', 'Tapas/Small Plates', 'Speakeasies']","['pickup', 'delivery']"
390,Edmeston town,Edmeston,NY,42.69799,-75.24362,Spikes Pizza,"['Pizza', 'Grocery']",[]
391,Edmeston town,Edmeston,NY,42.691628,-75.286896,Red Pine Golf Course,['Golf'],[]
392,Hinckley village,Hinckley,IL,41.7691364390706,-88.6408891528845,South Moon BBQ,['Barbeque'],[]
393,Hinckley village,Hinckley,IL,41.7689889031189,-88.6356400698423,Dairy Joy,"['American (Traditional)', 'Ice Cream & Frozen Yogurt', 'Fast Food']",[]
394,Hinckley village,Hinckley,IL,41.7690747231245,-88.6413679271936,J&k's Half Moon Tavern,"['Pubs', 'American (Traditional)']",[]
395,Hinckley village,Hinckley,IL,41.7692604064941,-88.6406707763672,The Hinckley Cafe,['American (Traditional)'],[]
396,Hinckley village,Hinckley,IL,41.76902,-88.65195,Brown Pub,['Pubs'],[]
397,Hinckley village,Hinckley,IL,41.7691131464407,-88.6411896075379,Brian's Pizza,['Pizza'],"['pickup', 'delivery']"
398,Hinckley village,Hinckley,IL,41.76914,-88.641483,Fat Olives Pizza,['Pizza'],[]
399,Hinckley village,Hinckley,IL,41.76876,-88.64174,The Welcome Matt,['Bars'],[]
400,Hinckley village,Hinckley,IL,41.76915252163,-88.6425076915161,Subway,['Sandwiches'],[]
401,Stockton city,Stockton,CA,38.0112339964313,-121.322607553504,Market Tavern,"['American (New)', 'Seafood', 'Pizza']","['delivery', 'pickup']"
402,Stockton city,Stockton,CA,38.0007432324407,-121.298132767563,Thanh Thanh Sandwiches,"['Vietnamese', 'Sandwiches', 'Juice Bars & Smoothies']",['delivery']
403,Stockton city,Stockton,CA,37.96326,-121.27516,Genova Bakery,"['Bakeries', 'Delis']",[]
404,Stockton city,Stockton,CA,37.999806,-121.325526,Smitty's Wings & Things,"['Chicken Wings', 'Pizza', 'Sports Bars']","['delivery', 'pickup']"
405,Stockton city,Stockton,CA,37.955211,-121.288371,Kabob & Gyro House,"['Greek', 'Mediterranean', 'Halal']","['delivery', 'pickup']"
406,Stockton city,Stockton,CA,38.0005043983538,-121.288775181621,Dream Ice Cream Parlor,"['Desserts', 'Ice Cream & Frozen Yogurt']",['delivery']
407,Stockton city,Stockton,CA,37.9690393,-121.2986025,Fat City Brew & Bbq,"['Barbeque', 'Burgers']","['delivery', 'pickup']"
408,Stockton city,Stockton,CA,37.99703,-121.29324,Rays Chicken and Fish Mart,"['Seafood', 'Seafood Markets', 'Chicken Shop']","['delivery', 'pickup']"
409,Stockton city,Stockton,CA,37.986969,-121.311263,Tigers Yogurt,['Ice Cream & Frozen Yogurt'],['delivery']
410,Stockton city,Stockton,CA,37.9785552821357,-121.305069739004,Go Falafel Greek Food,"['Mediterranean', 'Greek']","['delivery', 'pickup']"
411,Stockton city,Stockton,CA,37.9545,-121.2873,Cast Iron Trading,"['Breakfast & Brunch', 'Beer Bar', 'American (New)']",['delivery']
412,Stockton city,Stockton,CA,37.9709025,-121.300557,House of Shaw Espresso Cafe,"['Coffee & Tea', 'Bagels', 'Sandwiches']",['delivery']
413,Stockton city,Stockton,CA,38.00598,-121.31958,Yen Du Restaurant,"['Chinese', 'Seafood', 'Soup']",['delivery']
414,Stockton city,Stockton,CA,37.9780960083008,-121.304878234863,Siamese Street Thai Restaurant,['Thai'],['delivery']
415,Stockton city,Stockton,CA,37.9544378738245,-121.286677010357,Papa Urb's Grill,"['Filipino', 'Empanadas', 'Chicken Wings']",['delivery']
416,Stockton city,Stockton,CA,37.9706563,-121.2999363,Seoul Soon Dubu Tofu House,['Korean'],['delivery']
417,Stockton city,Stockton,CA,38.0117038,-121.3239933,Prime Table,['Steakhouses'],['delivery']
418,Stockton city,Stockton,CA,37.9710845947266,-121.300476074219,Cocoro Japanese Bistro & Sushi Bar,"['Sushi Bars', 'Japanese']",['delivery']
419,Stockton city,Stockton,CA,37.972,-121.30112,Midtown Creperie & Cafe,"['Breakfast & Brunch', 'Cajun/Creole']",['delivery']
420,Stockton city,Lodi,CA,38.115097,-121.284477,A Moveable Feast,"['American (New)', 'Food Trucks']",['delivery']
421,Rome township,Adrian,MI,41.9429969787598,-84.1896667480469,Club 223,"['Bars', 'Burgers', 'Sandwiches']",[]
422,Croswell city,Croswell,MI,43.272773,-82.6202419,Rae’s,"['Coffee Roasteries', 'Breakfast & Brunch', 'American (Traditional)']",[]
423,Croswell city,Croswell,MI,43.276128,-82.621751,Croswell Swinging Bridge,['Local Flavor'],[]
424,Croswell city,Croswell,MI,43.2736799865961,-82.6206804066896,Camm Cafe,['American (Traditional)'],[]
425,Croswell city,Croswell,MI,43.2704268787958,-82.620144,Wagon Wheel Express,"['Breakfast & Brunch', 'Soup', 'Juice Bars & Smoothies']",[]
426,Croswell city,Croswell,MI,43.272798,-82.62021,Thumb Roast Coffee,"['Coffee & Tea', 'Coffee Roasteries', 'American (Traditional)']",[]
427,Croswell city,Croswell,MI,43.273586,-82.621037,Thumbs Up,"['Pizza', 'Sandwiches', 'Sports Bars']",[]
428,Croswell city,Croswell,MI,43.2725313305855,-82.6204034686089,Riverside Family Dining,"['Breakfast & Brunch', 'Pizza']",[]
429,Croswell city,Croswell,MI,43.2651085656277,-82.6202295627604,McDonald's,"['Fast Food', 'Burgers', 'Coffee & Tea']",[]
430,Croswell city,Croswell,MI,43.2645052,-82.6190438,J & D Market,['Pizza'],[]
431,Croswell city,Croswell,MI,43.273256,-82.620734,Frostick Freeze Ice Cream Parlor,['Ice Cream & Frozen Yogurt'],[]
432,Bayside village (pt.),San Francisco,CA,37.795831,-122.393303,Hog Island Oyster Co,"['Seafood', 'Seafood Markets', 'Live/Raw Food']",[]
433,Bayside village (pt.),San Francisco,CA,37.7811065758548,-122.395329724426,HRD,"['Korean', 'Asian Fusion', 'Mexican']","['delivery', 'pickup']"
434,Bayside village (pt.),San Francisco,CA,37.796996,-122.399661,Kokkari Estiatorio,"['Greek', 'Mediterranean']",['pickup']
435,Bayside village (pt.),San Francisco,CA,37.7829016035273,-122.419043442957,Brenda's French Soul Food,"['Breakfast & Brunch', 'Southern', 'Cajun/Creole']",['delivery']
436,Bayside village (pt.),San Francisco,CA,37.781752952057,-122.396121970462,Garaje,"['Mexican', 'Burgers', 'Beer Bar']","['delivery', 'pickup']"
437,Bayside village (pt.),San Francisco,CA,37.79337,-122.39274,Boulevard,['American (New)'],['delivery']
438,Bayside village (pt.),San Francisco,CA,37.7756640166767,-122.39345180371,Philz Coffee,"['Coffee & Tea', 'Breakfast & Brunch']",['delivery']
439,Bayside village (pt.),San Francisco,CA,37.78163,-122.40204,Zero Zero,"['Pizza', 'Italian', 'Cocktail Bars']","['restaurant_reservation', 'pickup']"
440,Bayside village (pt.),San Francisco,CA,37.78724,-122.39995,The Bird,"['Chicken Shop', 'Sandwiches']",['delivery']
441,Bayside village (pt.),San Francisco,CA,37.7843569724103,-122.388436943292,Delancey Street Restaurant,"['American (Traditional)', 'Breakfast & Brunch']",['pickup']
442,Bayside village (pt.),San Francisco,CA,37.794169,-122.402359,Wayfare Tavern,['American (Traditional)'],"['delivery', 'pickup']"
443,Bayside village (pt.),San Francisco,CA,37.7793,-122.39568,Alexander's Steakhouse,"['Steakhouses', 'Seafood', 'American (New)']","['delivery', 'pickup']"
444,Bayside village (pt.),San Francisco,CA,37.785402,-122.399068,Benu,"['American (New)', 'Wine Bars', 'Seafood']","['delivery', 'pickup']"
445,Bayside village (pt.),San Francisco,CA,37.786953,-122.403992,Super Duper Burgers,"['Burgers', 'American (Traditional)']",['delivery']
446,Bayside village (pt.),San Francisco,CA,37.7974182368553,-122.395129846558,La Mar Cebichería Peruana,"['Latin American', 'Seafood', 'Peruvian']","['delivery', 'pickup']"
447,Bayside village (pt.),San Francisco,CA,37.761591,-122.425717,Bi-Rite Creamery,['Ice Cream & Frozen Yogurt'],['delivery']
448,Bayside village (pt.),San Francisco,CA,37.795398235987,-122.392534017563,Roli Roti Gourmet Rotisserie,"['Sandwiches', 'Food Trucks', 'Specialty Food']",[]
449,Bayside village (pt.),San Francisco,CA,37.7841774486315,-122.402068620684,Samovar - Yerba Buena Gardens,"['Tea Rooms', 'Venues & Event Spaces', 'Breakfast & Brunch']","['delivery', 'pickup']"
450,Bayside village (pt.),San Francisco,CA,37.79338,-122.4225,House of Prime Rib,"['American (Traditional)', 'Steakhouses', 'Wine Bars']",[]
451,Bayside village (pt.),San Francisco,CA,37.78661,-122.4,Mourad Restaurant,"['Moroccan', 'Venues & Event Spaces', 'Bars']",[]
452,Balance of Springfield township,Springfield,IL,39.803336,-89.647188,Abraham Lincoln Presidential Library & Museum,['Museums'],[]
453,Balance of Springfield township,Springfield,IL,39.797015,-89.647603,Obed & Isaac's Microbrewery and Eatery,"['American (Traditional)', 'Breweries', 'Beer Gardens']","['delivery', 'pickup']"
454,Balance of Springfield township,Springfield,IL,39.7869917,-89.6447806,Happy Sushi,"['Sushi Bars', 'Japanese']",['delivery']
455,Balance of Springfield township,Springfield,IL,39.765499,-89.662939,D'arcy's Pint,"['Irish', 'American (Traditional)', 'Bars']",['delivery']
456,Balance of Springfield township,Springfield,IL,39.7968177,-89.6464151,Lincoln Home National Historic Site,['Landmarks & Historical Buildings'],[]
457,Balance of Springfield township,Springfield,IL,39.7904212,-89.6440558,Taqueria Moroleon,['Mexican'],['pickup']
458,Balance of Springfield township,Springfield,IL,39.80086,-89.65021,Cafe Moxo,"['Sandwiches', 'Cafes', 'Breakfast & Brunch']",['delivery']
459,Balance of Springfield township,Springfield,IL,39.7660882611211,-89.6639054193372,Charlie Parkers,['Diners'],"['delivery', 'pickup']"
460,Balance of Springfield township,Springfield,IL,39.7971525,-89.6465496,Wm. Van's Coffee,"['Cafes', 'Coffee & Tea', 'Breakfast & Brunch']",['delivery']
461,Balance of Springfield township,Springfield,IL,39.7923603,-89.646848,Incredibly Delicious,['Bakeries'],['delivery']
462,Balance of Springfield township,Springfield,IL,39.79414,-89.65145,Dana-Thomas House,['Museums'],[]
463,Balance of Springfield township,Springfield,IL,39.7477144314468,-89.6708495592468,Engrained Brewery & Restaurant,"['Breweries', 'American (Traditional)']","['delivery', 'pickup']"
464,Balance of Springfield township,Springfield,IL,39.7700895961996,-89.6893083723246,Keefner's,"['Breakfast & Brunch', 'American (New)']",['delivery']
465,Balance of Springfield township,Springfield,IL,39.76453,-89.67874,Little Saigon,"['Thai', 'Vietnamese']",['delivery']
466,Balance of Springfield township,Springfield,IL,39.80021,-89.64576,Nick & Nino's Penthouse Steakhouse,"['Steakhouses', 'Seafood']",['delivery']
467,Balance of Springfield township,Springfield,IL,39.7998633551065,-89.6476723998785,La Piazza,"['Pizza', 'Italian']",['delivery']
468,Balance of Springfield township,Springfield,IL,39.7997747233963,-89.6476684086258,Maldaner's Restaurant,['American (Traditional)'],"['delivery', 'pickup']"
469,Balance of Springfield township,Springfield,IL,39.79661,-89.65128,Loukinens' on 4th,"['American (Traditional)', 'Lounges']",['delivery']
470,Balance of Springfield township,Springfield,IL,39.76703,-89.6874,James Home Kitchen,"['Barbeque', 'Asian Fusion']",['delivery']
471,Balance of Springfield township,Springfield,IL,39.7624015808105,-89.648796081543,Cozy Dog Drive In,['Hot Dogs'],['delivery']
472,Sauk Rapids city,Sauk Rapids,MN,45.5894394732767,-94.166222992209,Old Capital Tavern,"['American (New)', 'Bars']","['delivery', 'pickup']"
473,Sauk Rapids city,St. Cloud,MN,45.558930863954,-94.16368366605,Jules' Bistro,"['American (New)', 'Bars', 'Pizza']",['delivery']
474,Sauk Rapids city,St. Cloud,MN,45.559712,-94.162166,The White Horse Restaurant & Bar,"['Pubs', 'American (New)']",['delivery']
475,Sauk Rapids city,Sauk Rapids,MN,45.5905876159668,-94.1654205322266,Jimmy's Pour House,"['Venues & Event Spaces', 'Breakfast & Brunch', 'Irish Pub']",[]
476,Sauk Rapids city,St. Cloud,MN,45.56756,-94.14539,Val's Rapid Service,"['American (Traditional)', 'Fast Food', 'Coffee & Tea']",['delivery']
477,Sauk Rapids city,Saint Cloud,MN,45.5598543,-94.161209,The Pickled Loon,"['Bars', 'American (Traditional)', 'Music Venues']",['delivery']
478,Sauk Rapids city,Saint Cloud,MN,45.559548,-94.160188,Kohinoor Bar & Grill,"['Indian', 'Bars']","['delivery', 'pickup']"
479,Sauk Rapids city,Saint Cloud,MN,45.5592194,-94.1619263,Dolsie's Lunch Box Grille,"['American (New)', 'Comfort Food', 'Diners']","['delivery', 'pickup']"
480,Sauk Rapids city,Sauk Rapids,MN,45.5908477,-94.1662067,Mixin' It Up,"['Bakeries', 'Custom Cakes', 'Cupcakes']","['delivery', 'pickup']"
481,Sauk Rapids city,Saint Cloud,MN,45.5647767874902,-94.1822823509574,Waffle It,"['Breakfast & Brunch', 'Waffles']","['delivery', 'pickup']"
482,Sauk Rapids city,Saint Cloud,MN,45.551778,-94.191404,Star of India,"['Indian', 'Buffets']","['delivery', 'pickup']"
483,Sauk Rapids city,St Cloud,MN,45.560547,-94.157118,Greek Cravings,"['Greek', 'Mediterranean']","['delivery', 'pickup']"
484,Sauk Rapids city,St Cloud,MN,45.553525,-94.185867,Giliberto's Mexican Taco Shop,['Mexican'],['delivery']
485,Sauk Rapids city,Saint Cloud,MN,45.5632892991865,-94.1664829808868,The Place,"['Breakfast & Brunch', 'Diners']",['delivery']
486,Sauk Rapids city,Saint Cloud,MN,45.5604844,-94.1571809,7 West TapHouse,"['Burgers', 'Tacos']",['delivery']
487,Sauk Rapids city,Sauk Rapids,MN,45.5919138,-94.167779,Rock Creek Coffee House,"['Coffee & Tea', 'Sandwiches']",['delivery']
488,Sauk Rapids city,Saint Cloud,MN,45.57719,-94.1834,"Lily's Wings, Burgers, & Things","['Chicken Wings', 'Burgers', 'American (Traditional)']",['delivery']
489,Sauk Rapids city,Waite Park,MN,45.55909,-94.20818,Viet Tien Market,"['Vietnamese', 'Salad', 'International Grocery']",['delivery']
490,Sauk Rapids city,Saint Cloud,MN,45.5520106852055,-94.1982062906027,Bravo Burritos,['Mexican'],"['delivery', 'pickup']"
491,Sauk Rapids city,Sauk Rapids,MN,45.5934021,-94.1717767,Dutch Maid Bakery,['Bakeries'],[]
492,Indian Harbour Beach city,Satellite Beach,FL,28.17559,-80.60583,Banana River Cafe,"['Cafes', 'Breakfast & Brunch']",['delivery']
493,Indian Harbour Beach city,Indian Harbour Beach,FL,28.146612,-80.598409,Too Cool Cafe,"['American (New)', 'Burgers', 'Breakfast & Brunch']",['delivery']
494,Indian Harbour Beach city,Satellite Beach,FL,28.17267,-80.58997,Sun On the Beach,"['Breakfast & Brunch', 'Southern', 'Burgers']",['delivery']
495,Indian Harbour Beach city,Satellite Beach,FL,28.17363,-80.59019,Da Kine Diego's Insane Burritos,"['Mexican', 'Hawaiian']",['delivery']
496,Indian Harbour Beach city,Satellite Beach,FL,28.1792578,-80.605882,Long Doggers-Satellite Beach,"['American (Traditional)', 'Hot Dogs', 'Seafood']",[]
497,Indian Harbour Beach city,Indian Harbour Beach,FL,28.1522746555365,-80.5852309266104,Scrambled Egg Cafe,['Breakfast & Brunch'],['delivery']
498,Indian Harbour Beach city,Satellite Beach,FL,28.17623,-80.59088,The Wicked Pineapple,"['Acai Bowls', 'Coffee & Tea', 'Bakeries']",[]
499,Indian Harbour Beach city,Satellite Beach,FL,28.1740531921387,-80.5902557373047,Cibelli's Pizza,"['Pizza', 'Italian', 'Chicken Wings']",['delivery']
500,Indian Harbour Beach city,Satellite Beach,FL,28.158177531987,-80.5865541100502,CuiZine Restaurant,"['Seafood', 'Steakhouses']",['delivery']
501,Indian Harbour Beach city,Satellite Beach,FL,28.1792283,-80.5912564,Surfin' Turtle Ice Cream Shoppe,"['Ice Cream & Frozen Yogurt', 'Shaved Ice']",[]
502,Indian Harbour Beach city,Satellite Beach,FL,28.182507,-80.592554,Nippon Thai,"['Thai', 'Sushi Bars', 'Japanese']","['delivery', 'pickup']"
503,Indian Harbour Beach city,Satellite Beach,FL,28.17551,-80.60548,Bagel World Deli & Coffee Cafe,['Bagels'],['delivery']
504,Indian Harbour Beach city,Indian Harbour Beach,FL,28.1513612339184,-80.5843288962952,Trend Kitchen,"['American (New)', 'French', 'Champagne Bars']",['delivery']
505,Indian Harbour Beach city,Indian Harbour Beach,FL,28.1526727,-80.5995209,Happy Healthy Human Cafe,"['Juice Bars & Smoothies', 'Sandwiches', 'Acai Bowls']",['delivery']
506,Indian Harbour Beach city,Satellite Beach,FL,28.1586823850526,-80.5859968526627,Pappagallo's Pizza,"['Pizza', 'Italian', 'Bars']",['delivery']
507,Indian Harbour Beach city,Indian Harbour Beach,FL,28.14987,-80.5843,Fresh Scratch Bistro and Lounge,"['Salad', 'Wine Bars', 'Seafood']",['delivery']
508,Indian Harbour Beach city,Indian Harbour Beach,FL,28.1525096893311,-80.5848693847656,Hula Moon,"['American (New)', 'Seafood', 'Pubs']",['delivery']
509,Indian Harbour Beach city,Indian Harbour Beach,FL,28.1524766,-80.5994382,Tommy's Beachside Pizza,"['Pizza', 'Italian', 'Sandwiches']",['delivery']
510,Indian Harbour Beach city,Satellite Beach,FL,28.2031523425,-80.5968503786,Goombay's Beachside,"['Seafood', 'American (New)', 'Caribbean']",['delivery']
511,Indian Harbour Beach city,Satellite Beach,FL,28.1644436404937,-80.5880318326841,Doubles Beachside,"['American (Traditional)', 'Bars', 'Venues & Event Spaces']",['delivery']
512,Lyndeborough town,Boston,MA,42.37552,-71.03675,Mike & Ant's Ice Cream,"['Food Trucks', 'Ice Cream & Frozen Yogurt']",[]
513,Lovelock city,Lovelock,NV,40.1799815,-118.4748681,Cowpoke Cafe,"['Diners', 'American (Traditional)', 'Cafes']",[]
514,Lovelock city,Lovelock,NV,40.1747401803732,-118.478429988027,La Casita Restaurant,['Mexican'],[]
515,Lovelock city,Lovelock,NV,40.177424,-118.477064,Temptations,"['Coffee & Tea', 'Beer, Wine & Spirits', 'Ice Cream & Frozen Yogurt']",[]
516,Lovelock city,Lovelock,NV,40.1793142373265,-118.480872642721,Lovers Lock,['Landmarks & Historical Buildings'],[]
517,Lovelock city,Lovelock,NV,40.1846346733505,-118.471492119133,Black Rock Grill,['Restaurants'],[]
518,Lovelock city,Lovelock,NV,40.17116,-118.48083,Lovelock Pizza,['Pizza'],[]
519,Lovelock city,Lovelock,NV,40.178845,-118.472843194279,McDonald's,"['Burgers', 'Fast Food', 'Coffee & Tea']",[]
520,Lovelock city,Lovelock,NV,40.17978,-118.47877,Lovelock Caves,['Landmarks & Historical Buildings'],[]
521,Lovelock city,Lovelock,NV,40.1775205347797,-118.469729830705,Port of Subs,"['Sandwiches', 'Delis']",[]
522,Lovelock city,Lovelock,NV,40.1745,-118.47924,Pizza Factory,"['Pizza', 'Italian', 'Chicken Wings']",[]
523,Lovelock city,Lovelock,NV,40.1988511,-118.4580232,Crazy Corners Saloon & Dance Hall,['Bars'],[]
524,Lovelock city,Lovelock,NV,40.17118,-118.48226,Marzen House Museum,['Museums'],[]
525,Lovelock city,Lovelock,NV,40.1790840995985,-118.474266010734,Longhorn Saloon,['Bars'],[]
526,Lovelock city,Lovelock,NV,40.1804389532724,-118.474641137652,Whiskey Creek Saloon,['Cocktail Bars'],[]
527,Millbury village,Millbury,MA,42.1912,-71.76148,The Coop,"['Chicken Wings', 'Barbeque', 'Sandwiches']","['pickup', 'delivery']"
528,Millbury village,Millbury,MA,42.1939832,-71.7592259,Kai Mook,"['Thai', 'Salad', 'Coffee & Tea']",['delivery']
529,Millbury village,Millbury,MA,42.194,-71.765663,Cake Shop Cafe,"['Coffee & Tea', 'Bakeries']",['delivery']
530,Millbury village,Millbury,MA,42.1917381,-71.7659683,Scales Seafood & More,"['Seafood', 'Ice Cream & Frozen Yogurt']",['delivery']
531,Millbury village,Millbury,MA,42.19654,-71.776194,LongHorn Steakhouse,"['Steakhouses', 'American (Traditional)', 'Barbeque']",[]
532,Millbury village,Millbury,MA,42.19917,-71.777168,Feng Asian Bistro,"['Sushi Bars', 'Asian Fusion', 'Japanese']","['pickup', 'delivery']"
533,Millbury village,Millbury,MA,42.191047,-71.760817,Timothy Jay Sweets,"['Bakeries', 'Custom Cakes', 'Cupcakes']",[]
534,Millbury village,Worcester,MA,42.211162,-71.796839,Racha Thai,"['Thai', 'Seafood']",['delivery']
535,Millbury village,Millbury,MA,42.199227,-71.777332,Red Robin Gourmet Burgers and Brews,"['Burgers', 'American (Traditional)']","['pickup', 'delivery']"
536,Millbury village,Sutton,MA,42.16156,-71.73985,Tony's Sutton Pizza Restaurant,['Pizza'],['delivery']
537,Millbury village,Millbury,MA,42.1967981188078,-71.7637552700717,Puffin's Restaurant,"['American (New)', 'American (Traditional)', 'Breakfast & Brunch']",['delivery']
538,Millbury village,Millbury,MA,42.1909141540527,-71.7600479125977,Calabria Restaurant,['Italian'],"['pickup', 'delivery']"
539,Millbury village,Millbury,MA,42.19191,-71.7591,A & D Pizza,['Pizza'],['delivery']
540,Millbury village,Millbury,MA,42.19249,-71.7607,Pizza Chef,['Pizza'],['delivery']
541,Millbury village,Millbury,MA,42.199302,-71.778872,110 Grill,"['American (New)', 'American (Traditional)', 'Cocktail Bars']",['delivery']
542,Millbury village,Millbury,MA,42.193582,-71.764878,Christopher's Homemade Ice Cream,['Ice Cream & Frozen Yogurt'],[]
543,Millbury village,Millbury,MA,42.1974657,-71.775797,Panera Bread,"['Sandwiches', 'Salad', 'Soup']",['delivery']
544,Millbury village,Worcester,MA,42.2117770667201,-71.7968230694532,Family Table,"['Pizza', 'Breakfast & Brunch', 'American (New)']","['pickup', 'delivery']"
545,Millbury village,Millbury,MA,42.1913030767059,-71.7608588563859,Pearl Cafe II,['Chinese'],['delivery']
546,Millbury village,Millbury,MA,42.19705,-71.77707,Cold Stone Creamery,"['Ice Cream & Frozen Yogurt', 'Custom Cakes', 'Cupcakes']","['pickup', 'delivery']"
547,Boulder City city,Boulder City,NV,35.9745598,-114.8433805,FOX Smokehouse BBQ,"['Barbeque', 'Burgers', 'American (Traditional)']","['pickup', 'delivery']"
548,Boulder City city,Boulder City,NV,35.977672,-114.8379609,The Coffee Cup,"['Diners', 'Coffee & Tea', 'Breakfast & Brunch']",['delivery']
549,Boulder City city,Boulder City,NV,35.97359,-114.84157,Little City Grille,"['American (New)', 'Burgers', 'Steakhouses']",['delivery']
550,Boulder City city,Boulder City,NV,35.9728616344621,-114.848772,The Chicken Shack,"['Chicken Shop', 'Fast Food', 'Barbeque']","['pickup', 'delivery']"
551,Boulder City city,Boulder City,NV,35.969097,-114.859,Chilly Jilly'z,"['Ice Cream & Frozen Yogurt', 'Breakfast & Brunch', 'American (Traditional)']",['delivery']
552,Boulder City city,Boulder City,NV,35.97836,-114.83582,The Dillinger,"['Bars', 'Burgers', 'Music Venues']",['delivery']
553,Boulder City city,Boulder City,NV,35.9722442626953,-114.84595489502,Boulder Pit Stop,"['American (Traditional)', 'Burgers']",['delivery']
554,Boulder City city,Boulder City,NV,35.97147,-114.85095,Tom Devlin's Monster Museum,"['Art Museums', 'Souvenir Shops']",[]
555,Boulder City city,Boulder City,NV,35.9708473569227,-114.852456226945,China Bistro,"['Thai', 'Chinese', 'Asian Fusion']",['delivery']
556,Boulder City city,Boulder City,NV,35.977217,-114.836268,Momo Sushi,"['Sushi Bars', 'Japanese']",['delivery']
557,Boulder City city,Boulder City,NV,35.9774210252586,-114.838092127343,Milo's Cellar and Inn,"['Wine Bars', 'American (New)']","['pickup', 'delivery']"
558,Boulder City city,Boulder City,NV,35.9739947,-114.8461768,Toto's Mexican Restaurant,['Mexican'],"['pickup', 'delivery']"
559,Boulder City city,Boulder City,NV,35.9749071759899,-114.840458519034,The Tap,"['Gastropubs', 'Breakfast & Brunch', 'American (Traditional)']",['delivery']
560,Boulder City city,Boulder City,NV,35.96817,-114.85755,Desert Adventures,"['Rafting/Kayaking', 'Boating', 'Hiking']",[]
561,Boulder City city,Boulder City,NV,35.9710913294956,-114.855527134853,Nevada Southern Railway,['Museums'],[]
562,Boulder City city,Boulder City,NV,35.996521,-114.8332672,Hemenway Valley Park,"['Recreation Centers', 'Parks']",[]
563,Boulder City city,Boulder City,NV,35.97853,-114.83695,Boulder Dam Brewing Co.,"['Breweries', 'American (Traditional)']",['delivery']
564,Boulder City city,Boulder City,NV,35.9759585154104,-114.847975998848,BC Dam Tacos,"['Tacos', 'Food Trucks']","['pickup', 'delivery']"
565,Boulder City city,Boulder City,NV,35.9770240783691,-114.83829498291,Jacks Place,"['American (Traditional)', 'Sports Bars', 'Burgers']",['delivery']
566,Boulder City city,Boulder City,NV,35.9686485290947,-114.857553813956,Mom's Hot Dogs,"['Hot Dogs', 'Fast Food']",['delivery']
567,Downingtown borough,Downingtown,PA,40.002528588986,-75.7107382919616,Station Taproom,['Gastropubs'],['delivery']
568,Downingtown borough,Downingtown,PA,40.0069274902344,-75.7029342651367,Amani's BYOB,['American (New)'],['delivery']
569,Downingtown borough,Downingtown,PA,40.0086990026879,-75.701114,Green Street Grill,"['Breakfast & Brunch', 'Wraps', 'Sandwiches']","['delivery', 'pickup']"
570,Downingtown borough,Downingtown,PA,40.00774,-75.69554,Pomodoro Pizza & Italian Restaurant,"['Italian', 'Pizza']",['delivery']
571,Downingtown borough,Downingtown,PA,40.0038525938283,-75.707835845738,Anthony's Cucina Fresca,['Italian'],['delivery']
572,Downingtown borough,Downingtown,PA,40.0090513528106,-75.7037847124682,Lione's Pizza,['Pizza'],"['delivery', 'pickup']"
573,Downingtown borough,Downingtown,PA,40.0068182,-75.7008481,East Branch Brewing Company,"['Breweries', 'Sandwiches', 'American (New)']",['delivery']
574,Downingtown borough,Downingtown,PA,40.0068248325708,-75.7010366837073,Estrella,"['Tacos', 'Bars', 'Breakfast & Brunch']",['delivery']
575,Downingtown borough,Downingtown,PA,40.00366,-75.70924,The Farmhouse Coffee & Espresso Bar,"['Coffee & Tea', 'Bakeries']",[]
576,Downingtown borough,Downingtown,PA,40.0071299,-75.70251,Coffee Cup Restaurant,"['Diners', 'Breakfast & Brunch']",['delivery']
577,Downingtown borough,Downingtown,PA,40.0069299,-75.70326,El Tarascó,['Mexican'],"['delivery', 'pickup']"
578,Downingtown borough,Downingtown,PA,39.9959557005083,-75.7440490211549,Okinii Modern Japanese,"['Sushi Bars', 'Thai', 'Chinese']","['delivery', 'pickup']"
579,Downingtown borough,Downingtown,PA,40.006992,-75.701917,Bakers of Buffington,"['Bakeries', 'Patisserie/Cake Shop']",[]
580,Downingtown borough,Downingtown,PA,39.997461,-75.742569,Pho Now,['Vietnamese'],['delivery']
581,Downingtown borough,Downingtown,PA,40.01928,-75.70466,San Marco Pasta,"['American (New)', 'Italian']",[]
582,Downingtown borough,Downingtown,PA,40.0061378479004,-75.7018966674805,Sam's Pizza,"['Italian', 'Pizza', 'Sandwiches']",['delivery']
583,Downingtown borough,Downingtown,PA,40.0024749317161,-75.7108660679797,Bottle Room,['Beer Bar'],['delivery']
584,Downingtown borough,Downingtown,PA,40.03228,-75.67949,The Olive Tree Mediterranean Grill,"['Mediterranean', 'Greek', 'Seafood']","['delivery', 'pickup']"
585,Downingtown borough,Downingtown,PA,40.004081,-75.708323,Downingtown Diner,"['Diners', 'Breakfast & Brunch', 'Sandwiches']",['delivery']
586,Downingtown borough,Downingtown,PA,39.997677094133,-75.7423211305592,Caln Pizza & Pasta,"['Pizza', 'Italian']",['delivery']
587,Nowthen city,Nowthen,MN,45.32898,-93.47572,Mama Deluca's Pizzeria,['Pizza'],[]
588,Nowthen city,Nowthen,MN,45.32898,-93.47572,Bootleggers Saloon and Eatery,"['American (Traditional)', 'Lounges', 'Burgers']",[]
589,Nowthen city,Elk River,MN,45.328594,-93.474539,Northwoods Bar & Grill,"['American (Traditional)', 'Breakfast & Brunch', 'Cocktail Bars']",[]
590,Sandy Creek town,Lacona,NY,43.64321,-76.06996,Huckleberry Cafe,"['Barbeque', 'Breakfast & Brunch', 'Sandwiches']",[]
591,Sandy Creek town,Sandy Creek,NY,43.64584,-76.0875499,Sandy Creek Diner,['Diners'],[]
592,Sandy Creek town,Lacona,NY,43.6429481506348,-76.0700378417969,Two Brothers Pizza,['Pizza'],[]
593,Sandy Creek town,Syracuse,NY,43.04584,-76.15234,Chicken vs Waffle - Opening Soon,"['Food Trucks', 'Waffles']",[]
594,Sandy Creek town,Syracuse,NY,43.04078,-76.07028,Elbita's Cocina,"['Puerto Rican', 'Food Trucks', 'Caterers']",[]
595,Hildebran town,Hildebran,NC,35.7153481005844,-81.4229936152697,Frye Daddy's Diner,"['Breakfast & Brunch', 'Diners', 'Sandwiches']",[]
596,Hildebran town,Hickory,NC,35.7184181213379,-81.3966293334961,Angus Steak House,"['Steakhouses', 'American (Traditional)']",['delivery']
597,Hildebran town,Hildebran,NC,35.714513,-81.420392,Chubby's of Hildebran,"['Delis', 'Pizza', 'Sandwiches']",['delivery']
598,Hildebran town,Hickory,NC,35.7286419343641,-81.3888809457421,Duck N Good Food Place,"['Asian Fusion', 'Chinese']",['delivery']
599,Hildebran town,Connelly Springs,NC,35.719649,-81.443827,Tex's Fish Camp,['Seafood'],['delivery']
600,Hildebran town,Hildebran,NC,35.7074915927734,-81.4228649683756,Bojangle's Famous Chicken and Biscuits,['American (New)'],['delivery']
601,Hildebran town,Hildebran,NC,35.7150552691644,-81.4249982894104,Franky T's Pizzeria,"['Pizza', 'Italian']",['delivery']
602,Hildebran town,Hickory,NC,35.721549987793,-81.3872756958008,Amos Howards Restaurant & Brew Works,"['Pubs', 'American (Traditional)']",['delivery']
603,Hildebran town,Hickory,NC,35.7283783,-81.3913422,China View Restaurant,['Chinese'],['delivery']
604,Hildebran town,Hildebran,NC,35.6962621188279,-81.4291623607278,Henry River Ghost Town District 12 Hunger Games Film Location,['Landmarks & Historical Buildings'],[]
605,Hildebran town,Hildebran,NC,35.7074566396539,-81.4233699,Hardee's,"['Fast Food', 'Burgers']",[]
606,Hildebran town,Hildebran,NC,35.715978218696,-81.4082197361518,KFC,"['Chicken Wings', 'Fast Food', 'Chicken Shop']","['delivery', 'pickup']"
607,Hildebran town,Connelly Springs,NC,35.7175140380859,-81.4458236694336,Dominos,['Pizza'],[]
608,Hildebran town,Hickory,NC,35.7434921,-81.38797,Crosswind Cafe,"['Wraps', 'Burgers', 'Sandwiches']",[]
609,Hildebran town,Connellys Springs,NC,35.7137908935547,-81.4410552978516,Curley's Country Kitchen & Fish Camp,['American (Traditional)'],[]
610,Hildebran town,Shelby,NC,35.3542633056641,-81.491325378418,Frostbite Ridge Farm Homemade Ice Cream,"['Food Trucks', 'Ice Cream & Frozen Yogurt']",[]
611,Hildebran town,Hendersonville,NC,35.3179402,-82.4608981,Team ECCO Aquarium & Shark Lab,"['Community Service/Non-Profit', 'Aquariums', 'Summer Camps']",[]
612,Jefferson township,Oak Ridge,NJ,40.988077,-74.537392,Portofino,"['Italian', 'Seafood']",[]
613,Jefferson township,Oak Ridge,NJ,41.011504,-74.517337,Bella Vista Ristorante,"['Italian', 'Coffee & Tea']",[]
614,Jefferson township,Jefferson Twp,NJ,41.00707,-74.50635,Berkshire Valley Golf Course,['Golf'],[]
615,Jefferson township,Oak Ridge,NJ,41.0282137,-74.5124045,Pinto's Pizza,"['Pizza', 'Italian']",[]
616,Jefferson township,Oak Ridge,NJ,41.01574,-74.51336,Ding Dong Deli Oak Ridge,['Delis'],[]
617,Jefferson township,Oak Ridge,NJ,41.01945,-74.51494,Kam Bo Kitchen,['Chinese'],[]
618,Jefferson township,Rockaway Township,NJ,40.9600128,-74.5345589,Bucky's,['Buffets'],[]
619,Jefferson township,Oak Ridge,NJ,41.026925,-74.528983,Bowling Green Golf Club,['Golf'],[]
620,Jefferson township,Oak Ridge,NJ,41.01657,-74.51312,Three brothers pizza and italian restaurant,"['Pizza', 'Italian']","['pickup', 'delivery']"
621,Jefferson township,Oak Ridge,NJ,41.02841,-74.53108,The Grill Room,['American (Traditional)'],[]
622,Jefferson township,Woodland Park,NJ,40.8837,-74.20366,PIE OH MY,"['Food Trucks', 'Pizza', 'Caterers']",[]
623,Jefferson township,Trenton,NJ,40.2193603515625,-74.7609405517578,Cousins Maine Lobster - Trenton & Philadelphia,"['Food Trucks', 'Seafood']",[]
624,Jefferson township,Oak Ridge,NJ,41.02369,-74.5134,Valley Tavern,"['Bars', 'Cheesesteaks', 'Chicken Wings']",[]
625,Jefferson township,Hoboken,NJ,40.7430114746094,-74.0331726074219,Chef J's Latin Dragon,"['Food Trucks', 'Asian Fusion']",[]
626,Jefferson township,Brooklyn,NY,40.635195,-73.9612192,STUF'D,"['Sandwiches', 'Food Trucks', 'American (Traditional)']",[]
627,Jefferson township,Upper Darby,PA,39.9603691101074,-75.2629623413086,The Munchy Machine,"['Food Trucks', 'Comfort Food']",[]
628,Jefferson township,Kerhonkson,NY,41.786624,-74.2762748,BABA Food Truck,"['Vegan', 'Food Trucks']",[]
629,Balance of Fall Creek township,Fishers,IN,39.9581999,-85.9429353,Passione,"['Pizza', 'Desserts', 'Chicken Wings']","['pickup', 'delivery']"
630,Balance of Fall Creek township,Fishers,IN,39.9581418,-85.9428069,Ohana Donuts & Ice Cream,"['Donuts', 'Ice Cream & Frozen Yogurt', 'Coffee & Tea']",['delivery']
631,Balance of Fall Creek township,Indianapolis,IN,39.9348598317005,-85.9511462419447,St Yared Ethiopian Restaurant,"['Ethiopian', 'Bars', 'Coffee & Tea']",['delivery']
632,Balance of Fall Creek township,Fishers,IN,39.9585296450508,-85.9423369571433,China Wok,['Chinese'],"['pickup', 'delivery']"
633,Balance of Fall Creek township,Noblesville,IN,39.993417,-85.92501,Aspen Creek Grill,"['American (Traditional)', 'Seafood', 'Steakhouses']",['delivery']
634,Balance of Fall Creek township,Fishers,IN,39.959129,-85.92115,Murphy's PubHouse,"['Pubs', 'Steakhouses']","['pickup', 'delivery']"
635,Balance of Fall Creek township,Fishers,IN,39.9819791,-85.922495,Jack's Donuts of Fishers,"['Donuts', 'Coffee & Tea']","['pickup', 'delivery']"
636,Balance of Fall Creek township,Fishers,IN,39.956274,-85.916396,Ale Emporium,"['Sports Bars', 'Pizza', 'Chicken Wings']",['delivery']
637,Balance of Fall Creek township,Fishers,IN,39.9352841994456,-85.9490901851852,Geist Coffee,"['Coffee & Tea', 'Bakeries', 'Sandwiches']",[]
638,Balance of Fall Creek township,Noblesville,IN,39.990711,-85.93117,Stone Creek Noblesville,"['American (New)', 'Seafood', 'Steakhouses']",['delivery']
639,Balance of Fall Creek township,Fishers,IN,39.95682,-85.91544,Tegry Bistro,"['Sushi Bars', 'Asian Fusion', 'Wine Bars']","['pickup', 'delivery']"
640,Balance of Fall Creek township,Noblesville,IN,39.990656,-85.931732,Pies & Pints - Noblesville,"['Pizza', 'Sports Bars', 'Sandwiches']","['pickup', 'delivery']"
641,Balance of Fall Creek township,Indianapolis,IN,39.9319599,-85.94309,CRAVE Ice Cream Social,['Ice Cream & Frozen Yogurt'],"['pickup', 'delivery']"
642,Balance of Fall Creek township,Noblesville,IN,39.99311752,-85.9304295975533,Ford's Garage,"['Bars', 'Burgers']","['pickup', 'delivery']"
643,Balance of Fall Creek township,Fishers,IN,39.958179,-85.942875,Joe's Grille Fishers,['Sports Bars'],[]
644,Balance of Fall Creek township,Noblesville,IN,39.9935993257543,-85.9289839782346,Fresh To Order,"['American (Traditional)', 'Burgers', 'Sandwiches']",['pickup']
645,Balance of Fall Creek township,Indianapolis,IN,39.9301758662367,-85.9420043376428,Wolfies Grill,"['American (Traditional)', 'Sports Bars', 'Burgers']",['delivery']
646,Balance of Fall Creek township,Fishers,IN,39.9591264,-85.9414294,El Camino Real,['Mexican'],['delivery']
647,Balance of Fall Creek township,Noblesville,IN,39.9939992,-85.9316749,Houlihan's,"['American (New)', 'Bars']","['pickup', 'delivery']"
648,Balance of Fall Creek township,Fishers,IN,39.989784,-85.921808,Thai Garden Restaurant,['Thai'],"['pickup', 'delivery']"
649,Long Lake city,Long Lake,MN,44.9871578374504,-93.5729693736835,Primo Plates & Pours,"['American (New)', 'Italian', 'Pizza']",['delivery']
650,Long Lake city,Long Lake,MN,44.9855347,-93.5702362,Red Rooster Lounge & Restaurant,"['Bars', 'American (New)']",['delivery']
651,Long Lake city,Long Lake,MN,44.9881851,-93.5761899,Lotus Garden,"['Chinese', 'Seafood', 'Soup']",['delivery']
652,Long Lake city,Long Lake,MN,44.9866298,-93.5716243,Two Pony Gardens,['Pizza'],[]
653,Long Lake city,Long Lake,MN,44.9855,-93.57234,San Pancho Mexican Restaurant,"['Mexican', 'Cocktail Bars', 'Salad']",['delivery']
654,Long Lake city,Wayzata,MN,44.955461,-93.594008,Noerenberg Memorial Gardens,['Botanical Gardens'],[]
655,Long Lake city,Long Lake,MN,44.98819,-93.578711,Caribou Coffee,['Coffee & Tea'],[]
656,Long Lake city,Long Lake,MN,44.9855155944824,-93.5723419189453,Domino's Pizza,"['Pizza', 'Chicken Wings', 'Sandwiches']",[]
657,Long Lake city,Long Lake,MN,44.988605,-93.585016,McDonald's,"['Fast Food', 'Burgers', 'Coffee & Tea']",['delivery']
658,Long Lake city,Orono,MN,44.9752998352051,-93.5605087280273,Orono Public Golf Course,['Golf'],[]
659,Long Lake city,Long Lake,MN,44.9855309144897,-93.5714246207921,Subway,['Sandwiches'],[]
660,Plainview city,Plainview,TX,34.18683,-101.70265,Broadway Brew,['Coffee & Tea'],[]
661,Plainview city,Plainview,TX,34.1906641370865,-101.707015223801,El Taco Taco,['Mexican'],[]
662,Plainview city,Plainview,TX,34.187231,-101.707104,Taqueria Perlitas,['Mexican'],[]
663,Plainview city,Plainview,TX,34.18463,-101.70822,Just 4 Fun,"['American (Traditional)', 'Breakfast & Brunch', 'Burgers']",[]
664,Plainview city,Plainview,TX,34.190579,-101.70529,Casseroles To Go,"['Desserts', 'Gluten-Free', 'Breakfast & Brunch']",[]
665,Plainview city,Plainview,TX,34.185118,-101.744683,Tokyo Japanese Steakhouse,"['Japanese', 'Steakhouses']",[]
666,Plainview city,Plainview,TX,34.18615,-101.69637,Frisco Bakery,['Bakeries'],[]
667,Plainview city,Plainview,TX,34.1855948,-101.7425379,Java the Hut,['Coffee & Tea'],[]
668,Plainview city,Plainview,TX,34.18352,-101.72771,Old Mexico Restaurant,['Restaurants'],[]
669,Plainview city,Plainview,TX,34.1866141741678,-101.743676662445,Cotton Patch Cafe,"['American (Traditional)', 'Southern', 'Comfort Food']",[]
670,Plainview city,Plainview,TX,34.1855063,-101.7432726,Leal's Mexican Restaurant,"['Mexican', 'Tex-Mex']",[]
671,Plainview city,Plainview,TX,34.184312,-101.727802,Nena's Taquitos,"['Breakfast & Brunch', 'Mexican']",[]
672,Plainview city,Plainview,TX,34.20482,-101.7102,El Girasol,['Mexican'],[]
673,Plainview city,Plainview,TX,34.1867131860575,-101.744877286255,Fieldhouse Sandwich Shop,"['Sandwiches', 'Salad', 'Desserts']",[]
674,Plainview city,Plainview,TX,34.18464,-101.71436,Mi Mexico Restaurant,['Mexican'],[]
675,Plainview city,Plainview,TX,34.219971,-101.723201,Royal Splash Texas,"['Arcades', 'Sports Bars', 'American (New)']",[]
676,Plainview city,Plainview,TX,34.187021,-101.745488,West Texas Pit Masters,"['Food Trucks', 'Barbeque']",[]
677,Plainview city,Plainview,TX,34.19291,-101.72492,Maldonado's Burritos,['Mexican'],[]
678,Plainview city,Plainview,TX,34.1835441589355,-101.726455688477,Jumbo Joe's,['Restaurants'],[]
679,Plainview city,Plainview,TX,34.18419,-101.70705,Nu-Griddle Cafe,['Cafes'],[]
680,Audubon Park borough,Collingswood,NJ,39.92116,-75.08756,Sagami,"['Japanese', 'Sushi Bars']",['delivery']
681,Audubon Park borough,Collingswood,NJ,39.910702,-75.084456,Zeppoli,"['Mediterranean', 'Italian']",['delivery']
682,Audubon Park borough,Audubon,NJ,39.89443,-75.07102,Smoke BBQ,['Barbeque'],['delivery']
683,Audubon Park borough,Collingswood,NJ,39.9159547157177,-75.0684280693531,Sabrina's Café,"['Breakfast & Brunch', 'American (New)']","['delivery', 'pickup']"
684,Audubon Park borough,Audubon,NJ,39.891651,-75.087965,Pho Asia,"['Vietnamese', 'Noodles']","['delivery', 'pickup']"
685,Audubon Park borough,Haddon Township,NJ,39.90150833,-75.07602667,Elsie's,"['Sandwiches', 'Italian']",['delivery']
686,Audubon Park borough,Collingswood,NJ,39.9158339,-75.069194,The Kitchen Consigliere,['Italian'],['delivery']
687,Audubon Park borough,Collingswood,NJ,39.91576,-75.0663,Hearthside,['American (New)'],['delivery']
688,Audubon Park borough,Oaklyn,NJ,39.90155,-75.08328,Philly's Phatties,"['Pizza', 'Cheesesteaks', 'Chicken Wings']","['delivery', 'pickup']"
689,Audubon Park borough,Haddon Township,NJ,39.90089,-75.07547,Jalapenos Grill 2,['Mexican'],"['delivery', 'pickup']"
690,Audubon Park borough,Collingswood,NJ,39.9166829,-75.0709433,Indiya,"['Indian', 'Vegetarian', 'Buffets']","['delivery', 'restaurant_reservation', 'pickup']"
691,Audubon Park borough,Oaklyn,NJ,39.90169088274,-75.0827835330313,Common Grounds Coffeehouse,"['Desserts', 'Coffee & Tea', 'Sandwiches']",['delivery']
692,Audubon Park borough,Collingswood,NJ,39.91645,-75.06905,Il Fiore Restaurant,['Italian'],"['delivery', 'pickup']"
693,Audubon Park borough,Audubon,NJ,39.89425,-75.0719699,Desserts by Design,['Bakeries'],['delivery']
694,Audubon Park borough,Collingswood,NJ,39.918094,-75.075286,Bistro Di Marino,"['Italian', 'Salad', 'Seafood']",['delivery']
695,Audubon Park borough,Oaklyn,NJ,39.9014975557513,-75.083091853589,The Square Meal,"['Breakfast & Brunch', 'American (New)', 'Sandwiches']",['delivery']
696,Audubon Park borough,Collingswood,NJ,39.91618,-75.06789,The Pop Shop - Collingswood,"['American (New)', 'Breakfast & Brunch']","['delivery', 'pickup']"
697,Audubon Park borough,Collingswood,NJ,39.91735,-75.07139,Sapori's Trattoria,['Italian'],"['delivery', 'pickup']"
698,Audubon Park borough,Audubon,NJ,39.893752,-75.072308,The Treehouse,"['Coffee & Tea', 'Vegetarian']",['delivery']
699,Audubon Park borough,Haddon Township,NJ,39.902263,-75.076622,Aunt Berta's Kitchen,"['Soul Food', 'Desserts', 'Chicken Wings']",['pickup']
700,Effingham County,Springfield,GA,32.3723762360514,-81.3152341917157,Stacks Hamburger Stand,"['Burgers', 'Fast Food']",[]
701,Effingham County,Springfield,GA,32.3501650841944,-81.3120031356812,R.B. Baker Lake and Walking Trail,"['Tennis', 'Parks', 'Fishing']",[]
702,Effingham County,Springfield,GA,32.3631251789061,-81.3178932666779,Veterans Park of Effingham County Georgia,['Parks'],[]
703,Effingham County,Springfield,GA,32.3720075,-81.31446,Bambino's Pizza,"['Italian', 'Pizza']",[]
704,Effingham County,Springfield,GA,32.3689467,-81.311685,Central Station,"['Bakeries', 'Sandwiches', 'Salad']",[]
705,Effingham County,Springfield,GA,32.3687410423609,-81.3112974655199,Daisy Mae’s Café,"['Breakfast & Brunch', 'Wraps', 'Sandwiches']",[]
706,Effingham County,Springfield,GA,32.366193,-81.308811,MooMcGinn's Magic Creamery,"['Ice Cream & Frozen Yogurt', 'Coffee & Tea', 'Custom Cakes']",[]
707,Effingham County,Springfield,GA,32.368556,-81.31164,Stoner’s Pizza Joint,"['Pizza', 'Salad', 'Chicken Wings']",[]
708,Effingham County,Springfield,GA,32.37086833,-81.31313833,Paddles Coffee,"['Coffee & Tea', 'Breakfast & Brunch']",[]
709,Fountain Hill borough,Bethlehem,PA,40.610259,-75.380092,The Goose,['Delis'],['delivery']
710,Fountain Hill borough,Bethlehem,PA,40.62207,-75.38123,Apollo Grill,['American (Traditional)'],['delivery']
711,Fountain Hill borough,Bethlehem,PA,40.610654380829,-75.3772935317116,The Bookstore Speakeasy,"['American (New)', 'Speakeasies', 'Cocktail Bars']","['pickup', 'delivery']"
712,Fountain Hill borough,Bethlehem,PA,40.6230801,-75.3645251,The Bayou,"['Cocktail Bars', 'Chicken Shop', 'American (Traditional)']","['pickup', 'delivery']"
713,Fountain Hill borough,Bethlehem,PA,40.625590744786,-75.3705235153445,Aqui Es,['Mexican'],['delivery']
714,Fountain Hill borough,Bethlehem,PA,40.623351,-75.3707325,The People's Kitchen,['Breakfast & Brunch'],['delivery']
715,Fountain Hill borough,Bethlehem,PA,40.594704,-75.41181,Bolete Restaurant,['American (New)'],['delivery']
716,Fountain Hill borough,Bethlehem,PA,40.6334671,-75.3689227,Vegan Treats,"['Bakeries', 'Custom Cakes', 'Donuts']",['delivery']
717,Fountain Hill borough,Bethlehem,PA,40.61025,-75.37694,Jenny's Kuali,"['Malaysian', 'Noodles']",['pickup']
718,Fountain Hill borough,Bethlehem,PA,40.61198,-75.37082,Social Still,"['Cocktail Bars', 'Tapas/Small Plates', 'Distilleries']",['delivery']
719,Fountain Hill borough,Bethlehem,PA,40.6120825123756,-75.3764237836003,U & Tea,['Chinese'],['delivery']
720,Fountain Hill borough,Bethlehem,PA,40.62083,-75.3817,Tapas on Main,['Tapas Bars'],"['pickup', 'delivery']"
721,Fountain Hill borough,Bethlehem,PA,40.60993,-75.3790999,Tulum,['Mexican'],['delivery']
722,Fountain Hill borough,Bethlehem,PA,40.6214180349178,-75.38147414841,McCarthy's Red Stag Pub And Whiskey Bar,"['Irish', 'Irish Pub', 'Whiskey Bars']","['pickup', 'delivery']"
723,Fountain Hill borough,Bethlehem,PA,40.6120797,-75.3735978,Molinari's,['Italian'],['delivery']
724,Fountain Hill borough,Bethlehem,PA,40.62207,-75.37799,Billy's Downtown Diner,['Diners'],['delivery']
725,Fountain Hill borough,Bethlehem,PA,40.6251851,-75.3937224,Black Forest Deli,"['Delis', 'Ukrainian', 'Russian']",['delivery']
726,Fountain Hill borough,Bethlehem,PA,40.6103683117968,-75.3790976375732,Roasted Bethlehem,"['Cafes', 'Breakfast & Brunch']","['pickup', 'delivery']"
727,Fountain Hill borough,Bethlehem,PA,40.6251011902079,-75.3773903846741,El Paisano,['Mexican'],['delivery']
728,Fountain Hill borough,Bethlehem,PA,40.6209,-75.38243,Thai Thai II,"['Thai', 'Asian Fusion', 'Seafood']",['delivery']
729,Worthington city,Worthington,OH,40.087467,-83.017677,The Whitney House,"['American (New)', 'Breakfast & Brunch']","['pickup', 'delivery']"
730,Worthington city,Worthington,OH,40.1087428217687,-82.9983755879492,Yappy Greek,"['Greek', 'Delis', 'Mediterranean']","['pickup', 'delivery']"
731,Worthington city,Worthington,OH,40.076700096254,-83.019289731563,Natalie's Coal Fired Pizza and Live Music,"['Pizza', 'Music Venues']",['delivery']
732,Worthington city,Worthington,OH,40.1084925,-83.0185238,"Pies & Pints - Worthington, OH","['Pizza', 'American (Traditional)', 'Beer Bar']","['pickup', 'delivery']"
733,Worthington city,Worthington,OH,40.0871799,-83.01837,Sassafras Bakery,"['Bakeries', 'Desserts', 'Breakfast & Brunch']",['delivery']
734,Worthington city,Columbus,OH,40.0663,-83.02293,Pat and Gracie's,['American (Traditional)'],"['pickup', 'delivery']"
735,Worthington city,Worthington,OH,40.09234,-83.018404,Mrs. Goodman's Baking,"['Bakeries', 'Custom Cakes', 'Cupcakes']","['pickup', 'delivery']"
736,Worthington city,Worthington,OH,40.076988,-83.018246,Over the Counter,['American (New)'],['delivery']
737,Worthington city,Columbus,OH,40.07579,-83.01912,Villa Nova Ristorante,"['Italian', 'Bars']","['pickup', 'delivery']"
738,Worthington city,Columbus,OH,40.1178550513453,-83.0148794540367,J. Gilbert's Wood Fired Steaks & Seafood Columbus,"['Steakhouses', 'Bars', 'Seafood']","['pickup', 'delivery']"
739,Worthington city,Worthington,OH,40.108491,-83.0189,First Watch,"['Breakfast & Brunch', 'Cafes', 'American (Traditional)']",['delivery']
740,Worthington city,Worthington,OH,40.08656,-83.01772,Dewey's Pizza,"['Pizza', 'Salad', 'Gluten-Free']",['delivery']
741,Worthington city,Worthington,OH,40.08728,-83.01787,Peace Love and Little Donuts,"['Donuts', 'Breakfast & Brunch']","['pickup', 'delivery']"
742,Worthington city,Columbus,OH,40.11637,-83.01172,Aangan India Bistro,"['Indian', 'Buffets', 'Soup']","['pickup', 'delivery']"
743,Worthington city,Columbus,OH,40.0637684,-83.0482567,The Refectory Restaurant,"['French', 'Wine Bars', 'Lounges']",['delivery']
744,Worthington city,Columbus,OH,40.0630229,-83.0404126,Buckeye Pho,['Vietnamese'],['delivery']
745,Worthington city,Worthington,OH,40.08691,-83.01763,House Wine,"['Beer, Wine & Spirits', 'Wine Bars']",[]
746,Worthington city,Worthington,OH,40.08713,-83.01774,Everest Cuisine,"['Indian', 'Himalayan/Nepalese', 'Buffets']","['pickup', 'delivery']"
747,Worthington city,Worthington,OH,40.08974,-83.04866,Cameron's American Bistro,"['American (New)', 'Bars']",['delivery']
748,Worthington city,Columbus,OH,40.11478,-83.0114399,Sushi Ko Japanese Restaurant,"['Japanese', 'Sushi Bars']","['pickup', 'delivery']"
749,Balance of Silvercreek township,Dowagiac,MI,42.057708,-86.173594,BT's Pub,['Dive Bars'],[]
750,Adrian city,Adrian,MI,41.901261,-84.034685,Chomp Burger,"['Burgers', 'Cocktail Bars']",[]
751,Adrian city,Adrian,MI,41.8826241729107,-84.0436222867509,Cancun Mexican Restaurant,['Mexican'],[]
752,Adrian city,Adrian,MI,41.89966,-84.03623,Sauce Italian Grill & Pub,"['Italian', 'Pizza']",[]
753,Adrian city,Adrian,MI,41.9001,-84.04906,Tip Top,"['Breakfast & Brunch', 'Coffee & Tea', 'Burgers']",[]
754,Adrian city,Adrian,MI,41.879085,-84.042489,Aubree's Pizzeria & Grill,"['Bars', 'Pizza', 'Salad']",[]
755,Adrian city,Adrian,MI,41.8988276,-84.0383059,The Grasshopper El Chapulin,"['Mexican', 'Bars', 'Desserts']",[]
756,Adrian city,Adrian,MI,41.8749473,-84.0301759,Fiesta Ranchera Mexican,['Mexican'],[]
757,Adrian city,Adrian,MI,41.8989735318376,-84.0362859517336,Rice and Barley Taphouse,"['Pan Asian', 'Breweries', 'Distilleries']",[]
758,Adrian city,Adrian,MI,41.88897,-84.04366,Dragon Sushi,"['Sushi Bars', 'Japanese']",[]
759,Adrian city,Adrian,MI,41.9128495549334,-84.0260544452535,The Spotted Cow,"['Ice Cream & Frozen Yogurt', 'Desserts']",[]
760,Adrian city,Adrian,MI,41.8985796,-84.035614,Governor Croswell Tea Room,"['British', 'Tea Rooms']",[]
761,Adrian city,Adrian,MI,41.902598,-84.033965,Alpha Koney Island,"['Diners', 'Greek', 'Breakfast & Brunch']",[]
762,Adrian city,Adrian,MI,41.88986,-84.02396,Mario's Mexican Restaurant,['Mexican'],[]
763,Adrian city,Adrian,MI,41.877181,-84.043832,Applebee's Grill + Bar,"['Sports Bars', 'American (Traditional)', 'Burgers']","['delivery', 'pickup']"
764,Adrian city,Adrian,MI,41.889024451375,-84.0434984117746,Frickers,"['Sports Bars', 'Chicken Wings']",[]
765,Adrian city,Adrian,MI,41.87663,-84.03354,JR's Hometown Grill & Pub,"['Bars', 'Steakhouses', 'American (Traditional)']",[]
766,Adrian city,Adrian,MI,41.87618,-84.043953,Red Lobster,"['Seafood', 'American (Traditional)']",[]
767,Adrian city,Adrian,MI,41.8992693290599,-84.0359053116435,Hooligan's Grill,"['American (Traditional)', 'Bars', 'Sandwiches']",[]
768,Adrian city,Adrian,MI,41.8790092468262,-84.0437469482422,Culver's,"['Fast Food', 'Burgers', 'Ice Cream & Frozen Yogurt']",[]
769,Adrian city,Adrian,MI,41.904784379637,-84.0788948535919,The Hoagie Man Deli,"['Delis', 'Cheesesteaks']",[]
770,Mansfield city,Mansfield,TX,32.56586,-97.13513,Big D Barbecue,['Barbeque'],"['pickup', 'delivery']"
771,Mansfield city,Mansfield,TX,32.591334,-97.15664,Our Place Restaurant,"['American (New)', 'Breakfast & Brunch', 'American (Traditional)']",['delivery']
772,Mansfield city,Mansfield,TX,32.5926176370791,-97.1457322297117,Gyro Stop,"['Mediterranean', 'Sandwiches', 'Salad']",['pickup']
773,Mansfield city,Mansfield,TX,32.5914642,-97.1511621,Fish City Grill,['Seafood'],"['pickup', 'delivery']"
774,Mansfield city,Mansfield,TX,32.607416,-97.142547,Pastry Paradise,"['Breakfast & Brunch', 'Bakeries', 'Desserts']","['pickup', 'delivery']"
775,Mansfield city,Mansfield,TX,32.58299,-97.12952,Hearth Cafe,"['Breakfast & Brunch', 'Coffee & Tea', 'Bakeries']",['delivery']
776,Mansfield city,Mansfield,TX,32.60861,-97.11203,Char'd Southeast Asian Kitchen,"['Vietnamese', 'Asian Fusion', 'Pan Asian']","['pickup', 'delivery']"
777,Mansfield city,Mansfield,TX,32.607457,-97.142596,Palio's Pizza Cafe,"['Pizza', 'Italian']",['delivery']
778,Mansfield city,Mansfield,TX,32.56563,-97.12998,Helado's Handcrafted Ice Cream and Pops,"['Desserts', 'Ice Cream & Frozen Yogurt']",[]
779,Mansfield city,Mansfield,TX,32.594599,-97.150933,Suzushii Sushi & Grill,"['Sushi Bars', 'Japanese', 'Thai']",['delivery']
780,Mansfield city,Mansfield,TX,32.6114206575162,-97.1419110912323,Mama Cuca's Mexican Cuisine,['Mexican'],['delivery']
781,Mansfield city,Mansfield,TX,32.583072,-97.130316,Casa Jacaranda,"['Mexican', 'Breakfast & Brunch']",[]
782,Mansfield city,Mansfield,TX,32.608652189739,-97.1122095481013,Luna Grill,"['Mediterranean', 'Greek', 'Salad']",['pickup']
783,Mansfield city,Mansfield,TX,32.60521,-97.11966,Blue Mint,"['Thai', 'Asian Fusion']",['delivery']
784,Mansfield city,Mansfield,TX,32.581134915431,-97.129915063399,Texas Roadhouse,"['American (Traditional)', 'Steakhouses', 'Barbeque']",[]
785,Mansfield city,Mansfield,TX,32.60897,-97.14223,Stevie D’s Cheesesteak,"['Cheesesteaks', 'American (Traditional)']",['delivery']
786,Mansfield city,Mansfield,TX,32.5639437857,-97.141741,Flying Squirrel Coffee Co,['Coffee & Tea'],[]
787,Mansfield city,Mansfield,TX,32.5969319893793,-97.1505184360858,Siam Corner Thai Cuisine,['Thai'],['delivery']
788,Mansfield city,Mansfield,TX,32.60521,-97.11966,America's Best Coffee and Donuts,"['Coffee & Tea', 'Bakeries', 'Donuts']",['delivery']
789,Mansfield city,Mansfield,TX,32.5660807,-97.1352764,Creations Baking Company,['Bakeries'],['delivery']
790,Scottsboro city,Scottsboro,AL,34.6461776,-86.0301298,50 Taters,"['Barbeque', 'Sandwiches', 'Comfort Food']",[]
791,Scottsboro city,Scottsboro,AL,34.6728782325578,-86.034746451307,Payne's Sandwich Shop & Soda Fountain,"['Sandwiches', 'Diners', 'Ice Cream & Frozen Yogurt']",[]
792,Scottsboro city,Scottsboro,AL,34.6744102576909,-86.0227266673407,Holy Smokes BBQ,['Barbeque'],[]
793,Scottsboro city,Scottsboro,AL,34.6540715,-86.0350344,Kim San,['Chinese'],[]
794,Scottsboro city,Scottsboro,AL,34.6379824160511,-86.014682019542,KC's BBQ,"['Barbeque', 'Burgers', 'Chicken Wings']",[]
795,Scottsboro city,Scottsboro,AL,34.674822,-86.020052,Liberty Restaurant,"['American (Traditional)', 'Breakfast & Brunch', 'Burgers']",[]
796,Scottsboro city,Scottsboro,AL,34.6681252,-86.0103149,Buenavista Mexican Cantina,['Mexican'],[]
797,Scottsboro city,Scottsboro,AL,34.6509057283401,-86.0359431803226,Los Potrillos,['Mexican'],[]
798,Scottsboro city,Scottsboro,AL,34.646678,-86.032344,Jefferson's,"['Burgers', 'Chicken Wings', 'Seafood']",[]
799,Scottsboro city,Scottsboro,AL,34.67384,-86.0335,Tokyo Japan,"['Japanese', 'Seafood']",[]
800,Scottsboro city,Scottsboro,AL,34.6674607896168,-86.0099768494977,Zaxby's Chicken Fingers & Buffalo Wings,"['Fast Food', 'Chicken Wings', 'Salad']",[]
801,Scottsboro city,Scottsboro,AL,34.6464755311978,-86.0336799237715,Huddle House,"['Diners', 'Breakfast & Brunch', 'American (Traditional)']",[]
802,Scottsboro city,Scottsboro,AL,34.6715355,-86.0344772,Variety Bake Shop,['Bakeries'],[]
803,Scottsboro city,Scottsboro,AL,34.649835,-86.034066,Taco Bell,"['Mexican', 'Fast Food']",[]
804,Scottsboro city,Scottsboro,AL,34.67635,-86.02012,Margaritas,['Mexican'],[]
805,Scottsboro city,Scottsboro,AL,34.6299685,-86.0514149,Tate's Bar-B-Que,['Barbeque'],[]
806,Scottsboro city,Scottsboro,AL,34.67024,-86.00818,Senjyu House,"['Sushi Bars', 'Seafood', 'Asian Fusion']",[]
807,Scottsboro city,Scottsboro,AL,34.6418021328831,-86.0398497018524,Captain D's,"['Seafood', 'Fast Food', 'American (Traditional)']",[]
808,Scottsboro city,Scottsboro,AL,34.651792,-86.035123,Gear Jammers,['Southern'],[]
809,Scottsboro city,Scottsboro,AL,34.67233833,-86.03321,Kudzu Cafe And Catering,"['Breakfast & Brunch', 'Soup', 'Sandwiches']",[]
810,Oakham town,Barre,MA,42.391973,-72.0819719,J & J Family Restaurant,['American (Traditional)'],[]
811,Oakham town,Oakham,LEC,52.5894012,-0.7228,india cottage,['Indian'],[]
812,Oakham town,Boston,MA,42.37552,-71.03675,Mike & Ant's Ice Cream,"['Food Trucks', 'Ice Cream & Frozen Yogurt']",[]
813,West Mifflin borough,Pittsburgh,PA,40.37004,-79.91271,Porked,['Sandwiches'],"['delivery', 'pickup']"
814,West Mifflin borough,West Mifflin,PA,40.35922,-79.8740399,Jim's Famous Sauce,['Hot Dogs'],['delivery']
815,West Mifflin borough,Pittsburgh,PA,40.3687877,-79.9105045,The Scoop,"['Ice Cream & Frozen Yogurt', 'Sandwiches']",[]
816,West Mifflin borough,West Mifflin,PA,40.3609502875348,-79.9324499999989,Ham N Eggers Diner,"['Breakfast & Brunch', 'Diners', 'Sandwiches']","['delivery', 'pickup']"
817,West Mifflin borough,West Mifflin,PA,40.35061,-79.92315,Skyvue Restaurant,['American (Traditional)'],['delivery']
818,West Mifflin borough,Dravosburg,PA,40.3565449,-79.896124,Pasquale's Pizzeria,['Pizza'],"['delivery', 'pickup']"
819,West Mifflin borough,Pittsburgh,PA,40.3627166,-79.9075972,Shop-n-Go Deli,"['Delis', 'Burgers']",['delivery']
820,West Mifflin borough,West Mifflin,PA,40.36097,-79.93237,Mulligan's Sports Bar and Grill,"['Sports Bars', 'American (Traditional)']","['delivery', 'pickup']"
821,West Mifflin borough,West Mifflin,PA,40.3649167569804,-79.8720994753937,Bellisario Pizza Shop,['Pizza'],['delivery']
822,West Mifflin borough,West Mifflin,PA,40.37683,-79.88437,Rogue BBQ PGH,"['Caterers', 'Street Vendors', 'Barbeque']","['delivery', 'pickup']"
823,West Mifflin borough,West Mifflin,PA,40.368225,-79.872322,Boonda's,['Pizza'],['delivery']
824,West Mifflin borough,Pittsburgh,PA,40.34428,-79.9723999,Sugar & Spice,"['Ice Cream & Frozen Yogurt', 'Candy Stores', 'Food Trucks']",[]
825,West Mifflin borough,West Mifflin,PA,40.3422182194385,-79.8995646805816,Secrets Bar & Grill,"['Pubs', 'American (Traditional)', 'Cheesesteaks']",['delivery']
826,West Mifflin borough,Pittsburgh,PA,40.54107,-79.78289,Cousins Maine Lobster - Pittsburgh,"['Food Trucks', 'Seafood']",[]
827,West Mifflin borough,Dravosburg,PA,40.3543304,-79.9007092,Mr Hoagie,['Fast Food'],['delivery']
828,West Mifflin borough,West Mifflin,PA,40.35798,-79.89395,Don's Bar & Grill,['Restaurants'],[]
829,West Mifflin borough,Dravosburg,PA,40.35553,-79.89891,Crave Frozen Desserts,['Ice Cream & Frozen Yogurt'],[]
830,West Mifflin borough,West Mifflin,PA,40.328606441617,-79.9318885803223,The Pizza Company,['Pizza'],['delivery']
831,West Mifflin borough,Pittsburgh,PA,40.45392990112305,-79.9333724975586,Wise County Biscuits,"['Food Stands', 'Breakfast & Brunch', 'Sandwiches']",[]
832,West Mifflin borough,West Mifflin,PA,40.376689,-79.88248,Westwood Bar & Grill,['American (Traditional)'],['delivery']
833,Lady Lake town,Lady Lake,FL,28.95268,-81.96116,First Watch,"['Cafes', 'Breakfast & Brunch', 'American (Traditional)']",[]
834,Lady Lake town,Lady Lake,FL,28.937219,-81.945529,Chicken Salad Chick,"['Sandwiches', 'Chicken Shop', 'Southern']",['delivery']
835,Lady Lake town,Lady Lake,FL,28.95174,-81.96041,Koyame,"['Asian Fusion', 'Chinese', 'Thai']","['pickup', 'delivery']"
836,Lady Lake town,Lady Lake,FL,28.9353143819103,-81.9398348019815,Bamboo Bistro,"['Asian Fusion', 'Sushi Bars']",['delivery']
837,Lady Lake town,Lady Lake,FL,28.90857,-81.91809,Brisas del Mar Lady Lake,"['Mexican', 'Seafood', 'American (Traditional)']",['delivery']
838,Lady Lake town,Lady Lake,FL,28.9411,-81.94983,Kilwin's - The Villages,"['Ice Cream & Frozen Yogurt', 'Chocolatiers & Shops']",[]
839,Lady Lake town,Lady Lake,FL,28.9398920591188,-81.950131044792,Amerikanós Grille,"['Mediterranean', 'American (New)', 'Bars']","['pickup', 'delivery']"
840,Lady Lake town,The Villages,FL,28.911228,-81.973848,Lighthouse Point Bar & Grill,"['Seafood', 'American (Traditional)', 'Bars']","['pickup', 'delivery']"
841,Lady Lake town,Lady Lake,FL,28.9300731427735,-81.9323716630439,Keke's Breakfast Cafe,"['Breakfast & Brunch', 'Cafes', 'Burgers']","['pickup', 'delivery']"
842,Lady Lake town,Lady Lake,FL,28.930969,-81.933191,Brooklyn Water Bagel,"['Bagels', 'Coffee & Tea', 'Breakfast & Brunch']","['pickup', 'delivery']"
843,Lady Lake town,The Villages,FL,28.907497329034907,-81.97478038726572,Thai Ruby,['Thai'],['delivery']
844,Lady Lake town,Lady Lake,FL,28.9332454100321,-81.9357506327587,LongHorn Steakhouse,"['Steakhouses', 'American (Traditional)', 'Barbeque']",[]
845,Lady Lake town,Lady Lake,FL,28.90831,-81.97158,Bravo Pizza,"['Italian', 'Pizza']",['delivery']
846,Lady Lake town,Lady Lake,FL,28.93871,-81.94214,El Ranchito,['Mexican'],[]
847,Lady Lake town,Lady Lake,FL,28.912288,-81.920126,Mom & Dad's Italian Restaurant,"['Italian', 'Pizza']",['delivery']
848,Lady Lake town,Lady Lake,FL,28.940678,-81.949784,Demshar's,"['Pizza', 'Sandwiches', 'Fish & Chips']",['delivery']
849,Lady Lake town,Lady Lake,FL,28.939793,-81.947655,Sakura,['Japanese'],['delivery']
850,Lady Lake town,Lady Lake,FL,28.90909,-81.97646,Cody's Roadhouse,"['American (Traditional)', 'Steakhouses']",['delivery']
851,Lady Lake town,The Villages,FL,28.935019,-81.939160709284,Carrabba's Italian Grill,"['Italian', 'Seafood']","['pickup', 'delivery']"
852,Lady Lake town,Lady Lake,FL,28.9398655928,-81.9492169963,Flippers Pizzeria,"['Italian', 'Pizza']","['pickup', 'delivery']"
853,West Stockbridge town,West Stockbridge,MA,42.3339804633494,-73.3684249511008,Six Depot Roastery and Cafe,"['Cafes', 'Coffee Roasteries']",[]
854,West Stockbridge town,West Stockbridge,MA,42.33366,-73.36783,Rouge Restaurant & Bistro,"['American (New)', 'French']",[]
855,West Stockbridge town,West Stockbridge,MA,42.3329692899726,-73.3681175330594,Truc Orient Express Restaurant,"['Vietnamese', 'Salad', 'Vegetarian']",[]
856,West Stockbridge town,West Stockbridge,MA,42.3349405594726,-73.3677865192294,Soma Catering - Cafe,['Cafes'],[]
857,West Stockbridge town,West Stockbridge,MA,42.3331853,-73.369461,Turn Park Art Space,"['Art Galleries', 'Venues & Event Spaces', 'Parks']",[]
858,West Stockbridge town,West Stockbridge,MA,42.335416,-73.369229,Taphouse at Shaker Mill,['American (Traditional)'],[]
859,West Stockbridge town,Red Hook,NY,42.028686,-73.852675,Papa's Best Batch,"['Barbeque', 'Food Trucks']",[]
860,West Stockbridge town,Stockbridge,MA,42.284757,-73.352107,Chesterwood,['Landmarks & Historical Buildings'],[]
861,West Stockbridge town,Kerhonkson,NY,41.786624,-74.2762748,BABA Food Truck,"['Vegan', 'Food Trucks']",[]
862,West Stockbridge town,Brooklyn,NY,40.635195,-73.9612192,STUF'D,"['Sandwiches', 'Food Trucks', 'American (Traditional)']",[]
863,Jesup city,Jesup,GA,31.60934,-81.88768,Jones Kitchen,"['Southern', 'Buffets']",[]
864,Jesup city,Jesup,GA,31.6060372028715,-81.8844438716769,One Love Island &Soul Food,"['Caribbean', 'Soul Food']",[]
865,Jesup city,Jesup,GA,31.592375,-81.871247,Oishii Japanese Restaurant,"['Japanese', 'Sushi Bars']",[]
866,Jesup city,Jesup,GA,31.6086167,-81.8834528,Cafe Euro,"['Ice Cream & Frozen Yogurt', 'Coffee & Tea']",[]
867,Jesup city,Jesup,GA,31.60429,-81.88228,JaJe's Place,"['Desserts', 'Sandwiches', 'American (New)']",[]
868,Jesup city,Jesup,GA,31.6075468680775,-81.8857413902879,Damon's Famous Fingers & Wings,"['Chicken Wings', 'American (Traditional)']",[]
869,Jesup city,Jesup,GA,31.6061306,-81.8850021,Angel's Fine Dining,"['American (New)', 'Bars', 'Steakhouses']",[]
870,Jesup city,Jesup,GA,31.621445,-81.901712,Laredos Mexican Restaurant,"['Mexican', 'Beer Bar']",['delivery']
871,Jesup city,Jesup,GA,31.6042708481573,-81.9071596248748,Pizza Inn,['Pizza'],[]
872,Jesup city,Jesup,GA,31.6088782,-81.8871811,"Surcheros Fresh Grill - Jesup, GA",['Tex-Mex'],[]
873,Jesup city,Jesup,GA,31.6061285308048,-81.885864,Jersey Mike's Subs,"['Sandwiches', 'Fast Food', 'Delis']",[]
874,Jesup city,Jesup,GA,31.6377697701997,-81.8605306788595,Captain Joe's Seafood,['Seafood'],[]
875,Jesup city,Jesup,GA,31.60628,-81.8815522505572,Sugar'n Spice Bake Shop,['Bakeries'],[]
876,Jesup city,Jesup,GA,31.598364,-81.874147,New China Restaurant,['Chinese'],[]
877,Jesup city,Jesup,GA,31.604664,-81.9143621,Habaneros Mexican Restaurant,['Mexican'],[]
878,Jesup city,Jesup,GA,31.6010006205169,-81.8997388333082,The Cafeteria at Wayne Memorial Hospital,['American (Traditional)'],[]
879,Jesup city,Jesup,GA,31.6047152,-81.9068773,Western Sizzlin,"['Steakhouses', 'Buffets']",[]
880,Jesup city,Jesup,GA,31.59328,-81.8709,Yummicup Noodle House,"['Bubble Tea', 'Noodles', 'Asian Fusion']",[]
881,Jesup city,Jesup,GA,31.610421,-81.889809,Nang's Thai Restaurant,['Thai'],[]
882,Jesup city,Jesup,GA,31.603567,-81.902488,Sonic Drive-In,"['Fast Food', 'Burgers', 'Ice Cream & Frozen Yogurt']",[]
883,Catskill town,Catskill,NY,42.25202,-73.90768,Barnwood Restaurant,"['Barbeque', 'Pizza', 'American (Traditional)']",[]
884,Catskill town,Catskill,NY,42.21435,-73.88117,Chopstick,['Chinese'],[]
885,Catskill town,Leeds,NY,42.253064,-73.894822,Gracie's Luncheonette,"['American (Traditional)', 'Breakfast & Brunch', 'Bakeries']",[]
886,Catskill town,Catskill,NY,42.213963,-73.886362,Ambrosia Diner,['Diners'],[]
887,Catskill town,Catskill,NY,42.21187,-73.87952,Pomodoro's,"['Pizza', 'Italian']",[]
888,Catskill town,Catskill,NY,42.24029,-73.88338,Bistro 27 at the Catskill Golf Resort,"['Breakfast & Brunch', 'American (Traditional)']",[]
889,Catskill town,Catskill,NY,42.21542,-73.87869,New Long River Chinese Restaurant,['Chinese'],[]
890,Catskill town,Catskill,NY,42.2148949,-73.8780098,Great Wall Restaurant,['Chinese'],[]
891,Catskill town,Catskill,NY,42.2144241333008,-73.8818664550781,Penny’s,"['Coffee & Tea', 'Diners']",[]
892,Catskill town,Catskill,NY,42.2142533,-73.8864251,Joey V's Pizza,"['Pizza', 'Salad']",[]
893,Catskill town,Leeds,NY,42.254756,-73.90237617,Murphy's Law Public House,"['Irish Pub', 'Hotels', 'American (Traditional)']",[]
894,Catskill town,Catskill,NY,42.214385,-73.880401,Burger King,"['Burgers', 'Fast Food']",[]
895,Catskill town,Leeds,NY,42.253542,-73.894666,Gracie's Food Truck,"['Food Trucks', 'Donuts', 'American (Traditional)']",[]
896,Catskill town,Catskill,NY,42.2197608947754,-73.8655014038086,Ripvanwinkle Adventure Guides,"['Hiking', 'Rafting/Kayaking', 'Wildlife Hunting Ranges']",[]
897,Catskill town,Catskill,NY,42.2145374905316,-73.878143832016,Subway,['Sandwiches'],[]
898,Catskill town,Catskill,NY,42.238687,-73.8835848,Catskill Golf Club,['Golf'],[]
899,Catskill town,Catskill,NY,42.228582,-73.882339,Mawignack Preserve,['Hiking'],[]
900,Catskill town,Leeds,NY,42.248732,-73.887509,Anthony's Banquet Hall,['Italian'],[]
901,Catskill town,Catskill,NY,42.24029,-73.88338,Fairways Restaurant,['Restaurants'],[]
902,Catskill town,Catskill,NY,42.214816,-73.877869,Dunkin',"['Coffee & Tea', 'Donuts']",[]
903,Boyd town,Eden,NSW,-37.072132,149.910276,Hooked on Seafood,"['Fast Food', 'Seafood']",[]
904,Boyd town,Eden,NSW,-37.0721653025453,149.90977700531,30 Knots,['Australian'],[]
905,Sikeston city,Sikeston,MO,36.887946,-89.54645,Lambert's Cafe,['American (Traditional)'],[]
906,Sikeston city,Sikeston,MO,36.880311,-89.579807,Jay's Krispy Fried Chicken,['Fast Food'],[]
907,Sikeston city,Sikeston,MO,36.879621,-89.579632,Dexter Bar-B-Q - Sikeston,"['Barbeque', 'American (Traditional)']",[]
908,Sikeston city,Sikeston,MO,36.884578949058,-89.5598099380732,JD's Steakhouse,"['Steakhouses', 'Barbeque', 'American (New)']",[]
909,Sikeston city,Miner,MO,36.8904111414123,-89.5405949279666,El Nopalito Grill,['Mexican'],[]
910,Sikeston city,Sikeston,MO,36.8887016721088,-89.5464802623382,Fried Pies,"['Desserts', 'Specialty Food', 'Comfort Food']",[]
911,Sikeston city,Sikeston,MO,36.883934,-89.56207,Bo's Breakfast and Bar-B-Q,"['Barbeque', 'Breakfast & Brunch']",[]
912,Sikeston city,Sikeston,MO,36.8793987114525,-89.5780054877488,Merick's Sandwich Shop,['Sandwiches'],[]
913,Sikeston city,Sikeston,MO,36.8610687553883,-89.5837466418743,China Buffet,['Chinese'],[]
914,Sikeston city,Sikeston,MO,36.8772605031043,-89.5886792208483,Parengo Coffee,['Coffee & Tea'],[]
915,Sikeston city,Sikeston,MO,36.8869171142578,-89.5500564575195,El Tapatio Mexican,['Mexican'],[]
916,Sikeston city,Sikeston,MO,36.8773031,-89.5875847,Jeremiah's Restaurant & Lounge,"['Lounges', 'American (Traditional)', 'Steakhouses']",[]
917,Sikeston city,Sikeston,MO,36.8582397268917,-89.5868185411326,Watami Sushi & Hibachi Steakhouse,"['Sushi Bars', 'Steakhouses']",[]
918,Sikeston city,Sikeston,MO,36.877905651927,-89.5893692225218,Susies Bake Shoppe and Restaurant,"['Bakeries', 'Fast Food']",[]
919,Sikeston city,Sikeston,MO,36.8828763270138,-89.5652267049109,Taco John's,"['Fast Food', 'Mexican']",[]
920,Sikeston city,Sikeston,MO,36.877739,-89.588031,Kirby's Sandwich Shop,['Burgers'],[]
921,Sikeston city,Sikeston,MO,36.8586070439873,-89.5819067573256,Colton's Steakhouse & Grill,"['Steakhouses', 'Seafood', 'American (Traditional)']",[]
922,Sikeston city,Miner,MO,36.8931579589844,-89.5342636108398,Ruby Tuesday,"['Burgers', 'American (Traditional)']",[]
923,Sikeston city,Sikeston,MO,36.882802658964,-89.5656570004452,Subway,['Sandwiches'],[]
924,Sikeston city,Sikeston,MO,36.8601821,-89.5846814,La Ruleta Mexican Restaurant,['Mexican'],[]
925,Roscoe village (pt.),Chicago,IL,41.939640045166,-87.7004470825195,Kuma's Corner - Belmont,"['Burgers', 'American (Traditional)', 'Cocktail Bars']",['delivery']
926,Roscoe village (pt.),Chicago,IL,41.9507843879442,-87.6639031774259,Tango Sur,"['Latin American', 'Steakhouses', 'Argentine']",['delivery']
927,Roscoe village (pt.),Chicago,IL,41.9315605,-87.6577911,Batter & Berries,['Breakfast & Brunch'],"['delivery', 'pickup']"
928,Roscoe village (pt.),Chicago,IL,41.943679,-87.664267,Jeni's Splendid Ice Creams,['Ice Cream & Frozen Yogurt'],"['delivery', 'pickup']"
929,Roscoe village (pt.),Chicago,IL,41.94402,-87.64904,Chicago Diner,"['Comfort Food', 'American (Traditional)', 'Breakfast & Brunch']",['delivery']
930,Roscoe village (pt.),Chicago,IL,41.959767,-87.682822,The Bad Apple,"['Burgers', 'Beer Bar', 'American (Traditional)']","['delivery', 'pickup']"
931,Roscoe village (pt.),Chicago,IL,41.93980505865,-87.6709152248584,Scooter's Frozen Custard,['Ice Cream & Frozen Yogurt'],[]
932,Roscoe village (pt.),Chicago,IL,41.963286,-87.673801,Spacca Napoli,"['Pizza', 'Italian']",['delivery']
933,Roscoe village (pt.),Chicago,IL,41.9361214592879,-87.6444210345452,Crisp,"['Korean', 'Chicken Wings']",['delivery']
934,Roscoe village (pt.),Chicago,IL,41.954143,-87.666765,Roost Chicken & Biscuits,"['Southern', 'Desserts', 'American (Traditional)']","['delivery', 'pickup']"
935,Roscoe village (pt.),Chicago,IL,41.92187,-87.664486,Pequod's Pizzeria,['Pizza'],['delivery']
936,Roscoe village (pt.),Chicago,IL,41.942883,-87.6528328,Lowcountry Lakeview,"['Cajun/Creole', 'Seafood', 'Desserts']","['delivery', 'pickup']"
937,Roscoe village (pt.),Chicago,IL,41.9643402,-87.6853638,Gather,"['Wine Bars', 'American (New)']",['delivery']
938,Roscoe village (pt.),Chicago,IL,41.93166,-87.64859,Sapori Trattoria,"['Italian', 'Desserts']","['delivery', 'pickup', 'restaurant_reservation']"
939,Roscoe village (pt.),Chicago,IL,41.9371221,-87.6683814,The Art of Pizza,"['Pizza', 'Italian', 'Salad']","['delivery', 'pickup']"
940,Roscoe village (pt.),Chicago,IL,41.946743,-87.664357,Southport Grocery & Cafe,"['Grocery', 'Breakfast & Brunch']",['delivery']
941,Roscoe village (pt.),Chicago,IL,41.9430502,-87.6713149,Frasca Pizzeria and Wine Bar,"['Wine Bars', 'Pizza', 'Italian']","['delivery', 'pickup']"
942,Roscoe village (pt.),Chicago,IL,41.936055,-87.65411,DMK Burger Bar,['Burgers'],"['delivery', 'pickup']"
943,Roscoe village (pt.),Chicago,IL,41.95381,-87.68198,Laschet's Inn,"['German', 'Pubs', 'Beer Bar']",['delivery']
944,Roscoe village (pt.),Chicago,IL,41.94508,-87.66357,Crosby's Kitchen,"['American (Traditional)', 'Bars', 'Venues & Event Spaces']","['delivery', 'pickup']"
945,Rosemont village,Des Plaines,IL,42.0221052425779,-87.8761289595645,Paradise Pup,"['Burgers', 'Fast Food', 'Hot Dogs']",['delivery']
946,Rosemont village,Des Plaines,IL,42.027116,-87.892684,Boston Fish Market,"['Seafood', 'Seafood Markets']",['delivery']
947,Rosemont village,Chicago,IL,41.9800263338152,-87.9066793839226,Tortas Frontera,['Mexican'],[]
948,Rosemont village,Chicago,IL,41.975438,-87.900137,Tortas Frontera,['Mexican'],[]
949,Rosemont village,Des Plaines,IL,42.0103099,-87.87623,Mariachi's Tacos,['Mexican'],['delivery']
950,Rosemont village,Des Plaines,IL,42.010365,-87.87643,Sunrise Grill,"['American (Traditional)', 'Desserts', 'Salad']","['delivery', 'pickup']"
951,Rosemont village,Rosemont,IL,41.97828,-87.86324,Gibsons Bar & Steakhouse,"['Steakhouses', 'American (Traditional)', 'Bars']",['delivery']
952,Rosemont village,Rosemont,IL,41.974719796573,-87.8630409334203,The Capital Grille,"['Steakhouses', 'Seafood', 'Wine Bars']",[]
953,Rosemont village,Des Plaines,IL,42.02441,-87.88558,American Wildburger,['Burgers'],"['delivery', 'pickup']"
954,Rosemont village,Des Plaines,IL,42.002792089482,-87.883783186342,Cafe La Cave,"['Venues & Event Spaces', 'Seafood', 'American (Traditional)']","['delivery', 'pickup']"
955,Rosemont village,Rosemont,IL,41.997152,-87.882046,Harry Caray's Italian Steakhouse - Rosemont,"['Steakhouses', 'Bars', 'Italian']","['delivery', 'pickup']"
956,Rosemont village,Des Plaines,IL,42.00892,-87.907625,Barnaby's Family Inn,"['Pizza', 'Sandwiches', 'Burgers']",['delivery']
957,Rosemont village,Rosemont,IL,41.9942591,-87.8699678,Maharaja,['Indian'],"['delivery', 'pickup']"
958,Rosemont village,Rosemont,IL,41.977265,-87.868219,Fogo De Chão Brazilian Steakhouse,"['Brazilian', 'Steakhouses']",['delivery']
959,Rosemont village,Des Plaines,IL,42.00997,-87.88702,LongHorn Steakhouse,"['Steakhouses', 'American (Traditional)', 'Barbeque']",[]
960,Rosemont village,Des Plaines,IL,41.997818,-87.864197,Hugo's Frog Bar and Chop House,"['Steakhouses', 'Bars']",['delivery']
961,Rosemont village,Des Plaines,IL,42.0235962365467,-87.9095605597351,Chicago Ramen,['Ramen'],"['delivery', 'pickup']"
962,Rosemont village,Rosemont,IL,42.0094215,-87.8880141,Naf Naf Grill,"['Middle Eastern', 'Salad', 'Falafel']","['delivery', 'pickup']"
963,Rosemont village,Des Plaines,IL,42.02333,-87.90093,Jibarito Time  Chicago Style Plantain Sandwiches,"['Latin American', 'Sandwiches', 'Puerto Rican']","['delivery', 'pickup']"
964,Rosemont village,Rosemont,IL,41.9924245,-87.8632238,Cilantro Taco Grill,['Mexican'],['delivery']
965,Jourdanton city,Jourdanton,TX,28.9264019999194,-98.5338934393741,Restaurante Chile Bandera,"['Mexican', 'Breakfast & Brunch', 'Tex-Mex']",[]
966,Jourdanton city,Jourdanton,TX,28.92729,-98.5348,Cancun Mexican Restaurant,['Mexican'],[]
967,Jourdanton city,Jourdanton,TX,28.9271412934003,-98.5327692881247,Mi Mexico Restaurant Jalisco Style,"['Mexican', 'Tex-Mex']",[]
968,Jourdanton city,Pleasanton,TX,28.9426898956299,-98.5081253051758,Plaza Tapatio,['Mexican'],[]
969,Jourdanton city,Pleasanton,TX,28.949121,-98.501271,Cafe Chris,"['Cafes', 'Tex-Mex', 'Sandwiches']",[]
970,Jourdanton city,Pleasanton,TX,28.9486076,-98.5174965,Granzin's Meat Market,"['Meat Shops', 'Grocery', 'Delis']",[]
971,Jourdanton city,Jourdanton,TX,28.9193143806701,-98.5441855341196,Joe's Place,['Burgers'],[]
972,Jourdanton city,Jourdanton,TX,28.9268943,-98.5320277,Sunshine House Coffee,"['Coffee & Tea', 'Breakfast & Brunch']",[]
973,Jourdanton city,Jourdanton,TX,28.91889,-98.546289,McBee's Bar-B-Que,['Barbeque'],[]
974,Jourdanton city,Pleasanton,TX,28.9403149894217,-98.5140369716347,East Coast Wings & Grill,"['Chicken Wings', 'American (Traditional)']",[]
975,Jourdanton city,Jourdanton,TX,28.91214,-98.54232,Lauren's Deli,"['Delis', 'Sandwiches']",[]
976,Jourdanton city,Jourdanton,TX,28.91886,-98.54494,Jalisco Mexican Restaurant 2,['Mexican'],[]
977,Jourdanton city,Pleasanton,TX,28.949361,-98.500896,Yummy Buffet,"['Chinese', 'Seafood', 'Soup']",[]
978,Jourdanton city,Pleasanton,TX,28.9382821053803,-98.514769077301,Whataburger,"['Fast Food', 'Burgers']",[]
979,Jourdanton city,Jourdanton,TX,28.92187,-98.5396899,Dora's Tacos To Go,['Mexican'],[]
980,Jourdanton city,Pleasanton,TX,28.9372,-98.516678,Chili's,"['Bars', 'Tex-Mex', 'American (Traditional)']",[]
981,Jourdanton city,Jourdanton,TX,28.91696,-98.545747,Old Pit No 5 Smoked BBQ,['Barbeque'],[]
982,Jourdanton city,Pleasanton,TX,28.9438885919404,-98.5084751126314,Wingstop,['Chicken Wings'],[]
983,Jourdanton city,Pleasanton,TX,28.9413008987741,-98.5120633584288,Taco Bell,"['Fast Food', 'Mexican']",[]
984,Jourdanton city,Pleasanton,TX,28.9406609,-98.5119062,Little Caesar's Pizza,"['Italian', 'Pizza']",[]
985,Salina town,Syracuse,NY,43.052489,-76.154655,Dinosaur Bar-B-Que,"['Barbeque', 'American (Traditional)']","['delivery', 'pickup']"
986,Salina town,Syracuse,NY,43.0596117,-76.199611,Eva's European Sweets,"['Polish', 'Coffee & Tea']",['delivery']
987,Salina town,Liverpool,NY,43.094167,-76.19584,Santangelo's Restaurant,['Italian'],['delivery']
988,Salina town,Syracuse,NY,43.06909,-76.16524,Stella's Diner,['Diners'],['delivery']
989,Salina town,Liverpool,NY,43.1017033668648,-76.2024204072233,Heid’s of Liverpool,"['Fast Food', 'Hot Dogs']","['delivery', 'pickup']"
990,Salina town,Syracuse,NY,43.0681350937635,-76.1538724676234,New Century,['Vietnamese'],['delivery']
991,Salina town,Liverpool,NY,43.1022,-76.20715,Hope Cafe Coffee and Tea House,"['Coffee & Tea', 'Breakfast & Brunch', 'Peruvian']","['delivery', 'pickup']"
992,Salina town,Liverpool,NY,43.1032423,-76.2050828,Rio Grande Mexican Restaurant,['Mexican'],"['delivery', 'pickup']"
993,Salina town,Liverpool,NY,43.104021,-76.208249,Cafe at 407,"['Coffee & Tea', 'Cafes']","['delivery', 'pickup']"
994,Salina town,Syracuse,NY,43.06846,-76.17133,Texas de Brazil,"['Steakhouses', 'Brazilian', 'Venues & Event Spaces']",[]
995,Salina town,Syracuse,NY,43.05218,-76.15475,Apizza Regionale,"['Pizza', 'Italian', 'Bars']",['delivery']
996,Salina town,Liverpool,NY,43.10051,-76.20089,Francesca's Pizza & Italian Kitchen,"['Pizza', 'Italian']",['delivery']
997,Salina town,Liverpool,NY,43.09574,-76.19622,Boil It,"['Seafood', 'Cajun/Creole']","['delivery', 'pickup']"
998,Salina town,Liverpool,NY,43.09426,-76.194335,Sahota Palace,"['Indian', 'Buffets']","['delivery', 'pickup']"
999,Salina town,Syracuse,NY,43.06042,-76.1527,Habiba's Ethiopian Kitchen,['Ethiopian'],"['delivery', 'pickup']"
1000,Salina town,Syracuse,NY,43.05508,-76.151222,Columbus Baking,['Bakeries'],"['delivery', 'pickup']"
1001,Salina town,Syracuse,NY,43.06764,-76.171523,Kung Fu Tea,"['Coffee & Tea', 'Bubble Tea', 'Juice Bars & Smoothies']",[]
1002,Salina town,Syracuse,NY,43.05853,-76.15223,Francesca's Cucina,['Italian'],['delivery']
1003,Salina town,Liverpool,NY,43.0988145884011,-76.2044029648418,Onondaga Lake Park,['Parks'],[]
1004,Salina town,Syracuse,NY,43.06846,-76.17133,The Cheesecake Factory,"['Desserts', 'American (Traditional)']",['delivery']
1005,Paradise township,Kingsley,MI,44.585049,-85.534021,Hide Away Bar & Grill,['Dive Bars'],[]
1006,Paradise township,Honor,MI,44.69407,-86.07259,Honor Trading Post,"['Pizza', 'Rafting/Kayaking', 'Tubing']",[]
1007,Paradise township,Kingsley,MI,44.58392,-85.53645,A Papanos,['Pizza'],[]
1008,Paradise township,Kingsley,MI,44.585021,-85.534012,Judson’s Market And Restaurant,"['Coffee & Tea', 'Ice Cream & Frozen Yogurt', 'Sandwiches']",[]
1009,Paradise township,Kingsley,MI,44.5847867,-85.5358496628801,Subway,['Sandwiches'],[]
1010,Raleigh city (pt.),Raleigh,NC,35.7885257790867,-78.6398015538498,Bad Daddy's Burger Bar,['Burgers'],"['delivery', 'pickup']"
1011,Raleigh city (pt.),Raleigh,NC,35.7772492676183,-78.6367019169414,Bida Manda,"['Laotian', 'Asian Fusion', 'Thai']","['delivery', 'pickup']"
1012,Raleigh city (pt.),Raleigh,NC,35.777406,-78.636914,Brewery Bhavana,"['Dim Sum', 'Asian Fusion', 'Beer Bar']",['delivery']
1013,Raleigh city (pt.),Raleigh,NC,35.7931604,-78.6355143,Stanbury,['American (New)'],['delivery']
1014,Raleigh city (pt.),Raleigh,NC,35.789488,-78.640317,J Betski's,"['German', 'Polish']",['delivery']
1015,Raleigh city (pt.),Raleigh,NC,35.7770159317825,-78.6381587254906,Beasley's Chicken & Honey,"['Southern', 'American (New)']",['delivery']
1016,Raleigh city (pt.),Raleigh,NC,35.780739,-78.644823,Second Empire Restaurant And Tavern,"['American (New)', 'Bars']",['delivery']
1017,Raleigh city (pt.),Raleigh,NC,35.77605,-78.64472,The Pit,"['Barbeque', 'American (Traditional)', 'Soul Food']",['delivery']
1018,Raleigh city (pt.),Raleigh,NC,35.7773121093891,-78.6401014167119,Lucettegrace,"['Coffee & Tea', 'Bakeries', 'Sandwiches']",['delivery']
1019,Raleigh city (pt.),Raleigh,NC,35.790501,-78.658622,Tazza Kitchen Cameron Village,"['Pizza', 'American (New)', 'Cocktail Bars']",['delivery']
1020,Raleigh city (pt.),Raleigh,NC,35.79012,-78.659671,Ajisai Japanese Fusion,"['Japanese', 'Sushi Bars']","['delivery', 'pickup']"
1021,Raleigh city (pt.),Raleigh,NC,35.7821927736662,-78.6392365408044,North Carolina Museum of Natural Sciences,"['Museums', 'Art Galleries']",[]
1022,Raleigh city (pt.),Raleigh,NC,35.79339467331,-78.635412747012,Escazú Chocolates,"['Chocolatiers & Shops', 'Coffee & Tea', 'Ice Cream & Frozen Yogurt']",['delivery']
1023,Raleigh city (pt.),Raleigh,NC,35.7854273219889,-78.6474707111075,C Grace,"['Jazz & Blues', 'Lounges', 'Cocktail Bars']",[]
1024,Raleigh city (pt.),Raleigh,NC,35.77839,-78.63795,Sitti,['Middle Eastern'],['delivery']
1025,Raleigh city (pt.),Raleigh,NC,35.78101,-78.64442,Taverna Agora,"['Greek', 'Bars', 'Venues & Event Spaces']","['delivery', 'pickup', 'restaurant_reservation']"
1026,Raleigh city (pt.),Raleigh,NC,35.80454,-78.64631,Hayes Barton Café & Dessertery,"['American (Traditional)', 'Desserts']",['delivery']
1027,Raleigh city (pt.),Raleigh,NC,35.7903586884859,-78.6346706354996,Yellow Dog Bread Company,"['Coffee & Tea', 'Bakeries']",['delivery']
1028,Raleigh city (pt.),Raleigh,NC,35.78555,-78.64776,The Cortez,"['Seafood', 'Cocktail Bars']",['delivery']
1029,Raleigh city (pt.),Raleigh,NC,35.78882,-78.63405,Crawford & Son,"['American (New)', 'Diners', 'Bars']",['delivery']
1030,Hollis town,Hollis,NH,42.7432,-71.59206,Hollis Country Kitchen,"['Breakfast & Brunch', 'Soup', 'Sandwiches']",[]
1031,Hollis town,Hollis,NH,42.743555,-71.587746,Buckley's Bakery & Cafe - Hollis,"['Cafes', 'Bakeries']",[]
1032,Hollis town,Hollis,NH,42.7442,-71.589732,Market Place Diner,"['Diners', 'Breakfast & Brunch', 'Sandwiches']",[]
1033,Hollis town,Hollis,NH,42.743142,-71.587349,Hollis House of Pizza,"['Pizza', 'Salad', 'Cheesesteaks']",[]
1034,Hollis town,Hollis,NH,42.74001,-71.58778,Monument Square Market,"['Pizza', 'Sandwiches']",[]
1035,Hollis town,Hollis,NH,42.7220977842808,-71.6073907166719,Beaver Brook Association,['Parks'],[]
1036,Hollis town,Hollis,NH,42.71179,-71.55146,Pizzeria Zacharia Bar & Grill,"['Pizza', 'Sandwiches', 'Bars']","['delivery', 'pickup']"
1037,Hollis town,Hollis,NH,42.7429009974003,-71.5913913398981,Dunkin',"['Donuts', 'Coffee & Tea']",[]
1038,Hollis town,Boston,MA,42.3527526855469,-71.0611114501953,The Coffee Trike,"['Coffee & Tea', 'Food Trucks']",[]
1039,Hollis town,Billerica,MA,42.55582,-71.26625,Souped Up Food,"['Food Trucks', 'Salad', 'Sandwiches']",[]
1040,Hollis town,Boston,MA,42.37552,-71.03675,Mike & Ant's Ice Cream,"['Food Trucks', 'Ice Cream & Frozen Yogurt']",[]
1041,Balance of Ellicott town,Buffalo,NY,42.888192,-78.8708411,Big Ditch Brewing Company,"['Beer Bar', 'Venues & Event Spaces', 'Brewpubs']","['delivery', 'pickup']"
1042,Balance of Ellicott town,Buffalo,NY,42.8901837568908,-78.8704228240093,Toutant,"['Southern', 'Barbeque', 'Seafood']","['delivery', 'pickup']"
1043,Balance of Ellicott town,Buffalo,NY,42.88782,-78.87638,Osteria 166,"['Italian', 'Seafood']","['delivery', 'pickup']"
1044,Balance of Ellicott town,Buffalo,NY,42.892555,-78.874168,Dinosaur Bar-B-Que,"['American (Traditional)', 'Barbeque', 'Chicken Wings']","['delivery', 'pickup']"
1045,Balance of Ellicott town,Buffalo,NY,42.890199,-78.87499,Bacchus Wine Bar and Restaurant,"['American (New)', 'Wine Bars']",['delivery']
1046,Balance of Ellicott town,Buffalo,NY,42.8968193,-78.878345,Betty's,"['American (New)', 'Breakfast & Brunch', 'Vegetarian']",['delivery']
1047,Balance of Ellicott town,Buffalo,NY,42.884924,-78.872794,Public Espresso + Coffee,"['Coffee & Tea', 'Bakeries', 'Breakfast & Brunch']","['delivery', 'pickup']"
1048,Balance of Ellicott town,Buffalo,NY,42.8728,-78.87161,Ballyhoo,"['American (New)', 'Cocktail Bars']",['delivery']
1049,Balance of Ellicott town,Buffalo,NY,42.89953,-78.87631,Allen Burger Venture,"['Burgers', 'Bars']",['delivery']
1050,Balance of Ellicott town,Buffalo,NY,42.90234,-78.86853,Anchor Bar,"['Chicken Wings', 'Bars', 'American (Traditional)']","['delivery', 'pickup']"
1051,Balance of Ellicott town,Buffalo,NY,42.87857,-78.86563,Chef's Restaurant,['Italian'],"['delivery', 'pickup']"
1052,Balance of Ellicott town,Buffalo,NY,42.8807678392083,-78.8771688938141,Pearl Street Grill & Brewery,"['American (Traditional)', 'Breweries', 'Bars']",['delivery']
1053,Balance of Ellicott town,Buffalo,NY,42.87085,-78.85798,Undergrounds Coffee House and Roastery,"['Coffee Roasteries', 'Bagels']",['delivery']
1054,Balance of Ellicott town,Buffalo,NY,42.8979,-78.87336,Fat Bob's Smokehouse,"['Barbeque', 'Smokehouse', 'Cocktail Bars']","['delivery', 'pickup', 'restaurant_reservation']"
1055,Balance of Ellicott town,Buffalo,NY,42.8767504,-78.8501195,Swan Street Diner,"['Diners', 'Breakfast & Brunch', 'Burgers']",['delivery']
1056,Balance of Ellicott town,Buffalo,NY,42.8824098,-78.8760815,Mon Ami Cafe & Restaurant,"['Breakfast & Brunch', 'Sandwiches', 'French']","['delivery', 'pickup']"
1057,Balance of Ellicott town,Buffalo,NY,42.8878657237695,-78.8734008309048,Jerk's Soda Fountain & Ice Cream,"['Desserts', 'Ice Cream & Frozen Yogurt']",['delivery']
1058,Balance of Ellicott town,Buffalo,NY,42.89967,-78.87535,Gabriel's Gate,"['American (Traditional)', 'Burgers', 'Sports Bars']",['delivery']
1059,Balance of Ellicott town,Buffalo,NY,42.8763772054012,-78.8789734817983,Canalside,"['Parks', 'Venues & Event Spaces']",[]
1060,Balance of Ellicott town,Buffalo,NY,42.8884308020178,-78.8747343027434,Lucky Day Whiskey Bar,['Whiskey Bars'],['delivery']
1061,Wautoma city,Wautoma,WI,44.07507,-89.28925,Christianos Pizza,"['Pizza', 'Italian']","['delivery', 'pickup']"
1062,Wautoma city,Wautoma,WI,44.07485,-89.29112,Grimm's One More & I Gotta Go,"['American (Traditional)', 'Sports Bars']",[]
1063,Wautoma city,Wautoma,WI,44.067087,-89.265,Lakeshore Family Restaurant,['American (New)'],[]
1064,Wautoma city,Wautoma,WI,44.0617769629733,-89.2531118790187,Milty-Wilty Drive-In Restaurant,['Diners'],[]
1065,Wautoma city,Wautoma,WI,44.07421,-89.28039,El Popo Tienda Mexicana,"['American (Traditional)', 'Mexican']",[]
1066,Wautoma city,Wautoma,WI,44.076,-89.29532,La Playita,"['Burgers', 'Mexican']",[]
1067,Wautoma city,Wautoma,WI,44.0707521249216,-89.2717543,Panda Restaurant,['Chinese'],[]
1068,Wautoma city,Wautoma,WI,44.076,-89.29532,El Popo Tienda Mexicana,"['Mexican', 'Grocery']",[]
1069,Wautoma city,Wautoma,WI,44.0751991,-89.2886887,Dogger's Bar & Lanes,"['Bowling', 'Bars']",[]
1070,Wautoma city,Wautoma,WI,44.0749261140501,-89.2888605594635,Bella Figlia,"['Gift Shops', ""Women's Clothing"", 'Cafes']",[]
1071,Wautoma city,Wautoma,WI,44.07442,-89.2827499,A&W Restaurant,"['Hot Dogs', 'Burgers', 'Fast Food']",[]
1072,Wautoma city,Wautoma,WI,44.06959,-89.2682037353516,Culver's,"['Fast Food', 'Burgers', 'Ice Cream & Frozen Yogurt']",[]
1073,Wautoma city,Wautoma,WI,44.0723,-89.2713394,Copps Food Center,"['Bakeries', 'Grocery', 'Beer, Wine & Spirits', 'Delis']",[]
1074,Wautoma city,Wautoma,WI,44.0710133199165,-89.2714753988321,McDonald's,"['Coffee & Tea', 'Burgers', 'Fast Food']",[]
1075,Wautoma city,Wautoma,WI,44.07193,-89.2756,Patriots Pub & Grill,"['Pubs', 'Pizza']",[]
1076,Wautoma city,Wautoma,WI,44.07626,-89.293931,Casey's,"['Gas Stations', 'Convenience Stores', 'Pizza']",[]
1077,Wautoma city,Wautoma,WI,44.073584,-89.27861,Subway,['Sandwiches'],"['delivery', 'pickup']"
1078,Wautoma city,Wautoma,WI,44.068624,-89.266415,Taco John's,"['Mexican', 'Fast Food']",[]
1079,Raceland city,Flatwoods,KY,38.521762,-82.722047,Pappy's Cookin',"['Breakfast & Brunch', 'American (Traditional)', 'Burgers']","['delivery', 'pickup']"
1080,Raceland city,Flatwoods,KY,38.52619,-82.71371,Pig A Licous BBQ,"['Barbeque', 'Food Trucks']",['delivery']
1081,Raceland city,Flatwoods,KY,38.5207765765298,-82.7224935982451,Great Taste Chinese Buffet,['Chinese'],"['delivery', 'pickup']"
1082,Raceland city,Flatwoods,KY,38.52419,-82.71556,Giovanni's Pizza,"['Pizza', 'Sandwiches', 'Salad']",['delivery']
1083,Raceland city,Flatwoods,KY,38.52062,-82.71433,Dave's Bakery-Deli,"['Bakeries', 'Desserts', 'Donuts']",['delivery']
1084,Raceland city,Flatwoods,KY,38.51467,-82.72147,Huddle House,"['American (Traditional)', 'Breakfast & Brunch', 'Diners']","['delivery', 'pickup']"
1085,Raceland city,Flatwoods,KY,38.512908,-82.718323,Dairy Queen Grill & Chill,"['Ice Cream & Frozen Yogurt', 'Fast Food', 'Burgers']",['delivery']
1086,Raceland city,Flatwoods,KY,38.530363,-82.708359,My Dad's Pizzeria,['Pizza'],['delivery']
1087,Raceland city,Russell,KY,38.523143,-82.716195,Little Caesar's Pizza,['Pizza'],[]
1088,Raceland city,Flatwoods,KY,38.516071346905,-82.7240939945749,Subway,['Sandwiches'],[]
1089,Raceland city,Russell,KY,38.550822,-82.724219,Arby's Restaurant District Office,"['Fast Food', 'Sandwiches']",[]
1090,Raceland city,Flatwoods,KY,38.5201365978367,-82.7206671237946,McDonald's,"['Fast Food', 'Burgers', 'Coffee & Tea']",['delivery']
1091,Raceland city,Flatwoods,KY,38.520933,-82.718624,Pizza Hut,"['Pizza', 'Italian', 'Chicken Wings']",['delivery']
1092,Pine Prairie village,Pine Prairie,LA,30.783670425415,-92.4234924316406,Pine Cone Restaurant,['American (Traditional)'],[]
1093,Scott County,Jordan,MN,44.66528,-93.62727,Jordan Feed Mill Restaurant,"['Breakfast & Brunch', 'Burgers', 'Desserts']",[]
1094,Scott County,Jordan,MN,44.6654826212167,-93.6262025442846,Roets Jordan Brewery,"['Breweries', 'Pubs']",[]
1095,Scott County,Jordan,MN,44.6641411728378,-93.6256971319799,Delias All-in-One,['Mexican'],[]
1096,Scott County,Jordan,MN,44.664985,-93.625694,Empire Wok,['Chinese'],[]
1097,Scott County,Jordan,MN,44.6661,-93.6257,The Pickled Pig,['Pubs'],[]
1098,Scott County,Jordan,MN,44.6653698949135,-93.6258513852954,Carasim Coffee Shop,"['Coffee & Tea', 'Pizza', 'Sandwiches']",[]
1099,Bonduel village,Bonduel,WI,44.7402092,-88.4473097,Hungry Bear - Cafe & Catering,"['Cafes', 'Burgers', 'Sandwiches']",[]
1100,Bonduel village,Bonduel,WI,44.7375683730529,-88.4463857909769,Red Rooster Cafe,"['Cafes', 'American (Traditional)', 'Diners']",[]
1101,Bonduel village,Bonduel,WI,44.73935,-88.4454499,Antlers Supper Club,"['American (New)', 'Bars']",[]
1102,Bonduel village,Bonduel,WI,44.74053,-88.44657,Gehm's Club 117,"['American (Traditional)', 'Burgers', 'Sports Bars']",[]
1103,Bonduel village,Bonduel,WI,44.7306431829929,-88.4458255022764,Hearty Platter Cafe,['Cafes'],[]
1104,Bonduel village,Bonduel,WI,44.7394638061523,-88.4457626342773,Wayne's Place Bar & Grill,['Bars'],[]
1105,Bonduel village,Bonduel,WI,44.740245,-88.4463884,Amicos Midwest Pizzeria,['Pizza'],[]
1106,Bonduel village,Bonduel,WI,44.74035,-88.44657,Good Vibes Bar and Grill,"['Pizza', 'Sports Bars']",[]
1107,Bonduel village,Bonduel,WI,44.73055,-88.44661,Burger King,"['Burgers', 'Fast Food']",[]
1108,Bonduel village,Bonduel,WI,44.7377039212,-88.4456323,Subway,['Sandwiches'],[]
1109,Bonduel village,Bonduel,WI,44.7695,-88.46934,Yoder's Bakery,['Bakeries'],[]
1110,Bonduel village,Keshena,WI,44.89366,-88.62603,M & J Traditional Catering,"['Food Trucks', 'Tacos', 'Pizza']",[]
1111,Bonduel village,De Pere,WI,44.4490165710449,-88.055419921875,Oley's Pepperoni Cannoli,"['Food Trucks', 'Pizza', 'Italian']",[]
1112,Hallstead borough,Susquehanna,PA,41.9712051,-75.7205535,Red Rock BBQ and Ice Cream,"['Barbeque', 'Ice Cream & Frozen Yogurt', 'Chicken Wings']",[]
1113,Hallstead borough,Hallstead,PA,41.9663190317525,-75.7412481307983,Dobb's Country Kitchen,['American (Traditional)'],[]
1114,Hallstead borough,Hallstead,PA,41.965752,-75.740043,Tedeschi's,"['Pizza', 'Italian']",[]
1115,Hallstead borough,Hallstead,PA,41.966416,-75.739975,Tim Hortons Cafe & Bake Shop,"['Coffee & Tea', 'Donuts', 'Breakfast & Brunch']",[]
1116,Hallstead borough,Hallstead,PA,41.9654999589421,-75.7417171133234,Blue Stone Pizzeria,"['Pizza', 'Cheesesteaks', 'Chicken Wings']",[]
1117,Hallstead borough,Hallstead,PA,41.960766590584,-75.7438659667969,Maloneys Pub and Restaurant,"['Seafood', 'Irish', 'Pubs']",[]
1118,Hallstead borough,susquehanna,PA,41.971175,-75.7204027,2 Dogz and a Guy Brewing,"['Breweries', 'Barbeque', 'Beer Bar']",[]
1119,Hallstead borough,Halstead,PA,41.94209,-75.73687,Burger King,"['Fast Food', 'Burgers']",[]
1120,Hallstead borough,Hallstead,PA,41.966148018543,-75.7417311631474,Dunkin',"['Coffee & Tea', 'Donuts']",[]
1121,Hallstead borough,Hallstead,PA,41.965748,-75.740405,Subway Restaurants,['Sandwiches'],[]
1122,Hallstead borough,Hallstead,PA,41.9647713202672,-75.7407571283238,McDonald's,"['Coffee & Tea', 'Burgers', 'Fast Food']",[]
1123,Hallstead borough,Hallstead,PA,41.9659019,-75.7412669,Yofreeze,['Ice Cream & Frozen Yogurt'],[]
1124,Wilton Manors city,Wilton Manors,FL,26.1580641050692,-80.1300232797623,The Alchemist,"['Coffee & Tea', 'Breakfast & Brunch', 'Cafes']",['delivery']
1125,Wilton Manors city,Wilton Manors,FL,26.156153306365,-80.1386781781912,New York Grilled Cheese,"['Comfort Food', 'American (New)', 'Sandwiches']","['pickup', 'delivery']"
1126,Wilton Manors city,Wilton Manors,FL,26.1574982155293,-80.1368958503008,Wilton Creamery,"['Ice Cream & Frozen Yogurt', 'Desserts', 'Bubble Tea']","['pickup', 'delivery']"
1127,Wilton Manors city,Fort Lauderdale,FL,26.158205,-80.1342934,Dolce Salato Pizza & Gelato,"['Pizza', 'Gelato', 'Italian']","['pickup', 'delivery']"
1128,Wilton Manors city,Wilton Manors,FL,26.158052,-80.130189,Voo La Voo Cafe,"['Creperies', 'French', 'Breakfast & Brunch']","['pickup', 'delivery']"
1129,Wilton Manors city,Wilton Manors,FL,26.164984,-80.1386006,Bravo Peruvian Cuisine,"['Peruvian', 'Seafood']",['delivery']
1130,Wilton Manors city,Oakland Park,FL,26.1743033,-80.1305592,Funky Buddha Brewery,"['Breweries', 'Gastropubs', 'Beer Bar']",['delivery']
1131,Wilton Manors city,Wilton Manors,FL,26.159063,-80.133673,Rosie's Bar & Grill,"['Gay Bars', 'Burgers', 'Breakfast & Brunch']",['delivery']
1132,Wilton Manors city,Oakland Park,FL,26.16849,-80.1318,Bulegreen Cafe Yard,"['Cafes', 'Breakfast & Brunch', 'Coffee & Tea']",['delivery']
1133,Wilton Manors city,Wilton Manors,FL,26.1539896630956,-80.1404175750618,Ethos Greek Bistro,"['Mediterranean', 'Greek', 'Breakfast & Brunch']","['pickup', 'delivery']"
1134,Wilton Manors city,Wilton Manors,FL,26.1535146,-80.1406012,Bubbles & Pearls,"['Tapas Bars', 'Seafood', 'American (New)']",['pickup']
1135,Wilton Manors city,Wilton Manors,FL,26.157234,-80.132219,Saravá Açaí Cafe,"['Juice Bars & Smoothies', 'Brazilian']",['delivery']
1136,Wilton Manors city,Fort Lauderdale,FL,26.1667839,-80.1248232,Inkanto Peruvian Cuisine,"['Peruvian', 'Latin American', 'Seafood']","['pickup', 'delivery']"
1137,Wilton Manors city,Oakland Park,FL,26.17407,-80.14701,Alegria Tacos,['Mexican'],"['pickup', 'delivery']"
1138,Wilton Manors city,Oakland Park,FL,26.1816299,-80.14212,El Guanaco,"['Mexican', 'Spanish', 'Salvadoran']","['pickup', 'delivery']"
1139,Wilton Manors city,Wilton Manors,FL,26.1535344801844,-80.1406891644001,What The Pho,['Vietnamese'],['delivery']
1140,Wilton Manors city,Wilton Manors,FL,26.1566,-80.1383,Sushi Song Gaysha,"['Sushi Bars', 'Japanese', 'Seafood']","['pickup', 'delivery']"
1141,Wilton Manors city,Wilton Manors,FL,26.16441,-80.13859,Candela Restaurant,"['Spanish', 'Tapas/Small Plates', 'Cuban']",['pickup']
1142,Wilton Manors city,Wilton Manors,FL,26.15852,-80.13311,Le Patio,"['French', 'Modern European', 'Italian']",['delivery']
1143,Wilton Manors city,Wilton Manors,FL,26.1576094351253,-80.1356561725636,Sozo Sushi Bar,"['Sushi Bars', 'Japanese']",['delivery']
1144,Cimarron city,Guthrie,OK,35.8722080701468,-97.5855744257569,"Riverside Gas & Grill, Valero","['Gas Stations', 'American (New)']",[]
1145,Cimarron city,Guthrie,OK,35.8704967796803,-97.5644617527723,Cedar Valley Golf Club,['Golf'],[]
1146,Sandusky city,Sandusky,OH,41.4460763714043,-82.6969524998687,The Brick Oven Bistro,"['Pizza', 'Italian', 'Sandwiches']",['delivery']
1147,Sandusky city,Sandusky,OH,41.43256,-82.70217,DeMore's Offshore Bar & Grill,"['Seafood', 'Bars', 'American (Traditional)']",[]
1148,Sandusky city,Sandusky,OH,41.433586,-82.7163,Berardi's Family Kitchen,['American (Traditional)'],[]
1149,Sandusky city,Sandusky,OH,41.42571,-82.68234,Mekong Authentic Vietnamese Cuisine,['Vietnamese'],[]
1150,Sandusky city,Sandusky,OH,41.4559278454883,-82.7113441005349,Small City Taphouse,"['Bars', 'Vietnamese', 'Sushi Bars']",[]
1151,Sandusky city,Sandusky,OH,41.426397,-82.683338,Casa Real,['Mexican'],[]
1152,Sandusky city,Sandusky,OH,41.42356,-82.674,Chet & Matt's Pizza,"['Pizza', 'Burgers', 'Buffets']",['delivery']
1153,Sandusky city,Sandusky,OH,41.4423030716717,-82.6815285013509,Thirsty Pony,"['Pizza', 'American (Traditional)', 'Beer Bar']",['delivery']
1154,Sandusky city,Sandusky,OH,41.456133,-82.712524,J Bistro Downtown,"['American (New)', 'Wine Bars', 'Cocktail Bars']",['restaurant_reservation']
1155,Sandusky city,Sandusky,OH,41.442665053386,-82.6855640485883,Nachos,['Mexican'],['delivery']
1156,Sandusky city,Sandusky,OH,41.4315901631845,-82.6877757502366,Jolly Donut,"['Donuts', 'Breakfast & Brunch', 'American (Traditional)']",[]
1157,Sandusky city,Sandusky,OH,41.4566291579972,-82.7117772772908,Barra,"['Mexican', 'Cocktail Bars', 'Salad']",[]
1158,Sandusky city,Sandusky,OH,41.43043,-82.68587,Dianna's Deli & Restaurant,"['Delis', 'American (Traditional)']",[]
1159,Sandusky city,Sandusky,OH,41.4483744949252,-82.6997860726503,Derrick's Diner,"['Burgers', 'Barbeque', 'Soul Food']",['delivery']
1160,Sandusky city,Sandusky,OH,41.4598775153149,-82.7069190746814,Great Lakes Grinders,"['Delis', 'Sandwiches', 'Fast Food']",[]
1161,Sandusky city,Sandusky,OH,41.4564354246297,-82.7143350988626,Shore House Tavern,"['Bars', 'American (Traditional)']",[]
1162,Sandusky city,Sandusky,OH,41.4327615,-82.6959004,Kroger Marketplace,"['Drugstores', 'Grocery', 'Bakeries']",[]
1163,Sandusky city,Sandusky,OH,41.43317,-82.71082,Jo Wok,"['Thai', 'Chinese']",['delivery']
1164,Sandusky city,Sandusky,OH,41.4329032897949,-82.689582824707,Marco's Pizza,['Pizza'],[]
1165,Sandusky city,Sandusky,OH,41.4590699,-82.7099,New Sandusky Fish Co,"['Seafood', 'Seafood Markets']",[]
1166,Lisbon village,Lisbon,OH,40.770431,-80.7564,Pondis,"['Bars', 'Burgers', 'American (Traditional)']",[]
1167,Lisbon village,Lisbon,OH,40.77467,-80.76968,Mary's Pizza,"['Pizza', 'Italian', 'Sandwiches']",[]
1168,Lisbon village,Lisbon,OH,40.7720443950134,-80.7689892500639,Courthouse Inn and Restaurant,"['Cocktail Bars', 'Vegetarian', 'Comfort Food']",[]
1169,Lisbon village,Lisbon,OH,40.77173,-80.76748,Fox's Pizza Den,"['Pizza', 'Sandwiches']",[]
1170,Lisbon village,Lisbon,OH,40.7889197930143,-80.7769767348653,Italo's Pizza,['Pizza'],[]
1171,Lisbon village,Lisbon,OH,40.7712885980784,-80.7681175362318,Coaches Burger Bar Lisbon,['Burgers'],[]
1172,Lisbon village,Lisbon,OH,40.7753,-80.7684,East Pearl,['Chinese'],[]
1173,Lisbon village,Lisbon,OH,40.7723069374685,-80.767155317791,Subway,['Sandwiches'],[]
1174,Lisbon village,Lisbon,OH,40.787766,-80.775111,McDonald's,"['Fast Food', 'Burgers', 'Coffee & Tea']",[]
1175,Socorro city,Socorro,NM,34.0675928888441,-106.893296688795,Yo Mama's Grill,"['American (New)', 'Steakhouses', 'Seafood']",[]
1176,Socorro city,Socorro,NM,34.0562471,-106.8953565,La Pasadita Cafe,['Mexican'],[]
1177,Socorro city,Socorro,NM,34.064082,-106.893015,El Camino Restaurant & Lounge,"['Mexican', 'Lounges', 'Breakfast & Brunch']",[]
1178,Socorro city,Socorro,NM,34.0630145791989,-106.891758441925,Bodega Burger Co & Lounge,"['American (New)', 'Steakhouses', 'Burgers']",[]
1179,Socorro city,Socorro,NM,34.057212,-106.892568,M Mountain Coffee,['Coffee & Tea'],[]
1180,Socorro city,Socorro,NM,34.0700049037266,-106.8927588654,Socorro Springs Restaurant,['American (New)'],[]
1181,Socorro city,Socorro,NM,34.0689089005607,-106.893948505524,Sofia's Kitchen and Burrito Tyme,"['Mexican', 'Burgers']",[]
1182,Socorro city,Socorro,NM,34.057566890597,-106.889963038266,Don Juan's Cocina,"['Mexican', 'Breakfast & Brunch']",[]
1183,Socorro city,Socorro,NM,34.05510438047917,-106.89182185535539,Mi Jacalito,"['Food Trucks', 'Mexican']",[]
1184,Socorro city,Socorro,NM,34.0750274062157,-106.89186103642,El Sombrero Cafe,['Mexican'],[]
1185,Socorro city,Socorro,NM,34.0740738680507,-106.894420869648,Jackson Ranch Steakhouse,['Steakhouses'],[]
1186,Socorro city,Socorro,NM,34.0651794,-106.9035928,Mineralogical Museum,['Museums'],[]
1187,Socorro city,Socorro,NM,34.05993,-106.89185,Sevilleta National Wildlife Refuge,"['Public Services & Government', 'Parks']",[]
1188,Socorro city,Socorro,NM,34.0572549565647,-106.893603801727,Socorro Historic Plaza,['Landmarks & Historical Buildings'],[]
1189,Socorro city,Socorro,NM,34.050846,-106.891035,Armijo's Mexican Restaurant,['Mexican'],[]
1190,Socorro city,Socorro,NM,34.065343,-106.892854,Blake's Lotaburger,"['Breakfast & Brunch', 'Burgers', 'Hot Dogs']",[]
1191,Socorro city,Socorro,NM,34.0438684,-106.9085112,Box Canyon,"['Hiking', 'Rock Climbing', 'Mountain Biking']",[]
1192,Socorro city,Socorro,NM,34.057111,-106.892622,Capitol Bar,['Bars'],[]
1193,Socorro city,Socorro,NM,34.0656545571295,-106.905845509958,Chartwells,['Restaurants'],[]
1194,Socorro city,Socorro,NM,34.062046,-106.892195,Sweet Occasions,"['Cupcakes', 'Bakeries']",[]
1195,Mendham township,Mendham,NJ,40.7756623592079,-74.6022406242452,Sapori D'Italia,"['Pizza', 'Italian']",[]
1196,Mendham township,Mendham,NJ,40.775969461877,-74.601242,The Black Horse Tavern & Pub,"['American (Traditional)', 'Pubs']",[]
1197,Mendham township,Mendham,NJ,40.7824833068977,-74.589398,Piattino: A Neighborhood Bistro,"['Italian', 'Pizza', 'Wine Bars']",[]
1198,Mendham township,Mendham,NJ,40.7825,-74.588943,Aoyama,"['Japanese', 'Chinese', 'Sushi Bars']",[]
1199,Mendham township,Mendham,NJ,40.78293,-74.58699,Dante's Ristorante,"['Pizza', 'Italian', 'Breakfast & Brunch']",[]
1200,Mendham township,Mendham,NJ,40.7758445739746,-74.6017761230469,Colonial Pantry,['Delis'],[]
1201,Mendham township,Mendham,NJ,40.773783,-74.6367999,Sammy's Ye Old Cider Mill,['Steakhouses'],[]
1202,Mendham township,Mendham,NJ,40.7822422284152,-74.588954,Wicker Basket,"['Delis', 'Sandwiches']",[]
1203,Mendham township,Mendham,NJ,40.77364,-74.61013,Hidden Pond Tree Farm,['Local Flavor'],[]
1204,Mendham township,Mendham,NJ,40.7757322793308,-74.6029864748688,Simple Coffee,['Coffee & Tea'],[]
1205,Mendham township,Mendham,NJ,40.776106,-74.60024,Sorrento's Pizza,"['Pizza', 'Italian']","['delivery', 'pickup']"
1206,Mendham township,Mendham,NJ,40.7824707,-74.5893975,Mendham Bagel & Coffee Shop,"['Bagels', 'Coffee & Tea']","['delivery', 'pickup']"
1207,Mendham township,Mendham,NJ,40.775686,-74.60063,Mendham Creamery,"['Ice Cream & Frozen Yogurt', 'Juice Bars & Smoothies']",[]
1208,Mendham township,Mendham,NJ,40.784603,-74.620021,India Brook Park,['Parks'],[]
1209,Mendham township,Trenton,NJ,40.2193603515625,-74.7609405517578,Cousins Maine Lobster - Trenton & Philadelphia,"['Food Trucks', 'Seafood']",[]
1210,Mendham township,Woodland Park,NJ,40.8837,-74.20366,PIE OH MY,"['Food Trucks', 'Pizza', 'Caterers']",[]
1211,Mendham township,Coopersburg,PA,40.51151,-75.3911,Frozen Island,"['Shaved Ice', 'Food Trucks', 'Ice Cream & Frozen Yogurt']",[]
1212,Mendham township,Hoboken,NJ,40.7430114746094,-74.0331726074219,Chef J's Latin Dragon,"['Food Trucks', 'Asian Fusion']",[]
1213,Mendham township,Brooklyn,NY,40.635195,-73.9612192,STUF'D,"['Sandwiches', 'Food Trucks', 'American (Traditional)']",[]
1214,Mendham township,Upper Darby,PA,39.9603691101074,-75.2629623413086,The Munchy Machine,"['Food Trucks', 'Comfort Food']",[]
1215,West Haverstraw village,West Haverstraw,NY,41.205453318551,-73.9847924508308,The Filling Station,"['Burgers', 'Ice Cream & Frozen Yogurt', 'Hot Dogs']",['delivery']
1216,West Haverstraw village,Haverstraw,NY,41.1967875,-73.965413,UNION Restaurant and Bar Latino,['Latin American'],['delivery']
1217,West Haverstraw village,Haverstraw,NY,41.1979317,-73.980868,Big Daddys Home Plate BBQ,"['Barbeque', 'Southern']",['delivery']
1218,West Haverstraw village,West Haverstraw,NY,41.208488,-73.985679,Off the Hook,['Seafood'],"['delivery', 'pickup']"
1219,West Haverstraw village,Stony Point,NY,41.2230822,-73.9844253,Gyro Point Plus,"['Greek', 'Burgers', 'Mediterranean']","['delivery', 'pickup']"
1220,West Haverstraw village,West Haverstraw,NY,41.207958,-73.985444,Italian Food Center,"['Delis', 'Italian', 'Sandwiches']",['delivery']
1221,West Haverstraw village,Stony Point,NY,41.22419,-73.98447,Hogan's Family Diner,['Diners'],['delivery']
1222,West Haverstraw village,West Haverstraw,NY,41.2151433,-73.9673018,Hudson Water Club,"['Seafood', 'American (New)']",['delivery']
1223,West Haverstraw village,Stony Point,NY,41.2262022179475,-73.9856166020036,Stony Point Pancake Factory,['Breakfast & Brunch'],['delivery']
1224,West Haverstraw village,Haverstraw,NY,41.19613,-73.9644,Tacos Marianita,['Mexican'],['delivery']
1225,West Haverstraw village,Stony Point,NY,41.21772,-73.98288,Sakura,"['Japanese', 'Sushi Bars']",['delivery']
1226,West Haverstraw village,Stony Point,NY,41.22383,-73.98493,Deli Central,"['Delis', 'Salad']",['delivery']
1227,West Haverstraw village,Stony Point,NY,41.2246490670876,-73.9853377239521,It's Coffee,['Coffee & Tea'],"['delivery', 'pickup']"
1228,West Haverstraw village,Haverstraw,NY,41.195858,-73.9605596,Don Coqui | Haverstraw,['Latin American'],['delivery']
1229,West Haverstraw village,Stony Point,NY,41.21641,-73.98632,Rock’s Kitchen,"['Pizza', 'Juice Bars & Smoothies', 'Acai Bowls']","['delivery', 'pickup']"
1230,West Haverstraw village,Stony Point,NY,41.2146243,-73.9860285,Lynch's Restaurant,['American (Traditional)'],['delivery']
1231,West Haverstraw village,Stony Point,NY,41.22454,-73.96719,Playa Cancun,['Mexican'],['delivery']
1232,West Haverstraw village,Garnerville,NY,41.20773,-73.99038,Hudson’s Mill,"['American (New)', 'Bars']",[]
1233,West Haverstraw village,West Haverstraw,NY,41.209095,-73.981773,Babe's,['Barbeque'],['delivery']
1234,West Haverstraw village,Stony Point,NY,41.22534,-73.98533,Mario's Pasta Cucina,['Italian'],['delivery']
1235,Ottumwa city,Ottumwa,IA,41.0180850897873,-92.4119392409921,Canteen Lunch In the Alley,"['Diners', 'Burgers']",[]
1236,Ottumwa city,Ottumwa,IA,41.0154508952562,-92.4095363169909,Appanoose Rapids,['American (Traditional)'],[]
1237,Ottumwa city,Ottumwa,IA,41.0180065069916,-92.4103892795087,Tequila Grill,"['Mexican', 'Bars']",[]
1238,Ottumwa city,Ottumwa,IA,41.02194,-92.41673,Morgan's Corner,['American (New)'],[]
1239,Ottumwa city,Ottumwa,IA,41.01664,-92.43675,Bubba-Q's,['Barbeque'],[]
1240,Ottumwa city,Ottumwa,IA,41.0084313685518,-92.4200168861256,Juanita's Restaurant,['Latin American'],[]
1241,Ottumwa city,Ottumwa,IA,41.02279,-92.41973,Main Street Donuts,"['Donuts', 'Burgers', 'Bagels']",[]
1242,Ottumwa city,Ottumwa,IA,41.0195401578694,-92.4128786295101,Hub Coffee,"['Coffee & Tea', 'Bubble Tea']",[]
1243,Ottumwa city,Ottumwa,IA,41.0163145523185,-92.4427048489451,Jade Palace,"['Chinese', 'Imported Food']",[]
1244,Ottumwa city,Ottumwa,IA,41.023686,-92.418324,Graham Milk & Ice Cream,['Ice Cream & Frozen Yogurt'],[]
1245,Ottumwa city,Ottumwa,IA,41.03665,-92.43492,Recovery Room,"['Bars', 'American (Traditional)']",[]
1246,Ottumwa city,Ottumwa,IA,41.051367,-92.411073,Mike's Pizza & Steakhouse,['Pizza'],[]
1247,Ottumwa city,Ottumwa,IA,41.0510749816895,-92.4088134765625,Courtside Bar & Grill,"['Sports Bars', 'Burgers']",[]
1248,Ottumwa city,Ottumwa,IA,41.0087199,-92.41915,Uncle Buck's Bar & Grill,"['Bars', 'American (Traditional)', 'Barbeque']",[]
1249,Ottumwa city,Ottumwa,IA,41.016829,-92.440603,Mizu Hibachi Sushi,"['Japanese', 'Sushi Bars']",[]
1250,Ottumwa city,Ottumwa,IA,41.0280529927309,-92.4019557237625,The Vine Coffeehouse,"['Coffee & Tea', 'Internet Cafes']",[]
1251,Ottumwa city,Ottumwa,IA,41.0185857089109,-92.4116820842028,Tom Tom Tap,"['Bars', 'American (Traditional)']",[]
1252,Ottumwa city,Ottumwa,IA,41.015797,-92.409518,Red Sea Eritrean and Ethiopian Restaurant,"['Ethiopian', 'Eritrean']",[]
1253,Ottumwa city,Ottumwa,IA,41.0185846,-92.4118254,Second Street Cafe,"['American (Traditional)', 'Cafes']",[]
1254,Ottumwa city,Ottumwa,IA,41.01278,-92.4062299,Taqueria Juquilita,['Mexican'],[]
1255,Balance of Oconto County,Oconto,WI,44.89605,-87.88375,Wayne's Family Restaurant,"['American (New)', 'Diners']",[]
1256,Balance of Oconto County,Oconto,WI,44.892486,-87.8838558,Happy Garden,['Chinese'],[]
1257,Balance of Oconto County,Oconto,WI,44.88635,-87.86943,Brothers Three,"['Pizza', 'Bars', 'Italian']",[]
1258,Balance of Oconto County,Oconto,WI,44.88696,-87.86602,The Garage,['Bars'],[]
1259,Balance of Oconto County,Oconto,WI,44.8881683349609,-87.8874816894531,Holtwood Campground,['Parks'],[]
1260,Balance of Oconto County,Oconto,WI,44.8934151,-87.8887572,The Ruins Adventure Mini Golf - Oconto,"['Mini Golf', 'Ice Cream & Frozen Yogurt']",[]
1261,Balance of Oconto County,Oconto,WI,44.88984,-87.88257,Shiloh Lounge,"['Bars', 'Seafood']",[]
1262,Balance of Oconto County,Oconto,WI,44.8833389282227,-87.8854141235352,Wiseguys Riverside Bar,"['American (Traditional)', 'Bars']",[]
1263,Balance of Oconto County,Oconto,WI,44.8840999,-87.8847,Shake A Burger,['Fast Food'],[]
1264,Balance of Oconto County,Oconto,WI,44.8933934830553,-87.8848126530647,McDonald's,"['Coffee & Tea', 'Burgers', 'Fast Food']",[]
1265,Balance of Oconto County,Oconto,WI,44.8893799467831,-87.8981708736802,Copper Culture State Park,"['Parks', 'Landmarks & Historical Buildings', 'Museums']",[]
1266,Balance of Oconto County,Oconto,WI,44.8587587863076,-87.8550809821858,City Park,"['Parks', 'Campgrounds', 'Beaches']",[]
1267,Balance of Oconto County,Oconto,WI,44.88814,-87.87133,Crivello's,['American (Traditional)'],[]
1268,Balance of Oconto County,Oconto,WI,44.8844578,-87.8837392681055,Subway,['Sandwiches'],[]
1269,Balance of Oconto County,Oconto,WI,44.8907596617937,-87.8577699512243,Oconto Golf Club,['Golf'],[]
1270,Balance of Oconto County,De Pere,WI,44.4490165710449,-88.055419921875,Oley's Pepperoni Cannoli,"['Food Trucks', 'Pizza', 'Italian']",[]
1271,St. Peter city,Saint Peter,MN,44.32386,-93.95693,River Rock Coffee,"['Coffee & Tea', 'Bakeries']",[]
1272,St. Peter city,Saint Peter,MN,44.3256035682295,-93.9576794659898,Patrick's on Third,"['Pubs', 'Burgers', 'American (Traditional)']",[]
1273,St. Peter city,Saint Peter,MN,44.32374,-93.95997,3rd Street Tavern,"['Southern', 'Barbeque', 'Comfort Food']",[]
1274,St. Peter city,Saint Peter,MN,44.3226111976645,-93.9598014846374,St Peter Food Co-op & Deli,"['Grocery', 'Delis']",[]
1275,St. Peter city,Saint Peter,MN,44.32823,-93.9701,Diamond Dust Bakery & Coffee Shop,"['Bakeries', 'Coffee & Tea', 'Cupcakes']",[]
1276,St. Peter city,Saint Peter,MN,44.32414,-93.95777,China Town,['Chinese'],[]
1277,St. Peter city,St Peter,MN,44.32322,-93.95734,Blaschko's Embassy Bar & Grill,"['American (Traditional)', 'Sports Bars', 'Burgers']",[]
1278,St. Peter city,Saint Peter,MN,44.3327599,-93.9503937,El Agave,['Mexican'],[]
1279,St. Peter city,Saint Peter,MN,44.3238754272461,-93.9598617553711,Nicollet Cafe,"['Breakfast & Brunch', 'Coffee & Tea', 'American (Traditional)']",[]
1280,St. Peter city,St Peter,MN,44.3257400356078,-93.9551478624344,Jake's Pizza,['Pizza'],[]
1281,St. Peter city,St. Peter,MN,44.3233642578125,-93.9572143554688,The Cheese and Pie Mongers,"['Cheese Shops', 'Bakeries']",[]
1282,St. Peter city,Saint Peter,MN,44.3256721496582,-93.9564666748047,Great Wall,['Szechuan'],[]
1283,St. Peter city,Saint Peter,MN,44.3241004943848,-93.9567031860352,Godfather's Pizza,['Pizza'],[]
1284,St. Peter city,Saint Peter,MN,44.3168403913836,-93.9631556180145,Dunkin',"['Donuts', 'Coffee & Tea']",[]
1285,St. Peter city,St.Peter,MN,44.32442,-93.95739,Erbert and Gerbert's Sandwich Shop,"['Sandwiches', 'Soup', 'Salad']",['delivery']
1286,St. Peter city,St Peter,MN,44.326030732443,-93.9549775421619,Taco John's,"['Fast Food', 'Mexican']",[]
1287,St. Peter city,Saint Peter,MN,44.32455,-93.95744,Extra Innings Paninos & Pizza,"['Sandwiches', 'Pizza', 'Salad']",[]
1288,St. Peter city,Saint Peter,MN,44.3334995,-93.9499577879906,Dairy Queen Grill & Chill,"['Fast Food', 'Ice Cream & Frozen Yogurt', 'Burgers']",[]
1289,St. Peter city,Saint Peter,MN,44.3158798217773,-93.9636535644531,Arbys,"['Fast Food', 'Sandwiches']",[]
1290,St. Peter city,Saint Peter,MN,44.3135057177255,-93.9254548028111,The Woods Grill,['American (Traditional)'],[]
1291,Mahtomedi city,Mahtomedi,MN,45.0372799876165,-92.9839005321264,QC Pizza,['Pizza'],"['pickup', 'delivery']"
1292,Mahtomedi city,White Bear Lake,MN,45.0499562642979,-92.9871235415339,Donatelli's,"['Pizza', 'Italian']",['delivery']
1293,Mahtomedi city,Willernie,MN,45.0571509669018,-92.9579040092196,Roma Restaurant,"['Italian', 'Wine Bars', 'Pizza']",['delivery']
1294,Mahtomedi city,Mahtomedi,MN,45.0582042,-92.9584296,4 Seasons Restaurant,['American (Traditional)'],"['pickup', 'delivery']"
1295,Mahtomedi city,Mahtomedi,MN,45.056386,-92.95979,The Wildwood Tavern,"['Salad', 'Soup', 'Sandwiches']",[]
1296,Mahtomedi city,Willernie,MN,45.056776,-92.958313,Gordy's Steakhouse,['Steakhouses'],['delivery']
1297,Mahtomedi city,White Bear Lake,MN,45.0503849,-92.9841358,El Pariente Mexican Grill,"['Tacos', 'Beer Bar']",['delivery']
1298,Mahtomedi city,white bear lake,MN,45.051078,-92.985498,Ha Long Bay,"['Vietnamese', 'Chinese']",['delivery']
1299,Mahtomedi city,Mahtomedi,MN,45.056522,-92.9592495,The Wild Bean,"['Coffee & Tea', 'Breakfast & Brunch', 'Donuts']",[]
1300,Mahtomedi city,Saint Paul,MN,44.99237,-93.15242,La Tapatia,"['Food Trucks', 'Mexican']","['pickup', 'delivery']"
1301,Mahtomedi city,Willernie,MN,45.05648,-92.95815,Valerie's Asian Cuisin,['Asian Fusion'],['delivery']
1302,Mahtomedi city,Mahtomedi,MN,45.0676599,-92.95689,Carbone's Pizzeria,['Pizza'],['delivery']
1303,Mahtomedi city,White Bear Lake,MN,45.049712,-92.987308,Bierstube,"['American (New)', 'Bars', 'German']","['pickup', 'delivery']"
1304,Mahtomedi city,White Bear Lake,MN,45.050757,-92.988094,Dunn Brothers Coffee,['Coffee & Tea'],[]
1305,Mahtomedi city,Mahtomedi,MN,45.03728,-92.98419,POCO Mexican Restaurant & Bar,"['Bars', 'Tacos']","['pickup', 'delivery']"
1306,Mahtomedi city,Mahtomedi,MN,45.0498128,-92.9823803901672,Dairy Queen,['Ice Cream & Frozen Yogurt'],['delivery']
1307,Mahtomedi city,White Bear Lake,MN,45.0497088,-92.9861519,Subway Restaurants,['Sandwiches'],[]
1308,Mahtomedi city,Saint Paul,MN,45.0158958435059,-92.9960708618164,Ninja Sushi,"['Food Trucks', 'Sushi Bars']",[]
1309,Mahtomedi city,White Bear Lake,MN,45.05063,-92.98556,Caribou Coffee and Einstein's Bakery,"['Bagels', 'Juice Bars & Smoothies']",['delivery']
1310,Mahtomedi city,Stillwater,MN,45.048329,-92.8072674,Sara's Tipsy Pies,"['Bakeries', 'Coffee & Tea', 'Cafes']",[]
